{
"type": "FeatureCollection",
"name": "DAMS",
"crs": { "type": "name", "properties": { "name": "urn:ogc:def:crs:OGC:1.3:CRS84" } },
"features": [
{ "type": "Feature", "properties": { "OBJECTID": 1, "AREA": 0.001, "PERIMETER": 0.119, "DAMS_": 113, "DAMS_ID": 1, "DAM_NAME": "Dandanda", "NEWFIELD1": null, "Shape_Leng": 0.11945933417, "Shape_Area": 0.0007477763 }, "geometry": { "type": "MultiPolygon", "coordinates": [ [ [ [ 27.932073592422398, -18.441135405874263 ], [ 27.937723159596203, -18.443960189910797 ], [ 27.938665389196387, -18.452434539322496 ], [ 27.933958053421463, -18.456199645497179 ], [ 27.92454147261094, -18.458082199034209 ], [ 27.914184569662211, -18.458082199034209 ], [ 27.902887343676014, -18.45902442863445 ], [ 27.895355223864556, -18.45714187599674 ], [ 27.891775130717747, -18.453104018935278 ], [ 27.887023925114079, -18.447746276369514 ], [ 27.895355223864556, -18.442077636373767 ], [ 27.903827666713482, -18.441135405874263 ], [ 27.913795470784407, -18.441173553316787 ], [ 27.927366256647474, -18.442077636373767 ], [ 27.932073592422398, -18.441135405874263 ] ] ] ] } },
{ "type": "Feature", "properties": { "OBJECTID": 2, "AREA": 0.0, "PERIMETER": 0.049, "DAMS_": 115, "DAMS_ID": 1, "DAM_NAME": "Siwale", "NEWFIELD1": null, "Shape_Leng": 0.04851617647, "Shape_Area": 0.00010491747 }, "geometry": { "type": "MultiPolygon", "coordinates": [ [ [ [ 27.752664565717168, -18.449312210090397 ], [ 27.756984710076381, -18.455324172572489 ], [ 27.753519057458561, -18.455213546068251 ], [ 27.750692366859312, -18.456096648841253 ], [ 27.743408202726414, -18.456241606964568 ], [ 27.736499786136278, -18.454656600421742 ], [ 27.735317229806355, -18.452342986539577 ], [ 27.744693755712319, -18.449745177897569 ], [ 27.752664565717168, -18.449312210090397 ] ] ] ] } },
{ "type": "Feature", "properties": { "OBJECTID": 3, "AREA": 0.0, "PERIMETER": 0.037, "DAMS_": 122, "DAMS_ID": 1, "DAM_NAME": "Zhombe", "NEWFIELD1": null, "Shape_Leng": 0.03686579575, "Shape_Area": 8.48636e-05 }, "geometry": { "type": "MultiPolygon", "coordinates": [ [ [ [ 28.05322647052526, -18.621150970440908 ], [ 28.048984527613925, -18.627706527234409 ], [ 28.039005278770674, -18.622917175087537 ], [ 28.041685103784573, -18.619091033724203 ], [ 28.050434112444407, -18.617679595436925 ], [ 28.05322647052526, -18.621150970440908 ] ] ] ] } },
{ "type": "Feature", "properties": { "OBJECTID": 4, "AREA": 0.0, "PERIMETER": 0.046, "DAMS_": 124, "DAMS_ID": 1, "DAM_NAME": "Sikoba-Sina-Danka", "NEWFIELD1": null, "Shape_Leng": 0.04572359877, "Shape_Area": 0.00010591271 }, "geometry": { "type": "MultiPolygon", "coordinates": [ [ [ [ 28.080718993686673, -18.637922286983894 ], [ 28.07358551006331, -18.647697448178633 ], [ 28.073205947596477, -18.644479751239487 ], [ 28.071907043275473, -18.639863967348163 ], [ 28.074424743007512, -18.632211684621495 ], [ 28.078193664106379, -18.628505706173371 ], [ 28.082422255682616, -18.630582809149303 ], [ 28.080718993686673, -18.637922286983894 ] ] ] ] } },
{ "type": "Feature", "properties": { "OBJECTID": 5, "AREA": 0.009, "PERIMETER": 2.107, "DAMS_": 137, "DAMS_ID": 2, "DAM_NAME": "Shangani", "NEWFIELD1": null, "Shape_Leng": 1.07601769717, "Shape_Area": 0.00455123029 }, "geometry": { "type": "MultiPolygon", "coordinates": [ [ [ [ 27.836912154772165, -18.767728805140223 ], [ 27.851631164446758, -18.773365020079552 ], [ 27.866247176565992, -18.770286559776878 ], [ 27.875858306815473, -18.77578163151702 ], [ 27.886157989499679, -18.786201477116435 ], [ 27.905067443307928, -18.786214828451534 ], [ 27.913608551193761, -18.787683486103958 ], [ 27.921352385804028, -18.789388656461256 ], [ 27.930549621068224, -18.792758941372028 ], [ 27.945747374941448, -18.795255660820033 ], [ 27.963731765408681, -18.801443099919084 ], [ 27.980026244315752, -18.806756973555423 ], [ 27.99177551272976, -18.81234741210335 ], [ 27.999799728075061, -18.819860458193546 ], [ 28.015121459787565, -18.82198905904778 ], [ 28.031858443812212, -18.817937850651219 ], [ 28.044214248288995, -18.818849563556455 ], [ 28.053695678312977, -18.82421684253319 ], [ 28.065418243157467, -18.827322005506119 ], [ 28.076450347205821, -18.82550048805706 ], [ 28.088457106810097, -18.835544586113713 ], [ 28.103593825494727, -18.837812423604419 ], [ 28.111745833603379, -18.834043502505608 ], [ 28.11959457413036, -18.830480575618026 ], [ 28.127384186031406, -18.829437255924574 ], [ 28.136293410712369, -18.835372924420881 ], [ 28.146764755089407, -18.834228515533539 ], [ 28.160505294283951, -18.826799392378007 ], [ 28.173587798638039, -18.821609496580948 ], [ 28.188472747619244, -18.819532393605016 ], [ 28.197765349691167, -18.822771071727516 ], [ 28.207700728705731, -18.818502426145983 ], [ 28.220844268248413, -18.817712783618049 ], [ 28.233369826955993, -18.818664550528524 ], [ 28.246971129514066, -18.825033187731378 ], [ 28.262037276599074, -18.826778412093972 ], [ 28.267524719390337, -18.819128035930078 ], [ 28.276344298750416, -18.811517715570062 ], [ 28.288843154787799, -18.811670302642312 ], [ 28.302230834185707, -18.811058044193317 ], [ 28.303253173595124, -18.815603255585756 ], [ 28.306835174203968, -18.82269096371698 ], [ 28.308937754973442, -18.823011864306068 ], [ 28.309379841006887, -18.823882710218868 ], [ 28.309464368286001, -18.82906459575446 ], [ 28.299474715186022, -18.825695037495962 ], [ 28.293779372520078, -18.828716277534113 ], [ 28.282072066472722, -18.827802657166842 ], [ 28.27613449051438, -18.825412750198211 ], [ 28.268980025707663, -18.833045959203616 ], [ 28.256444930589112, -18.832111358552311 ], [ 28.243913650394688, -18.831171035514842 ], [ 28.227947235176828, -18.827856063406557 ], [ 28.212820052903169, -18.8245449062224 ], [ 28.203098297048825, -18.830577849887788 ], [ 28.189941405271668, -18.834234237020382 ], [ 28.171689987203195, -18.835485458387154 ], [ 28.161996840581764, -18.83604621895779 ], [ 28.153541564891384, -18.839042663787836 ], [ 28.143028259046957, -18.843410492000544 ], [ 28.129255293896733, -18.839685439831158 ], [ 28.121311187461401, -18.836854934307723 ], [ 28.11439514102301, -18.840270995609899 ], [ 28.103740691979397, -18.84567832949125 ], [ 28.09465789724419, -18.84799003591138 ], [ 28.083322524714788, -18.843675613039068 ], [ 28.075811385187308, -18.836505889435216 ], [ 28.066930770638578, -18.833856582015585 ], [ 28.05665779062457, -18.834144591699499 ], [ 28.043498992284697, -18.829219817840283 ], [ 28.03672790486894, -18.827358245486607 ], [ 28.028215408014717, -18.824722290301395 ], [ 28.017290114647096, -18.827997207505064 ], [ 28.004880904829918, -18.828678130990909 ], [ 27.993900298659923, -18.827173232458676 ], [ 27.985115050918921, -18.819574355971724 ], [ 27.974781035716262, -18.817411422599037 ], [ 27.964410781432491, -18.811269759891445 ], [ 27.950950622073606, -18.806415557631851 ], [ 27.935815810851068, -18.803880691640586 ], [ 27.9243659968933, -18.798641204527939 ], [ 27.90736961331703, -18.792156219334004 ], [ 27.894023895386511, -18.793380737131258 ], [ 27.880559921103554, -18.790689468244295 ], [ 27.871807097519593, -18.782817839971301 ], [ 27.862171172961325, -18.776540755551366 ], [ 27.851596831928305, -18.779888152716012 ], [ 27.838514327574217, -18.776741027376488 ], [ 27.831933974673234, -18.773994445687094 ], [ 27.821163176739276, -18.774282455370951 ], [ 27.814348220394095, -18.770704269686235 ], [ 27.836912154772165, -18.767728805140223 ] ] ] ] } }
]
}
