{
"type": "FeatureCollection",
"name": "FARM BOUNDARY 20251",
"crs": { "type": "name", "properties": { "name": "urn:ogc:def:crs:OGC:1.3:CRS84" } },
"features": [
{ "type": "Feature", "properties": { "Name": "Untitled Polygon", "description": null, "timestamp": null, "begin": null, "end": null, "altitudeMode": null, "tessellate": 1, "extrude": 0, "visibility": -1, "drawOrder": null, "icon": null }, "geometry": { "type": "Polygon", "coordinates": [ [ [ 27.767297292816099, -18.95537309242976, 0.0 ], [ 27.767355741406941, -18.955325864552201, 0.0 ], [ 27.76741675244736, -18.955298664542379, 0.0 ], [ 27.767456575835531, -18.955273853043369, 0.0 ], [ 27.767587929362129, -18.955208234172591, 0.0 ], [ 27.76765150570564, -18.95520106465764, 0.0 ], [ 27.76771253056199, -18.95517385862313, 0.0 ], [ 27.767813393479759, -18.955121833172001, 0.0 ], [ 27.767938009228299, -18.955087452873389, 0.0 ], [ 27.767999103341829, -18.955060223736751, 0.0 ], [ 27.76807207872379, -18.955041815511859, 0.0 ], [ 27.768139951944871, -18.954983335394498, 0.0 ], [ 27.768290107469049, -18.954895244580449, 0.0 ], [ 27.768363049776841, -18.954876850354982, 0.0 ], [ 27.76848517258265, -18.954822424147881, 0.0 ], [ 27.768623397312311, -18.95472554474134, 0.0 ], [ 27.768754806872401, -18.95465992728715, 0.0 ], [ 27.76886248293523, -18.954576667235852, 0.0 ], [ 27.768932835204382, -18.95453826265037, 0.0 ], [ 27.768993855373822, -18.954511061798861, 0.0 ], [ 27.769085388839361, -18.95447025376459, 0.0 ], [ 27.76914641294378, -18.954443048607629, 0.0 ], [ 27.76921929598851, -18.954424660952181, 0.0 ], [ 27.76933709356501, -18.95442151392032, 0.0 ], [ 27.769443067943961, -18.954409530032759, 0.0 ], [ 27.769513459188271, -18.9543710894363, 0.0 ], [ 27.769515183161701, -18.954299778298431, 0.0 ], [ 27.7695050410546, -18.954219658537362, 0.0 ], [ 27.769476240001541, -18.954161976977261, 0.0 ], [ 27.769456829585369, -18.95409301427393, 0.0 ], [ 27.769437417383141, -18.95402404418796, 0.0 ], [ 27.769399324222999, -18.953977529031249, 0.0 ], [ 27.769370569199829, -18.953919781609951, 0.0 ], [ 27.769311278137049, -18.953875674890401, 0.0 ], [ 27.769230795878631, -18.953833981703831, 0.0 ], [ 27.7691646996076, -18.95382116549051, 0.0 ], [ 27.769096086353521, -18.953788298414601, 0.0 ], [ 27.769024953063042, -18.953735380887501, 0.0 ], [ 27.76896315157218, -18.953671230963849, 0.0 ], [ 27.768794659411189, -18.95352771244437, 0.0 ], [ 27.768630435662669, -18.953332843144612, 0.0 ], [ 27.768547460645721, -18.953271117894658, 0.0 ], [ 27.768473801235739, -18.953198128607291, 0.0 ], [ 27.768430574059071, -18.953111289331311, 0.0 ], [ 27.76839243417805, -18.953064644270668, 0.0 ], [ 27.768321336819628, -18.953011826580219, 0.0 ], [ 27.768297676853312, -18.952994328104062, 0.0 ], [ 27.768216288434122, -18.952860846832149, 0.0 ], [ 27.76815433362944, -18.952796339238692, 0.0 ], [ 27.768113560732399, -18.952729435998108, 0.0 ], [ 27.768075340386051, -18.952682651847361, 0.0 ], [ 27.768060890473421, -18.952653654355469, 0.0 ], [ 27.768022714080651, -18.95260697998846, 0.0 ], [ 27.767927820094592, -18.95253639404563, 0.0 ], [ 27.767876155877019, -18.952552550580631, 0.0 ], [ 27.767787255597881, -18.95261376295748, 0.0 ], [ 27.767716995901679, -18.95265243436916, 0.0 ], [ 27.767634896488371, -18.952682278448449, 0.0 ], [ 27.767510507632199, -18.95271699316795, 0.0 ], [ 27.767421709663399, -18.952778148087781, 0.0 ], [ 27.7673819921262, -18.952803121456661, 0.0 ], [ 27.76731188966545, -18.952841829152579, 0.0 ], [ 27.767272210873099, -18.95286681469209, 0.0 ], [ 27.767162484309878, -18.952930477386779, 0.0 ], [ 27.767092448821369, -18.95296914685542, 0.0 ], [ 27.76701315782562, -18.9530190445962, 0.0 ], [ 27.766961555677231, -18.95303506593131, 0.0 ], [ 27.766851608403499, -18.953098361299119, 0.0 ], [ 27.766748424686071, -18.95313039471008, 0.0 ], [ 27.766647397572122, -18.95318217873205, 0.0 ], [ 27.766576901105388, -18.95322042796138, 0.0 ], [ 27.76650673800896, -18.953258898451558, 0.0 ], [ 27.766445913324009, -18.953286166926869, 0.0 ], [ 27.766371526000849, -18.953375876229281, 0.0 ], [ 27.766367252997039, -18.953427108264641, 0.0 ], [ 27.766400923963669, -18.95352474636401, 0.0 ], [ 27.766441384372481, -18.953591168482991, 0.0 ], [ 27.76647254929442, -18.953668808514539, 0.0 ], [ 27.766524830691271, -18.953744046718889, 0.0 ], [ 27.766556000839639, -18.953821701206149, 0.0 ], [ 27.766584731494969, -18.953879371492281, 0.0 ], [ 27.766632237356671, -18.953914681988831, 0.0 ], [ 27.76668731777394, -18.9540100466083, 0.0 ], [ 27.76670171853543, -18.954038890402089, 0.0 ], [ 27.76675173867643, -18.954094206229009, 0.0 ], [ 27.766797417659529, -18.9542007321038, 0.0 ], [ 27.76682614568357, -18.954258391929791, 0.0 ], [ 27.766833654279431, -18.954318428338151, 0.0 ], [ 27.76683866024749, -18.954358454586188, 0.0 ], [ 27.766834961306959, -18.95450093992326, 0.0 ], [ 27.766859997259189, -18.95470112709328, 0.0 ], [ 27.766903100259121, -18.954787642447151, 0.0 ], [ 27.766910613424571, -18.95484771028331, 0.0 ], [ 27.766986213702449, -18.954940706991639, 0.0 ], [ 27.767031355085361, -18.955047351921831, 0.0 ], [ 27.767097661974539, -18.955151673647059, 0.0 ], [ 27.767178666952361, -18.95528484939685, 0.0 ], [ 27.767252361405081, -18.95535784077012, 0.0 ], [ 27.767297292816099, -18.95537309242976, 0.0 ] ] ] } },
{ "type": "Feature", "properties": { "Name": "Untitled Polygon", "description": null, "timestamp": null, "begin": null, "end": null, "altitudeMode": null, "tessellate": 1, "extrude": 0, "visibility": -1, "drawOrder": null, "icon": null }, "geometry": { "type": "Polygon", "coordinates": [ [ [ 27.75924819437159, -18.940527517096619, 0.0 ], [ 27.759718442008229, -18.938993262182411, 0.0 ], [ 27.758605178298652, -18.93884516971714, 0.0 ], [ 27.758727316381631, -18.938363245490699, 0.0 ], [ 27.755553710271531, -18.937471315059291, 0.0 ], [ 27.754736353069209, -18.93939761008988, 0.0 ], [ 27.75924819437159, -18.940527517096619, 0.0 ] ] ] } },
{ "type": "Feature", "properties": { "Name": "Untitled Polygon", "description": null, "timestamp": null, "begin": null, "end": null, "altitudeMode": null, "tessellate": 1, "extrude": 0, "visibility": -1, "drawOrder": null, "icon": null }, "geometry": { "type": "Polygon", "coordinates": [ [ [ 27.768792651424022, -18.958283831678919, 0.0 ], [ 27.7688231727012, -18.958270266049471, 0.0 ], [ 27.76891221267789, -18.958209383323759, 0.0 ], [ 27.768952066559329, -18.958184534633659, 0.0 ], [ 27.769008056138599, -18.95811725266821, 0.0 ], [ 27.76902671987078, -18.958094825258179, 0.0 ], [ 27.769058993874228, -18.958009954098038, 0.0 ], [ 27.769086989459261, -18.957976311821941, 0.0 ], [ 27.7691616451412, -18.957886598629681, 0.0 ], [ 27.769229493842939, -18.95782810992667, 0.0 ], [ 27.76931852894986, -18.957767203984531, 0.0 ], [ 27.769327860551869, -18.957755990026609, 0.0 ], [ 27.769388898026492, -18.957728727673381, 0.0 ], [ 27.76949230266208, -18.957696633285892, 0.0 ], [ 27.769755820607308, -18.957656424086871, 0.0 ], [ 27.769925247496861, -18.957637097086319, 0.0 ], [ 27.770045487748781, -18.957653820452951, 0.0 ], [ 27.770132696467972, -18.957664162983878, 0.0 ], [ 27.77025972483845, -18.957649669243558, 0.0 ], [ 27.770374899610751, -18.957626383532251, 0.0 ], [ 27.770457059275859, -18.95759672019879, 0.0 ], [ 27.770485043434029, -18.957563093347961, 0.0 ], [ 27.770531684161931, -18.957507048270589, 0.0 ], [ 27.770587652109711, -18.957439794217709, 0.0 ], [ 27.77060129020316, -18.95737736495763, 0.0 ], [ 27.77059125176612, -18.957297338484398, 0.0 ], [ 27.770569372945801, -18.957208506709659, 0.0 ], [ 27.770552513539911, -18.957159687705641, 0.0 ], [ 27.77052309794669, -18.95701080305593, 0.0 ], [ 27.770518076676751, -18.956970774827901, 0.0 ], [ 27.770486731437469, -18.956892944739639, 0.0 ], [ 27.770419946822472, -18.95678882451843, 0.0 ], [ 27.770393733850359, -18.95675117728776, 0.0 ], [ 27.77031760353097, -18.95665824859589, 0.0 ], [ 27.770258347745649, -18.95661417123803, 0.0 ], [ 27.77021094150296, -18.956578908240271, 0.0 ], [ 27.770149164847549, -18.956514803772041, 0.0 ], [ 27.770099237218119, -18.956459511701659, 0.0 ], [ 27.770058643609641, -18.956393008682841, 0.0 ], [ 27.770048574468341, -18.956312900406701, 0.0 ], [ 27.770068992899969, -18.956219131867659, 0.0 ], [ 27.770073261451682, -18.956167821000371, 0.0 ], [ 27.770065677684109, -18.956107694223441, 0.0 ], [ 27.77005303801257, -18.95600748264761, 0.0 ], [ 27.770033602577229, -18.955938537399241, 0.0 ], [ 27.769950632096169, -18.95587680705011, 0.0 ], [ 27.769867654951529, -18.95581507092102, 0.0 ], [ 27.769799053616541, -18.955782195429869, 0.0 ], [ 27.76972364681534, -18.955780586961641, 0.0 ], [ 27.769650761015178, -18.955799025817509, 0.0 ], [ 27.769587197150191, -18.955806237435059, 0.0 ], [ 27.769507457101231, -18.955855877287629, 0.0 ], [ 27.7694395792074, -18.955914337912638, 0.0 ], [ 27.769387851255921, -18.955930333926439, 0.0 ], [ 27.769270776651609, -18.95602482043078, 0.0 ], [ 27.769233436645919, -18.956069670835589, 0.0 ], [ 27.769135042636321, -18.956141724415911, 0.0 ], [ 27.769060372592168, -18.956231414623769, 0.0 ], [ 27.768961987056748, -18.95630345977693, 0.0 ], [ 27.768849218278682, -18.956346654430341, 0.0 ], [ 27.768776308087329, -18.956365037208322, 0.0 ], [ 27.768637289778951, -18.95637056507142, 0.0 ], [ 27.76853132424948, -18.956382519998922, 0.0 ], [ 27.768455888540799, -18.956380858581639, 0.0 ], [ 27.76830582866333, -18.95646883133649, 0.0 ], [ 27.76819562853321, -18.956532000993612, 0.0 ], [ 27.768109144985349, -18.956612837997291, 0.0 ], [ 27.768062503452288, -18.956668882537389, 0.0 ], [ 27.768006535038388, -18.956736133197658, 0.0 ], [ 27.767962420561499, -18.95681221891072, 0.0 ], [ 27.767953092312609, -18.956823426822979, 0.0 ], [ 27.767942006861691, -18.956905983221681, 0.0 ], [ 27.768001926622059, -18.95704183172198, 0.0 ], [ 27.768066195063049, -18.957126274639091, 0.0 ], [ 27.768104261029428, -18.95717292783144, 0.0 ], [ 27.768156694266882, -18.957248543733691, 0.0 ], [ 27.76818291424031, -18.957286356364879, 0.0 ], [ 27.76821164716393, -18.957344282968819, 0.0 ], [ 27.768254754543118, -18.957431186926922, 0.0 ], [ 27.768307218676959, -18.95750683921754, 0.0 ], [ 27.76833603214687, -18.957564496309011, 0.0 ], [ 27.76838858473916, -18.957639754242859, 0.0 ], [ 27.768419925947299, -18.957717420984309, 0.0 ], [ 27.76845806641915, -18.957763842790602, 0.0 ], [ 27.76850807097885, -18.957819060386949, 0.0 ], [ 27.768555539453441, -18.957854256676399, 0.0 ], [ 27.768598732525341, -18.95794069666438, 0.0 ], [ 27.76863511822577, -18.958058353795789, 0.0 ], [ 27.768699497138769, -18.95814234952957, 0.0 ], [ 27.768773198826469, -18.95821511903009, 0.0 ], [ 27.768792651424022, -18.958283831678919, 0.0 ] ] ] } },
{ "type": "Feature", "properties": { "Name": "Untitled Polygon", "description": null, "timestamp": null, "begin": null, "end": null, "altitudeMode": null, "tessellate": 1, "extrude": 0, "visibility": -1, "drawOrder": null, "icon": null }, "geometry": { "type": "Polygon", "coordinates": [ [ [ 27.756600462023879, -18.941521981476711, 0.0 ], [ 27.75675901174619, -18.94129031231423, 0.0 ], [ 27.757573443862199, -18.94154900506846, 0.0 ], [ 27.757793673754641, -18.940943625317129, 0.0 ], [ 27.756049766160711, -18.94043883908822, 0.0 ], [ 27.75561649437395, -18.94123540084918, 0.0 ], [ 27.756600462023879, -18.941521981476711, 0.0 ] ] ] } },
{ "type": "Feature", "properties": { "Name": "Untitled Polygon", "description": null, "timestamp": null, "begin": null, "end": null, "altitudeMode": null, "tessellate": 1, "extrude": 0, "visibility": -1, "drawOrder": null, "icon": null }, "geometry": { "type": "Polygon", "coordinates": [ [ [ 27.761202279969289, -18.941438011044539, 0.0 ], [ 27.76165333383906, -18.940843075163482, 0.0 ], [ 27.760530338210131, -18.940017052665379, 0.0 ], [ 27.759944307213349, -18.94059514094673, 0.0 ], [ 27.761202279969289, -18.941438011044539, 0.0 ] ] ] } },
{ "type": "Feature", "properties": { "Name": "Untitled Polygon", "description": null, "timestamp": null, "begin": null, "end": null, "altitudeMode": null, "tessellate": 1, "extrude": 0, "visibility": -1, "drawOrder": null, "icon": null }, "geometry": { "type": "Polygon", "coordinates": [ [ [ 27.761150608883881, -18.941583873789551, 0.0 ], [ 27.759936709433639, -18.94071008264347, 0.0 ], [ 27.759054827263849, -18.94175210412584, 0.0 ], [ 27.760346644179268, -18.94268410837217, 0.0 ], [ 27.7604317939963, -18.942729394347442, 0.0 ], [ 27.760463488531521, -18.942746249711551, 0.0 ], [ 27.761150608883881, -18.941583873789551, 0.0 ] ] ] } },
{ "type": "Feature", "properties": { "Name": "Untitled Polygon", "description": null, "timestamp": null, "begin": null, "end": null, "altitudeMode": null, "tessellate": 1, "extrude": 0, "visibility": -1, "drawOrder": null, "icon": null }, "geometry": { "type": "Polygon", "coordinates": [ [ [ 27.770402178843259, -18.95065156295259, 0.0 ], [ 27.77043189254718, -18.950627519691199, 0.0 ], [ 27.770452214414529, -18.95061476550298, 0.0 ], [ 27.770461608745261, -18.95060347432706, 0.0 ], [ 27.770486629047411, -18.950585073616939, 0.0 ], [ 27.770527269038421, -18.950559568772999, 0.0 ], [ 27.770572603326169, -18.95052841958907, 0.0 ], [ 27.770608527160611, -18.950508572219061, 0.0 ], [ 27.770660042546051, -18.95048163596228, 0.0 ], [ 27.770685050447959, -18.950463243857602, 0.0 ], [ 27.77071771368216, -18.950458918502761, 0.0 ], [ 27.770767387606369, -18.950457362786501, 0.0 ], [ 27.770790572911011, -18.950464327700821, 0.0 ], [ 27.770813735407689, -18.95047128566101, 0.0 ], [ 27.77083831599094, -18.9504880626667, 0.0 ], [ 27.770875120921819, -18.95051318206826, 0.0 ], [ 27.770905661269289, -18.950534193681321, 0.0 ], [ 27.77093134957649, -18.950560990335401, 0.0 ], [ 27.77094486679789, -18.950579296051529, 0.0 ], [ 27.77097597103106, -18.950645325724341, 0.0 ], [ 27.770980072491771, -18.9506747618743, 0.0 ], [ 27.771023745817669, -18.950713960354381, 0.0 ], [ 27.771031138398079, -18.950727939429271, 0.0 ], [ 27.771062724445919, -18.950758447810539, 0.0 ], [ 27.7711290137531, -18.950804062064641, 0.0 ], [ 27.77115771847366, -18.95081508228764, 0.0 ], [ 27.77118173702377, -18.95083161470723, 0.0 ], [ 27.771204385224539, -18.950838479519049, 0.0 ], [ 27.771303487848829, -18.95081080681943, 0.0 ], [ 27.771344683888032, -18.950795690754919, 0.0 ], [ 27.771375253499791, -18.950781931294198, 0.0 ], [ 27.771428371696949, -18.950774979480268, 0.0 ], [ 27.771438989885581, -18.950773588128119, 0.0 ], [ 27.771486111419321, -18.95076248794463, 0.0 ], [ 27.771554402145131, -18.950748618802638, 0.0 ], [ 27.771602695835661, -18.950747216960451, 0.0 ], [ 27.771664953563452, -18.9507292218921, 0.0 ], [ 27.771737735376291, -18.950709723976392, 0.0 ], [ 27.771784655494699, -18.950698592500281, 0.0 ], [ 27.771832744648641, -18.950697209070899, 0.0 ], [ 27.771872525778029, -18.950672176828309, 0.0 ], [ 27.771886546261161, -18.950655482670339, 0.0 ], [ 27.77188883299171, -18.950630418149402, 0.0 ], [ 27.77187001921375, -18.950608099465452, 0.0 ], [ 27.771848781180019, -18.95056621001353, 0.0 ], [ 27.771829778846609, -18.95049907302635, 0.0 ], [ 27.771813151711029, -18.950451410336662, 0.0 ], [ 27.771799975310351, -18.950388228654099, 0.0 ], [ 27.77176187378987, -18.95029816592487, 0.0 ], [ 27.77174860466204, -18.95023482039889, 0.0 ], [ 27.771742471592489, -18.950185457460162, 0.0 ], [ 27.771732842553341, -18.95015153455229, 0.0 ], [ 27.771730381137811, -18.95013173783952, 0.0 ], [ 27.771731404108579, -18.950096376301921, 0.0 ], [ 27.771725239972039, -18.950046759717932, 0.0 ], [ 27.77172728555928, -18.94997566264664, 0.0 ], [ 27.77170916657175, -18.94991710629586, 0.0 ], [ 27.771702966821731, -18.94986709027652, 0.0 ], [ 27.771682536097082, -18.949834042915441, 0.0 ], [ 27.77167156140451, -18.949789569012651, 0.0 ], [ 27.771654570757679, -18.949740662859501, 0.0 ], [ 27.771650813102848, -18.94971047727212, 0.0 ], [ 27.77164104438431, -18.94967588687301, 0.0 ], [ 27.77162272991977, -18.94961667494546, 0.0 ], [ 27.771604375048231, -18.94955733252208, 0.0 ], [ 27.7716005799454, -18.949526956274109, 0.0 ], [ 27.771582171174931, -18.94946741920085, 0.0 ], [ 27.7715758161211, -18.949416620541609, 0.0 ], [ 27.77156117237509, -18.94938739887159, 0.0 ], [ 27.771556066732639, -18.949346655408782, 0.0 ], [ 27.771536267773929, -18.949276511838001, 0.0 ], [ 27.77152634940116, -18.949241372749661, 0.0 ], [ 27.771523779842902, -18.949220907190011, 0.0 ], [ 27.77151992287293, -18.949190183036499, 0.0 ], [ 27.77150997924641, -18.949154937743589, 0.0 ], [ 27.771513126054749, -18.949092057251129, 0.0 ], [ 27.771512766450101, -18.94904514099597, 0.0 ], [ 27.77150889337236, -18.949014247690549, 0.0 ], [ 27.77149762172818, -18.948968477773981, 0.0 ], [ 27.77149373593474, -18.948937506115691, 0.0 ], [ 27.771482437595768, -18.94889161432824, 0.0 ], [ 27.771478539254641, -18.948860563955979, 0.0 ], [ 27.77146981889425, -18.948835285629581, 0.0 ], [ 27.77146330254201, -18.94878342089056, 0.0 ], [ 27.771456775417789, -18.948731470145301, 0.0 ], [ 27.771441888531761, -18.94870148514606, 0.0 ], [ 27.771425671093091, -18.94866103804771, 0.0 ], [ 27.771416894883139, -18.948635574304781, 0.0 ], [ 27.77138968416709, -18.948596303273039, 0.0 ], [ 27.771352319569878, -18.948520988931492, 0.0 ], [ 27.77133250005657, -18.94849665150819, 0.0 ], [ 27.77131000637711, -18.94845132407184, 0.0 ], [ 27.771267582154589, -18.948381476766158, 0.0 ], [ 27.771257381211001, -18.948345278225219, 0.0 ], [ 27.771245829773498, -18.948298507727479, 0.0 ], [ 27.771243149309981, -18.948277433611828, 0.0 ], [ 27.771230233405021, -18.94822001413813, 0.0 ], [ 27.771226200564939, -18.948188329211959, 0.0 ], [ 27.771222164645479, -18.948156617105159, 0.0 ], [ 27.771216779170349, -18.94811429091585, 0.0 ], [ 27.77120028623543, -18.948073098372461, 0.0 ], [ 27.77118512493578, -18.948042462588148, 0.0 ], [ 27.771151231044151, -18.947997622300669, 0.0 ], [ 27.771115123517241, -18.947979884657581, 0.0 ], [ 27.771080343043842, -18.947972768443542, 0.0 ], [ 27.77103087065899, -18.94798337623385, 0.0 ], [ 27.770997405972729, -18.947986904233961, 0.0 ], [ 27.770947864881819, -18.94799752526124, 0.0 ], [ 27.770885703092802, -18.947998679932141, 0.0 ], [ 27.77085703779473, -18.94799629748962, 0.0 ], [ 27.77080595679961, -18.947996272928801, 0.0 ], [ 27.77076745126551, -18.948005737222871, 0.0 ], [ 27.770728923063579, -18.948015207461989, 0.0 ], [ 27.770672776206059, -18.948021081348958, 0.0 ], [ 27.77061031360688, -18.948022297202652, 0.0 ], [ 27.770547874409029, -18.948023603380459, 0.0 ], [ 27.770541559741499, -18.948018886751349, 0.0 ], [ 27.770462880264809, -18.948027322026501, 0.0 ], [ 27.770416464831872, -18.948021498460321, 0.0 ], [ 27.77038268821585, -18.948025117140268, 0.0 ], [ 27.77034254966647, -18.948024013103431, 0.0 ], [ 27.770297456642052, -18.948028841864719, 0.0 ], [ 27.770189515559839, -18.948034989931021, 0.0 ], [ 27.770160547849031, -18.948032678773629, 0.0 ], [ 27.770089804494031, -18.94801858290721, 0.0 ], [ 27.77002680584572, -18.94801989275496, 0.0 ], [ 27.769950441619731, -18.948011429172261, 0.0 ], [ 27.769914488234861, -18.948004103003299, 0.0 ], [ 27.769873508895781, -18.948002709033489, 0.0 ], [ 27.76985549280942, -18.947999040146708, 0.0 ], [ 27.769791399137311, -18.947999915396689, 0.0 ], [ 27.769761803621151, -18.947997378366541, 0.0 ], [ 27.769732181081611, -18.947994839005151, 0.0 ], [ 27.769667853858081, -18.947995712215871, 0.0 ], [ 27.769621565982771, -18.94800027003539, 0.0 ], [ 27.769552023760951, -18.948007117686309, 0.0 ], [ 27.769462517791549, -18.947999483498499, 0.0 ], [ 27.769432627640501, -18.9479969335096, 0.0 ], [ 27.769414359571019, -18.947993238870129, 0.0 ], [ 27.769366323958572, -18.947948498162329, 0.0 ], [ 27.769329869554721, -18.947902523585419, 0.0 ], [ 27.769323216773351, -18.947897660815809, 0.0 ], [ 27.769328436333879, -18.947853087409879, 0.0 ], [ 27.769346969209511, -18.94781823914704, 0.0 ], [ 27.76932376331786, -18.947781839312231, 0.0 ], [ 27.769278918598619, -18.94775861046255, 0.0 ], [ 27.769253974068459, -18.947750000799861, 0.0 ], [ 27.769205655632049, -18.947743666575239, 0.0 ], [ 27.769175628335539, -18.947741067183081, 0.0 ], [ 27.769073684315551, -18.94773439861704, 0.0 ], [ 27.769045205026949, -18.947742719512, 0.0 ], [ 27.768986537427711, -18.947748442376032, 0.0 ], [ 27.76892779094819, -18.947754172968612, 0.0 ], [ 27.76887401187853, -18.947753863488419, 0.0 ], [ 27.7688252115178, -18.947747500852721, 0.0 ], [ 27.76873417065697, -18.94773966451617, 0.0 ], [ 27.76871053719054, -18.94774196087592, 0.0 ], [ 27.768698770005361, -18.94778207805297, 0.0 ], [ 27.768681952119611, -18.947828234562671, 0.0 ], [ 27.768678601877291, -18.947845246850019, 0.0 ], [ 27.76868371743749, -18.947878093492161, 0.0 ], [ 27.768685481077181, -18.947927901347089, 0.0 ], [ 27.768700741049411, -18.947987400088358, 0.0 ], [ 27.768714280167469, -18.94803590432635, 0.0 ], [ 27.76871602457831, -18.94808553705262, 0.0 ], [ 27.768736269234999, -18.948138762935599, 0.0 ], [ 27.768754794393089, -18.948181043972351, 0.0 ], [ 27.768751449393012, -18.948197939385711, 0.0 ], [ 27.768776665266479, -18.948244968594839, 0.0 ], [ 27.768795135833571, -18.948287116573059, 0.0 ], [ 27.768800177139092, -18.94831960539149, 0.0 ], [ 27.768816936613401, -18.94835084773721, 0.0 ], [ 27.768821965074299, -18.94838328328828, 0.0 ], [ 27.768838698957278, -18.948414464528881, 0.0 ], [ 27.768840371241151, -18.94842526186369, 0.0 ], [ 27.76884705631813, -18.948468422607998, 0.0 ], [ 27.768855403599549, -18.948522311132251, 0.0 ], [ 27.768855398719541, -18.948560616444531, 0.0 ], [ 27.768857060061499, -18.948609644614429, 0.0 ], [ 27.768853716332451, -18.948664622575961, 0.0 ], [ 27.76885910504085, -18.9487350417449, 0.0 ], [ 27.768854369489151, -18.948779199381729, 0.0 ], [ 27.7688662404151, -18.94881604532895, 0.0 ], [ 27.76886300947524, -18.948832737995769, 0.0 ], [ 27.768883265511889, -18.9488849102116, 0.0 ], [ 27.768901768503031, -18.94892632452876, 0.0 ], [ 27.76892347663464, -18.948951046085739, 0.0 ], [ 27.768956936428459, -18.949012342875729, 0.0 ], [ 27.768980278688261, -18.94904759988097, 0.0 ], [ 27.769008521877652, -18.949076846617309, 0.0 ], [ 27.769045177472549, -18.94915901851229, 0.0 ], [ 27.769086648837149, -18.949235012225831, 0.0 ], [ 27.769113149524859, -18.949291046046589, 0.0 ], [ 27.769131344238289, -18.9493318479823, 0.0 ], [ 27.769144971074368, -18.949378473170999, 0.0 ], [ 27.769175224829649, -18.949417718576569, 0.0 ], [ 27.76918734943537, -18.9494536655715, 0.0 ], [ 27.769214518297051, -18.949509074124489, 0.0 ], [ 27.76923138050412, -18.949538988283329, 0.0 ], [ 27.769250026583439, -18.949579254304059, 0.0 ], [ 27.769260238785929, -18.949604550367759, 0.0 ], [ 27.769298575835158, -18.94965819145343, 0.0 ], [ 27.769343233419029, -18.94971619208949, 0.0 ], [ 27.769423187268529, -18.949780277959679, 0.0 ], [ 27.769463913573119, -18.949817362606819, 0.0 ], [ 27.769486847728679, -18.949851270541689, 0.0 ], [ 27.7695317589551, -18.94991923126641, 0.0 ], [ 27.769571601470162, -18.949992883050271, 0.0 ], [ 27.769581161426309, -18.95001783400209, 0.0 ], [ 27.76960516887798, -18.95006181520397, 0.0 ], [ 27.76964041018875, -18.950104286384921, 0.0 ], [ 27.769656498222592, -18.95013343770233, 0.0 ], [ 27.7696772505792, -18.950156816060549, 0.0 ], [ 27.769696313027939, -18.950170033532711, 0.0 ], [ 27.76973439533241, -18.950196439348211, 0.0 ], [ 27.769815073235389, -18.95024341886506, 0.0 ], [ 27.76985929843817, -18.95027409202298, 0.0 ], [ 27.76993025462038, -18.95033224524548, 0.0 ], [ 27.7699790795747, -18.95039287914198, 0.0 ], [ 27.77002801590513, -18.9504531333404, 0.0 ], [ 27.77009121392944, -18.950495876875689, 0.0 ], [ 27.77015420740608, -18.950538482235881, 0.0 ], [ 27.77018566693544, -18.950559696156201, 0.0 ], [ 27.770330257203899, -18.950656203349169, 0.0 ], [ 27.77038026437598, -18.950689580735279, 0.0 ], [ 27.770402178843259, -18.95065156295259, 0.0 ] ] ] } },
{ "type": "Feature", "properties": { "Name": "Untitled Polygon", "description": null, "timestamp": null, "begin": null, "end": null, "altitudeMode": null, "tessellate": 1, "extrude": 0, "visibility": -1, "drawOrder": null, "icon": null }, "geometry": { "type": "Polygon", "coordinates": [ [ [ 27.83416848204892, -18.95871234216261, 0.0 ], [ 27.834570279826629, -18.96019973882634, 0.0 ], [ 27.835421565151869, -18.96125981335631, 0.0 ], [ 27.83707399028993, -18.96222352083737, 0.0 ], [ 27.839167751191621, -18.96223407136015, 0.0 ], [ 27.8392369922108, -18.962211407266611, 0.0 ], [ 27.84111112994459, -18.961293058296778, 0.0 ], [ 27.842040705540018, -18.960147824643421, 0.0 ], [ 27.842229208071871, -18.957677215050531, 0.0 ], [ 27.840321889271952, -18.955351905459029, 0.0 ], [ 27.83816626324413, -18.95483339000684, 0.0 ], [ 27.836320045318431, -18.955199987078089, 0.0 ], [ 27.834674366628391, -18.956569701256921, 0.0 ], [ 27.83429825125225, -18.95805078980991, 0.0 ], [ 27.83416848204892, -18.95871234216261, 0.0 ] ] ] } },
{ "type": "Feature", "properties": { "Name": "Untitled Polygon", "description": null, "timestamp": null, "begin": null, "end": null, "altitudeMode": null, "tessellate": 1, "extrude": 0, "visibility": -1, "drawOrder": null, "icon": null }, "geometry": { "type": "Polygon", "coordinates": [ [ [ 27.756615747607619, -18.932955945420421, 0.0 ], [ 27.75663431591947, -18.932983482242339, 0.0 ], [ 27.756662534272401, -18.933049437909439, 0.0 ], [ 27.75666338895229, -18.933098861831059, 0.0 ], [ 27.756570906615998, -18.9331900540117, 0.0 ], [ 27.756495931361339, -18.933259293514769, 0.0 ], [ 27.756469590589489, -18.933292452020641, 0.0 ], [ 27.756412066329599, -18.933339689124189, 0.0 ], [ 27.75636326659167, -18.933375913633071, 0.0 ], [ 27.756305609147208, -18.93342325766956, 0.0 ], [ 27.756247880930161, -18.933470659999969, 0.0 ], [ 27.75618515325937, -18.933499028156991, 0.0 ], [ 27.7561173369423, -18.933508338142829, 0.0 ], [ 27.75604932949069, -18.9335176749574, 0.0 ], [ 27.755972265262219, -18.933538185077261, 0.0 ], [ 27.755936678124161, -18.933582775060501, 0.0 ], [ 27.75588305585325, -18.93364967296257, 0.0 ], [ 27.75585723440226, -18.93373248116184, 0.0 ], [ 27.755817529448588, -18.933807301735811, 0.0 ], [ 27.755823534180781, -18.933875526165941, 0.0 ], [ 27.75589289150199, -18.933914738388399, 0.0 ], [ 27.755948167100911, -18.933945989249349, 0.0 ], [ 27.756030728429359, -18.93399266681946, 0.0 ], [ 27.756112873499251, -18.934039108971461, 0.0 ], [ 27.756221755516489, -18.934100667645449, 0.0 ], [ 27.75628943672611, -18.934138932194319, 0.0 ], [ 27.756329908556449, -18.934161813389231, 0.0 ], [ 27.756379649634411, -18.934221749426982, 0.0 ], [ 27.756437916654601, -18.934270501868031, 0.0 ], [ 27.756487243196691, -18.93432998143436, 0.0 ], [ 27.756562650510109, -18.934404153476549, 0.0 ], [ 27.756606275433239, -18.934444836679699, 0.0 ], [ 27.75666716550117, -18.93451106381983, 0.0 ], [ 27.756757891145021, -18.93456267994523, 0.0 ], [ 27.756796625909558, -18.93458471682176, 0.0 ], [ 27.756848133790061, -18.93461402194756, 0.0 ], [ 27.75692510352447, -18.93465781239393, 0.0 ], [ 27.7569849100502, -18.934676105916662, 0.0 ], [ 27.757061757030701, -18.934719522912221, 0.0 ], [ 27.757155261882041, -18.93474128668819, 0.0 ], [ 27.757242311970799, -18.93479175660412, 0.0 ], [ 27.757291867043339, -18.934820488033449, 0.0 ], [ 27.757390572858998, -18.934877716271771, 0.0 ], [ 27.757468081718208, -18.934938174931041, 0.0 ], [ 27.75750945460711, -18.93497697755048, 0.0 ], [ 27.757546546018968, -18.934998075123211, 0.0 ], [ 27.757595483329279, -18.93507188057746, 0.0 ], [ 27.75763603422563, -18.935110405274461, 0.0 ], [ 27.757680837091229, -18.9351661979513, 0.0 ], [ 27.757729559179161, -18.935239166514791, 0.0 ], [ 27.757757950495659, -18.935270276163688, 0.0 ], [ 27.75781060048616, -18.935314978719131, 0.0 ], [ 27.757871242451991, -18.935349043940018, 0.0 ], [ 27.757931657824479, -18.935382979613571, 0.0 ], [ 27.758015859036458, -18.935430277680869, 0.0 ], [ 27.75809962025054, -18.935477328867599, 0.0 ], [ 27.75814728717501, -18.935504105217031, 0.0 ], [ 27.758206672476621, -18.935537463272681, 0.0 ], [ 27.75826210225469, -18.93555370805829, 0.0 ], [ 27.758309297170548, -18.93558024126532, 0.0 ], [ 27.758356313209848, -18.935606715163949, 0.0 ], [ 27.758426346766321, -18.935646376937878, 0.0 ], [ 27.758496227308399, -18.93568580289859, 0.0 ], [ 27.75853898071529, -18.935695219323922, 0.0 ], [ 27.758619929509241, -18.935740927103978, 0.0 ], [ 27.758666003140728, -18.93576694216992, 0.0 ], [ 27.758734864102738, -18.93580582446771, 0.0 ], [ 27.758826048111612, -18.935857500694208, 0.0 ], [ 27.758848662877192, -18.935870431637749, 0.0 ], [ 27.75892416897079, -18.935898998377571, 0.0 ], [ 27.758980334504571, -18.93593113456981, 0.0 ], [ 27.759036593432889, -18.935962986430919, 0.0 ], [ 27.75911242959863, -18.935990484617111, 0.0 ], [ 27.759134992752379, -18.936002998243591, 0.0 ], [ 27.75922157036841, -18.936036538539479, 0.0 ], [ 27.759274199675311, -18.936051298396901, 0.0 ], [ 27.759341062929579, -18.93608844868308, 0.0 ], [ 27.75943296716034, -18.936153884353121, 0.0 ], [ 27.759467433751929, -18.93612992438722, 0.0 ], [ 27.759503258299059, -18.936063610862739, 0.0 ], [ 27.759562508122698, -18.93596720875734, 0.0 ], [ 27.759617123344992, -18.935897073975159, 0.0 ], [ 27.759679499601841, -18.93581697149591, 0.0 ], [ 27.759733870889001, -18.935747050671161, 0.0 ], [ 27.759777238368191, -18.93567091257788, 0.0 ], [ 27.759828478178779, -18.935584700172551, 0.0 ], [ 27.75988763174842, -18.93548839430937, 0.0 ], [ 27.759934246758451, -18.935428489375472, 0.0 ], [ 27.759980841762069, -18.935368610985581, 0.0 ], [ 27.760016662610681, -18.93530227955101, 0.0 ], [ 27.76005544632304, -18.935252420954029, 0.0 ], [ 27.760094218239761, -18.935202579550271, 0.0 ], [ 27.760106734754199, -18.93516616681206, 0.0 ], [ 27.760153253436009, -18.935106369808341, 0.0 ], [ 27.760199753371509, -18.935046596566028, 0.0 ], [ 27.76026172506451, -18.934966936442009, 0.0 ], [ 27.76028495509798, -18.934937074840299, 0.0 ], [ 27.76034722465366, -18.934857313773939, 0.0 ], [ 27.760391074323771, -18.934780919367281, 0.0 ], [ 27.760367037867791, -18.934750933943238, 0.0 ], [ 27.760303207922341, -18.934710754888901, 0.0 ], [ 27.760241982980059, -18.934687145706619, 0.0 ], [ 27.760188375053641, -18.934653427917379, 0.0 ], [ 27.760126715890951, -18.93462962674397, 0.0 ], [ 27.760083524176778, -18.934602481922362, 0.0 ], [ 27.760013574776469, -18.93458857710597, 0.0 ], [ 27.759918528887251, -18.934544003781049, 0.0 ], [ 27.75983391222487, -18.934506051859469, 0.0 ], [ 27.75975989579721, -18.93447481393968, 0.0 ], [ 27.759715690766971, -18.934447141680071, 0.0 ], [ 27.759693536458521, -18.934433277337739, 0.0 ], [ 27.759615757387259, -18.93438458781004, 0.0 ], [ 27.759548777879179, -18.93434265176192, 0.0 ], [ 27.759431609037751, -18.93429987689257, 0.0 ], [ 27.75937515934287, -18.934264595600439, 0.0 ], [ 27.759307245672719, -18.93422208074346, 0.0 ], [ 27.759253677582581, -18.93420392061217, 0.0 ], [ 27.75919671977141, -18.934168262555541, 0.0 ], [ 27.759128097878321, -18.934125304908399, 0.0 ], [ 27.759078911074511, -18.9340790261483, 0.0 ], [ 27.759018013516219, -18.934025352156201, 0.0 ], [ 27.758945550378069, -18.93396418287865, 0.0 ], [ 27.75890419252179, -18.93390695511226, 0.0 ], [ 27.758857783080138, -18.933877679655769, 0.0 ], [ 27.758767961725521, -18.933836675445779, 0.0 ], [ 27.758744460453901, -18.93382193657693, 0.0 ], [ 27.758664843416529, -18.933787988581908, 0.0 ], [ 27.758584833884079, -18.933753874155091, 0.0 ], [ 27.75841991166088, -18.933667095844321, 0.0 ], [ 27.75837514325044, -18.933655048875341, 0.0 ], [ 27.75831826824923, -18.93363543354803, 0.0 ], [ 27.758282190757619, -18.933612799564429, 0.0 ], [ 27.758222354710998, -18.93357502815536, 0.0 ], [ 27.758174347508099, -18.933544717294851, 0.0 ], [ 27.758122518950099, -18.93349608741406, 0.0 ], [ 27.758070518070479, -18.933447296633251, 0.0 ], [ 27.757994978075558, -18.93333559172164, 0.0 ], [ 27.75789930385395, -18.932986430579639, 0.0 ], [ 27.75817045444829, -18.932267703444978, 0.0 ], [ 27.75693331151335, -18.931293137845039, 0.0 ], [ 27.756224989727251, -18.93260230409885, 0.0 ], [ 27.756615747607619, -18.932955945420421, 0.0 ] ] ] } },
{ "type": "Feature", "properties": { "Name": "Untitled Polygon", "description": null, "timestamp": null, "begin": null, "end": null, "altitudeMode": null, "tessellate": 1, "extrude": 0, "visibility": -1, "drawOrder": null, "icon": null }, "geometry": { "type": "Polygon", "coordinates": [ [ [ 27.791444632913581, -18.95018076840385, 0.0 ], [ 27.792033447138561, -18.951173793960731, 0.0 ], [ 27.79396654538094, -18.952396674012629, 0.0 ], [ 27.796585412196421, -18.952406871251561, 0.0 ], [ 27.79856672851399, -18.950991927408079, 0.0 ], [ 27.799450389032192, -18.949523341560489, 0.0 ], [ 27.799654620390179, -18.947823121968241, 0.0 ], [ 27.7982809149525, -18.945953901369911, 0.0 ], [ 27.79605829352937, -18.944887902658529, 0.0 ], [ 27.79450964272641, -18.944924399616809, 0.0 ], [ 27.792733168497112, -18.945582019756621, 0.0 ], [ 27.791469602493759, -18.946991588521989, 0.0 ], [ 27.791144777398021, -18.949019244400699, 0.0 ], [ 27.791444632913581, -18.95018076840385, 0.0 ] ] ] } },
{ "type": "Feature", "properties": { "Name": "Untitled Polygon", "description": null, "timestamp": null, "begin": null, "end": null, "altitudeMode": null, "tessellate": 1, "extrude": 0, "visibility": -1, "drawOrder": null, "icon": null }, "geometry": { "type": "Polygon", "coordinates": [ [ [ 27.789437073845111, -18.952783122632489, 0.0 ], [ 27.789426358113669, -18.952988646107961, 0.0 ], [ 27.789508702524358, -18.95314848169641, 0.0 ], [ 27.79038654365749, -18.953133378771909, 0.0 ], [ 27.791249067298839, -18.953525248922741, 0.0 ], [ 27.792425301842862, -18.95170200081504, 0.0 ], [ 27.790551334353339, -18.950832000875739, 0.0 ], [ 27.789437073845111, -18.952783122632489, 0.0 ] ] ] } },
{ "type": "Feature", "properties": { "Name": "Untitled Polygon", "description": null, "timestamp": null, "begin": null, "end": null, "altitudeMode": null, "tessellate": 1, "extrude": 0, "visibility": -1, "drawOrder": null, "icon": null }, "geometry": { "type": "Polygon", "coordinates": [ [ [ 27.789945341954851, -18.958062883086061, 0.0 ], [ 27.790592450745589, -18.95831923732398, 0.0 ], [ 27.791279418146011, -18.956924110411141, 0.0 ], [ 27.790582216229389, -18.956738145437068, 0.0 ], [ 27.789991738276839, -18.957985972061291, 0.0 ], [ 27.789945341954851, -18.958062883086061, 0.0 ] ] ] } },
{ "type": "Feature", "properties": { "Name": "Untitled Polygon", "description": null, "timestamp": null, "begin": null, "end": null, "altitudeMode": null, "tessellate": 1, "extrude": 0, "visibility": -1, "drawOrder": null, "icon": null }, "geometry": { "type": "Polygon", "coordinates": [ [ [ 27.799823359767132, -18.95088134879812, 0.0 ], [ 27.800400802032289, -18.952809072266369, 0.0 ], [ 27.802244891851061, -18.954643477074001, 0.0 ], [ 27.803999724206928, -18.95494335057392, 0.0 ], [ 27.805762258016131, -18.954657989355109, 0.0 ], [ 27.805929730835022, -18.954606774686699, 0.0 ], [ 27.807252980334631, -18.953636931491001, 0.0 ], [ 27.80728936108839, -18.953614864682809, 0.0 ], [ 27.808015686965689, -18.952303964668221, 0.0 ], [ 27.808533894071729, -18.950813903391769, 0.0 ], [ 27.807249453669559, -18.94816709526582, 0.0 ], [ 27.80551865887125, -18.94715644816176, 0.0 ], [ 27.803478638986331, -18.947241747140531, 0.0 ], [ 27.801515453493579, -18.948036816687789, 0.0 ], [ 27.800428427167748, -18.949394583258069, 0.0 ], [ 27.799823359767132, -18.95088134879812, 0.0 ] ] ] } },
{ "type": "Feature", "properties": { "Name": "Untitled Polygon", "description": null, "timestamp": null, "begin": null, "end": null, "altitudeMode": null, "tessellate": 1, "extrude": 0, "visibility": -1, "drawOrder": null, "icon": null }, "geometry": { "type": "Polygon", "coordinates": [ [ [ 27.820239012484009, -18.94461769688796, 0.0 ], [ 27.818812758515278, -18.94558590906593, 0.0 ], [ 27.817891685207989, -18.947324261000201, 0.0 ], [ 27.817649752672811, -18.948943282262139, 0.0 ], [ 27.818862772906449, -18.95091316529188, 0.0 ], [ 27.820027614925511, -18.951983925283159, 0.0 ], [ 27.82208742508762, -18.952287018372289, 0.0 ], [ 27.823920803677531, -18.951875841286508, 0.0 ], [ 27.82567318627212, -18.950143451715061, 0.0 ], [ 27.82575594942573, -18.947201257001669, 0.0 ], [ 27.82459901359335, -18.945269366152431, 0.0 ], [ 27.82223622994502, -18.944513164387281, 0.0 ], [ 27.820239012484009, -18.94461769688796, 0.0 ] ] ] } },
{ "type": "Feature", "properties": { "Name": "Untitled Polygon", "description": null, "timestamp": null, "begin": null, "end": null, "altitudeMode": null, "tessellate": 1, "extrude": 0, "visibility": -1, "drawOrder": null, "icon": null }, "geometry": { "type": "Polygon", "coordinates": [ [ [ 27.81749789474306, -18.956132947154039, 0.0 ], [ 27.817638602184399, -18.95790003253715, 0.0 ], [ 27.81932604546774, -18.96005672429429, 0.0 ], [ 27.821545132361258, -18.9608388316346, 0.0 ], [ 27.823496478898551, -18.960235272908012, 0.0 ], [ 27.824793562765151, -18.95941894665156, 0.0 ], [ 27.82559680605825, -18.95803213421582, 0.0 ], [ 27.825706572800801, -18.95787009972943, 0.0 ], [ 27.825613536715629, -18.955756141122471, 0.0 ], [ 27.823980987924969, -18.95332460856784, 0.0 ], [ 27.822218957765049, -18.95284035153222, 0.0 ], [ 27.820852012667519, -18.9527281679282, 0.0 ], [ 27.81957773832799, -18.95328614553701, 0.0 ], [ 27.818095259804071, -18.954946791425321, 0.0 ], [ 27.81749789474306, -18.956132947154039, 0.0 ] ] ] } },
{ "type": "Feature", "properties": { "Name": "Untitled Polygon", "description": null, "timestamp": null, "begin": null, "end": null, "altitudeMode": null, "tessellate": 1, "extrude": 0, "visibility": -1, "drawOrder": null, "icon": null }, "geometry": { "type": "Polygon", "coordinates": [ [ [ 27.809549683966068, -18.95661605799452, 0.0 ], [ 27.812375636638219, -18.957737391853168, 0.0 ], [ 27.81480864609555, -18.957468446325919, 0.0 ], [ 27.816492087798721, -18.955643315491379, 0.0 ], [ 27.816588003595069, -18.952441873529501, 0.0 ], [ 27.814690712196359, -18.95027995268175, 0.0 ], [ 27.81183169777567, -18.950042645987921, 0.0 ], [ 27.809112653386212, -18.95158382696388, 0.0 ], [ 27.808378206033129, -18.953556990066328, 0.0 ], [ 27.809549683966068, -18.95661605799452, 0.0 ] ] ] } },
{ "type": "Feature", "properties": { "Name": "Untitled Polygon", "description": null, "timestamp": null, "begin": null, "end": null, "altitudeMode": null, "tessellate": 1, "extrude": 0, "visibility": -1, "drawOrder": null, "icon": null }, "geometry": { "type": "Polygon", "coordinates": [ [ [ 27.82553300463238, -18.955787894666599, 0.0 ], [ 27.825741643817729, -18.95798915992615, 0.0 ], [ 27.82669661713598, -18.96016839772491, 0.0 ], [ 27.828664969470541, -18.961457037301649, 0.0 ], [ 27.831323690859868, -18.961440123782321, 0.0 ], [ 27.833923390813482, -18.95921895998142, 0.0 ], [ 27.83371064645155, -18.955622862113941, 0.0 ], [ 27.830706435823959, -18.95382837138758, 0.0 ], [ 27.82776066382679, -18.954087610960769, 0.0 ], [ 27.8261114881455, -18.955982249803569, 0.0 ], [ 27.82553300463238, -18.955787894666599, 0.0 ] ] ] } },
{ "type": "Feature", "properties": { "Name": "Untitled Polygon", "description": null, "timestamp": null, "begin": null, "end": null, "altitudeMode": null, "tessellate": 1, "extrude": 0, "visibility": -1, "drawOrder": null, "icon": null }, "geometry": { "type": "Polygon", "coordinates": [ [ [ 27.759648429014241, -18.92189019311359, 0.0 ], [ 27.759481287826031, -18.921903370195849, 0.0 ], [ 27.760002004159521, -18.92198024136319, 0.0 ], [ 27.76129138088389, -18.922125820764109, 0.0 ], [ 27.762017712218171, -18.922460658879629, 0.0 ], [ 27.76207450865958, -18.92247453408153, 0.0 ], [ 27.762206115411558, -18.92250068396244, 0.0 ], [ 27.762260543972541, -18.922495977315201, 0.0 ], [ 27.76367226931486, -18.923306596473239, 0.0 ], [ 27.763709546575459, -18.923321777060629, 0.0 ], [ 27.764707921561779, -18.92378425886039, 0.0 ], [ 27.766314029160782, -18.924060814343839, 0.0 ], [ 27.76650313173332, -18.922647119493931, 0.0 ], [ 27.760118393637221, -18.920247262893511, 0.0 ], [ 27.75836498588966, -18.919526381518189, 0.0 ], [ 27.75830633687946, -18.91953079892826, 0.0 ], [ 27.759648429014241, -18.92189019311359, 0.0 ] ] ] } },
{ "type": "Feature", "properties": { "Name": "Untitled Polygon", "description": null, "timestamp": null, "begin": null, "end": null, "altitudeMode": null, "tessellate": 1, "extrude": 0, "visibility": -1, "drawOrder": null, "icon": null }, "geometry": { "type": "Polygon", "coordinates": [ [ [ 27.759872953336501, -18.923204618656239, 0.0 ], [ 27.762146266374849, -18.92376100970715, 0.0 ], [ 27.765603207689221, -18.92503337245186, 0.0 ], [ 27.765719185758609, -18.924320939213761, 0.0 ], [ 27.764297378420519, -18.923727960757819, 0.0 ], [ 27.76300377795533, -18.9231037408959, 0.0 ], [ 27.761618966947289, -18.92236324539072, 0.0 ], [ 27.75977109597213, -18.922271586295452, 0.0 ], [ 27.759872953336501, -18.923204618656239, 0.0 ] ] ] } },
{ "type": "Feature", "properties": { "Name": "Untitled Polygon", "description": null, "timestamp": null, "begin": null, "end": null, "altitudeMode": null, "tessellate": 1, "extrude": 0, "visibility": -1, "drawOrder": null, "icon": null }, "geometry": { "type": "Polygon", "coordinates": [ [ [ 27.843479299487029, -18.677177123473729, 0.0 ], [ 27.843698205171851, -18.677264751181909, 0.0 ], [ 27.844030031929741, -18.677303057153878, 0.0 ], [ 27.844247509794059, -18.677390231771579, 0.0 ], [ 27.844509637719721, -18.677508854479932, 0.0 ], [ 27.844713415211981, -18.677523318447559, 0.0 ], [ 27.845019437003931, -18.677673042088021, 0.0 ], [ 27.845357633025301, -18.67778196254358, 0.0 ], [ 27.845547896270499, -18.677724403395089, 0.0 ], [ 27.845849478755358, -18.677618130752201, 0.0 ], [ 27.846150463781889, -18.67751207249292, 0.0 ], [ 27.846550466325869, -18.677285984545581, 0.0 ], [ 27.846813698186558, -18.677219406704818, 0.0 ], [ 27.846993248713389, -18.67734615135549, 0.0 ], [ 27.84707234004107, -18.677592112636439, 0.0 ], [ 27.847149853533381, -18.677836997727091, 0.0 ], [ 27.847304275646341, -18.678072553986858, 0.0 ], [ 27.84733728955694, -18.678285116316161, 0.0 ], [ 27.847271324771452, -18.678616483335659, 0.0 ], [ 27.847117522275131, -18.678885701814369, 0.0 ], [ 27.847062669326689, -18.679035615760078, 0.0 ], [ 27.847172684797659, -18.67923767743796, 0.0 ], [ 27.847424805424449, -18.67935092321747, 0.0 ], [ 27.84754512797889, -18.679372373458168, 0.0 ], [ 27.847785302973168, -18.679415192934609, 0.0 ], [ 27.84814441155488, -18.679479213891959, 0.0 ], [ 27.848469511399561, -18.679582354320811, 0.0 ], [ 27.848815623981341, -18.679576297000249, 0.0 ], [ 27.84888082792332, -18.679497675926712, 0.0 ], [ 27.84900085972852, -18.679270791653249, 0.0 ], [ 27.849045368939699, -18.67905268830436, 0.0 ], [ 27.849089996977959, -18.678834314844419, 0.0 ], [ 27.849144999348859, -18.678685645353148, 0.0 ], [ 27.849027906578279, -18.678414195615709, 0.0 ], [ 27.848986383979259, -18.678133229752529, 0.0 ], [ 27.848977062780829, -18.677811849030459, 0.0 ], [ 27.849031327798109, -18.677661843668229, 0.0 ], [ 27.849042764952149, -18.67748073823919, 0.0 ], [ 27.849163002295668, -18.677251309887609, 0.0 ], [ 27.849196695045361, -18.67695898341583, 0.0 ], [ 27.849392064332871, -18.67697371483586, 0.0 ], [ 27.849597492754619, -18.67705932471296, 0.0 ], [ 27.850039334864121, -18.67719036271632, 0.0 ], [ 27.850126923142149, -18.677001138335971, 0.0 ], [ 27.850128874707998, -18.676749143532358, 0.0 ], [ 27.8501314491822, -18.676496977945909, 0.0 ], [ 27.8502097144532, -18.676236266117691, 0.0 ], [ 27.850298103117069, -18.676046411573719, 0.0 ], [ 27.850366536596329, -18.675713859871291, 0.0 ], [ 27.85036935196915, -18.67545997677027, 0.0 ], [ 27.85029630179999, -18.67521334240265, 0.0 ], [ 27.850437984373041, -18.675126214240269, 0.0 ], [ 27.850793502360599, -18.675198809380241, 0.0 ], [ 27.85103007029754, -18.675247308991501, 0.0 ], [ 27.851105782270981, -18.675239860311692, 0.0 ], [ 27.85131873763223, -18.67539916490971, 0.0 ], [ 27.85183073499827, -18.67552706688452, 0.0 ], [ 27.85228828771459, -18.675551810315099, 0.0 ], [ 27.852334883608631, -18.675331676779169, 0.0 ], [ 27.852288035275439, -18.674976452637729, 0.0 ], [ 27.852194434470071, -18.6748414547883, 0.0 ], [ 27.85203935744493, -18.674531132670712, 0.0 ], [ 27.851926016096861, -18.674251775407821, 0.0 ], [ 27.851821955234101, -18.67404347228484, 0.0 ], [ 27.851717620751689, -18.673834610826049, 0.0 ], [ 27.851527694974919, -18.673560044287509, 0.0 ], [ 27.85139024607982, -18.67339031735774, 0.0 ], [ 27.85124388204866, -18.673148974325422, 0.0 ], [ 27.851270946163151, -18.67277871120859, 0.0 ], [ 27.851349863992699, -18.672512406241431, 0.0 ], [ 27.851494918208061, -18.672165535197951, 0.0 ], [ 27.851517994369981, -18.67205204815702, 0.0 ], [ 27.851640198337449, -18.671818120323628, 0.0 ], [ 27.851577400248019, -18.67163743134213, 0.0 ], [ 27.851438273112581, -18.671462957003971, 0.0 ], [ 27.851265599564101, -18.671328281053569, 0.0 ], [ 27.85098272421974, -18.671240165910788, 0.0 ], [ 27.850622119548049, -18.671158406520259, 0.0 ], [ 27.85034753950503, -18.671144116663871, 0.0 ], [ 27.849983438155359, -18.671060658621791, 0.0 ], [ 27.849672922020339, -18.671085987204801, 0.0 ], [ 27.849428647529241, -18.671030223831089, 0.0 ], [ 27.849105526673672, -18.67098062772736, 0.0 ], [ 27.848848612214478, -18.670849402931449, 0.0 ], [ 27.848770170814529, -18.670855694434479, 0.0 ], [ 27.848478363908249, -18.67076478070565, 0.0 ], [ 27.848264448086208, -18.670667294371349, 0.0 ], [ 27.848049919591709, -18.670569528821179, 0.0 ], [ 27.847846279296562, -18.67054723654207, 0.0 ], [ 27.84751722137737, -18.67049629871924, 0.0 ], [ 27.84702734761137, -18.67045759027107, 0.0 ], [ 27.846787463026999, -18.670476247428422, 0.0 ], [ 27.846432717357459, -18.6705424397543, 0.0 ], [ 27.846148398488751, -18.67052894388727, 0.0 ], [ 27.8457840665078, -18.670522824565989, 0.0 ], [ 27.845578534023851, -18.670502485540471, 0.0 ], [ 27.845372646559259, -18.670482114961541, 0.0 ], [ 27.844828775806221, -18.67041019464391, 0.0 ], [ 27.84445529029804, -18.670399877596839, 0.0 ], [ 27.844426545153851, -18.670714594099898, 0.0 ], [ 27.84441853902727, -18.670909905731019, 0.0 ], [ 27.844355424481229, -18.67126474074928, 0.0 ], [ 27.844346443878841, -18.671458520268619, 0.0 ], [ 27.84430294634894, -18.671693272239679, 0.0 ], [ 27.844341050352021, -18.67192105570777, 0.0 ], [ 27.8443100871879, -18.672230548300309, 0.0 ], [ 27.84426734848341, -18.672464494741519, 0.0 ], [ 27.844237571355769, -18.67277358483592, 0.0 ], [ 27.844216256497571, -18.672890191352931, 0.0 ], [ 27.844152196865231, -18.673239442525801, 0.0 ], [ 27.84412223070721, -18.67354671163497, 0.0 ], [ 27.844113627950691, -18.673737500452599, 0.0 ], [ 27.84410916129136, -18.674192771081369, 0.0 ], [ 27.844007271358429, -18.67431588502328, 0.0 ], [ 27.84400299941559, -18.67476933827815, 0.0 ], [ 27.843914029008669, -18.67496630350697, 0.0 ], [ 27.843897204763771, -18.675343889410289, 0.0 ], [ 27.843787355828741, -18.675654858682709, 0.0 ], [ 27.84376245705274, -18.67621820810426, 0.0 ], [ 27.843589718207578, -18.676868945185859, 0.0 ], [ 27.843685788628559, -18.677192125744959, 0.0 ], [ 27.843479299487029, -18.677177123473729, 0.0 ] ] ] } },
{ "type": "Feature", "properties": { "Name": "Untitled Polygon", "description": null, "timestamp": null, "begin": null, "end": null, "altitudeMode": null, "tessellate": 1, "extrude": 0, "visibility": -1, "drawOrder": null, "icon": null }, "geometry": { "type": "Polygon", "coordinates": [ [ [ 27.830717490446741, -18.67535216069718, 0.0 ], [ 27.830857284634529, -18.675392346367531, 0.0 ], [ 27.8310992323389, -18.67544863141735, 0.0 ], [ 27.83123877625448, -18.67548861123441, 0.0 ], [ 27.831441921565709, -18.675520845884169, 0.0 ], [ 27.831670761229368, -18.675521626257972, 0.0 ], [ 27.832077879334381, -18.675444516188151, 0.0 ], [ 27.83219332372958, -18.675374308278101, 0.0 ], [ 27.832435010749119, -18.675289041964451, 0.0 ], [ 27.832624196563771, -18.67526642277593, 0.0 ], [ 27.83288675666709, -18.67529120357467, 0.0 ], [ 27.833096629802629, -18.675378195962899, 0.0 ], [ 27.833367238080609, -18.675457408141909, 0.0 ], [ 27.83366337138979, -18.67550527631338, 0.0 ], [ 27.83403961355755, -18.67532015884726, 0.0 ], [ 27.834203191724601, -18.67518877716962, 0.0 ], [ 27.834279834727042, -18.675095833590191, 0.0 ], [ 27.834408543822409, -18.674940910040281, 0.0 ], [ 27.834588521398789, -18.674724022727009, 0.0 ], [ 27.834664906130911, -18.67463106352832, 0.0 ], [ 27.83469528608914, -18.674459593563089, 0.0 ], [ 27.834904309175609, -18.674406904804759, 0.0 ], [ 27.835102862002579, -18.674299560683181, 0.0 ], [ 27.83518934292114, -18.674261409672269, 0.0 ], [ 27.835220023419222, -18.674089864059031, 0.0 ], [ 27.835178342551121, -18.67387015640141, 0.0 ], [ 27.83515713217653, -18.673760066249201, 0.0 ], [ 27.835222656510251, -18.67361173516748, 0.0 ], [ 27.835635360140081, -18.67364873537575, 0.0 ], [ 27.835914608710109, -18.673644691061739, 0.0 ], [ 27.83619867829298, -18.673499980788058, 0.0 ], [ 27.836396287794361, -18.673393321989519, 0.0 ], [ 27.83655851877629, -18.673262742241949, 0.0 ], [ 27.836609321016731, -18.673200907613509, 0.0 ], [ 27.836736341276001, -18.673046300319211, 0.0 ], [ 27.836863383036711, -18.67289166852531, 0.0 ], [ 27.83705192574206, -18.672730452261941, 0.0 ], [ 27.837228572600441, -18.672851487789359, 0.0 ], [ 27.837404662655771, -18.67297213428462, 0.0 ], [ 27.83750382023894, -18.673184626764399, 0.0 ], [ 27.837497525238941, -18.673324727799141, 0.0 ], [ 27.837499953353589, -18.67351912387473, 0.0 ], [ 27.83761326412397, -18.673644904451219, 0.0 ], [ 27.837802489848741, -18.673678528030781, 0.0 ], [ 27.838161634825479, -18.673637109790121, 0.0 ], [ 27.838237609276369, -18.673545396208041, 0.0 ], [ 27.8383643558846, -18.673392550727581, 0.0 ], [ 27.83836275610475, -18.673198861187601, 0.0 ], [ 27.838232467689281, -18.672963721182288, 0.0 ], [ 27.838161189734759, -18.67272099730938, 0.0 ], [ 27.838133117671301, -18.672556487058628, 0.0 ], [ 27.838130306094349, -18.672360866600648, 0.0 ], [ 27.838067000103639, -18.672171304355139, 0.0 ], [ 27.837914361983479, -18.671821605236921, 0.0 ], [ 27.837840946243091, -18.67157506227187, 0.0 ], [ 27.837751305212091, -18.671414426087651, 0.0 ], [ 27.83766148641541, -18.671253392017132, 0.0 ], [ 27.837581580252589, -18.67114801640059, 0.0 ], [ 27.837317872718859, -18.671060898402441, 0.0 ], [ 27.837038899002149, -18.671061268141699, 0.0 ], [ 27.836759854885401, -18.671061862473461, 0.0 ], [ 27.836557489594629, -18.670968748428098, 0.0 ], [ 27.836553578326981, -18.670768598368451, 0.0 ], [ 27.83654966362052, -18.67056806984295, 0.0 ], [ 27.836459553012649, -18.670405088694121, 0.0 ], [ 27.836292793591301, -18.670336317681251, 0.0 ], [ 27.836145573883769, -18.67038071862223, 0.0 ], [ 27.835923473054649, -18.670373640904049, 0.0 ], [ 27.835649106753529, -18.67042952580308, 0.0 ], [ 27.835348225462681, -18.670517081499181, 0.0 ], [ 27.835046630787531, -18.670604841480358, 0.0 ], [ 27.834895130116202, -18.670648661612411, 0.0 ], [ 27.83459132919204, -18.670736411599101, 0.0 ], [ 27.834403083366421, -18.670755210859621, 0.0 ], [ 27.834373120833021, -18.670932508356071, 0.0 ], [ 27.834405665124521, -18.671103137324511, 0.0 ], [ 27.83439757756155, -18.67139331769722, 0.0 ], [ 27.834367308457999, -18.671569642136721, 0.0 ], [ 27.834373670682972, -18.67177057642381, 0.0 ], [ 27.834431785654541, -18.671908173172881, 0.0 ], [ 27.83446392247685, -18.672076992379349, 0.0 ], [ 27.83429808765953, -18.672209313720831, 0.0 ], [ 27.834099696635459, -18.67217308949273, 0.0 ], [ 27.833874931911289, -18.672168239454219, 0.0 ], [ 27.833685999697011, -18.672188105621569, 0.0 ], [ 27.833522545160651, -18.6721764498797, 0.0 ], [ 27.833332101998032, -18.672196254885382, 0.0 ], [ 27.832898025910509, -18.672299283367011, 0.0 ], [ 27.832528036898381, -18.672396265498339, 0.0 ], [ 27.832498476214141, -18.672572740929471, 0.0 ], [ 27.832559672010159, -18.672710662081009, 0.0 ], [ 27.832519510794938, -18.672830385172752, 0.0 ], [ 27.83238944080021, -18.672988518099679, 0.0 ], [ 27.832223470432439, -18.67297751105464, 0.0 ], [ 27.83204660439073, -18.672910126853591, 0.0 ], [ 27.831817634548941, -18.672906129775971, 0.0 ], [ 27.83154934623461, -18.672877156499339, 0.0 ], [ 27.831253870867702, -18.672879929917741, 0.0 ], [ 27.831009104514411, -18.672964563670121, 0.0 ], [ 27.830968865445559, -18.673084998964619, 0.0 ], [ 27.830940591134581, -18.67326195243006, 0.0 ], [ 27.83086027423813, -18.673502281359731, 0.0 ], [ 27.83076809660275, -18.673685901759178, 0.0 ], [ 27.830853863774809, -18.673935656089341, 0.0 ], [ 27.83093699631053, -18.6741845405848, 0.0 ], [ 27.831009003641881, -18.67437682425092, 0.0 ], [ 27.831066623490418, -18.674656020404619, 0.0 ], [ 27.83102535306066, -18.674774923809242, 0.0 ], [ 27.831033562627791, -18.674973441016771, 0.0 ], [ 27.830717490446741, -18.67535216069718, 0.0 ] ] ] } },
{ "type": "Feature", "properties": { "Name": "Untitled Polygon", "description": null, "timestamp": null, "begin": null, "end": null, "altitudeMode": null, "tessellate": 1, "extrude": 0, "visibility": -1, "drawOrder": null, "icon": null }, "geometry": { "type": "Polygon", "coordinates": [ [ [ 27.823267458173088, -18.669110050947271, 0.0 ], [ 27.82330624526573, -18.669133951495262, 0.0 ], [ 27.823390813344929, -18.669137855980441, 0.0 ], [ 27.823591991789812, -18.669141635388989, 0.0 ], [ 27.823708483228859, -18.669141516632269, 0.0 ], [ 27.823792385361589, -18.66914539939361, 0.0 ], [ 27.82397292918062, -18.6691372859508, 0.0 ], [ 27.82407542989618, -18.66915301415376, 0.0 ], [ 27.82415872410413, -18.66915687298653, 0.0 ], [ 27.824292866591669, -18.66916855895213, 0.0 ], [ 27.82439512662409, -18.66918414858436, 0.0 ], [ 27.82454227937659, -18.669179930648919, 0.0 ], [ 27.824631122822151, -18.66921118897929, 0.0 ], [ 27.824777549086161, -18.66920694290674, 0.0 ], [ 27.824865885762041, -18.6692380871892, 0.0 ], [ 27.824897650818379, -18.66923409349635, 0.0 ], [ 27.825011592026609, -18.669233813784729, 0.0 ], [ 27.825188471634231, -18.669225571997881, 0.0 ], [ 27.825288849121659, -18.66924093202605, 0.0 ], [ 27.82541476993115, -18.669225035332079, 0.0 ], [ 27.825464742015601, -18.669232701793081, 0.0 ], [ 27.82563444126048, -18.669197301596061, 0.0 ], [ 27.825702612392622, -18.6692165821018, 0.0 ], [ 27.825814655429792, -18.669216333270079, 0.0 ], [ 27.825882301879791, -18.66923559206526, 0.0 ], [ 27.82603000407045, -18.669258513973549, 0.0 ], [ 27.826128199743518, -18.669273753410611, 0.0 ], [ 27.826251625429951, -18.669258025574589, 0.0 ], [ 27.826423561756009, -18.66924993906877, 0.0 ], [ 27.82651566983397, -18.669238191117081, 0.0 ], [ 27.826694217250349, -18.669187833214909, 0.0 ], [ 27.826737478443491, -18.669168532817132, 0.0 ], [ 27.826823935150511, -18.669129963774111, 0.0 ], [ 27.826951074175771, -18.66914136603236, 0.0 ], [ 27.827115797801909, -18.669106665381591, 0.0 ], [ 27.827297742399761, -18.669083545667959, 0.0 ], [ 27.82735826321888, -18.669075855449151, 0.0 ], [ 27.827448920007491, -18.669064335488631, 0.0 ], [ 27.827556973590639, -18.66906430189719, 0.0 ], [ 27.827624893026812, -18.669014586848821, 0.0 ], [ 27.827652877909699, -18.66891509651667, 0.0 ], [ 27.827673190436919, -18.668857648277299, 0.0 ], [ 27.827736247998789, -18.668781084221379, 0.0 ], [ 27.827769210574541, -18.66870825007566, 0.0 ], [ 27.82784492202213, -18.668616322068171, 0.0 ], [ 27.8278604582006, -18.668531769532731, 0.0 ], [ 27.827880916391742, -18.66847411221314, 0.0 ], [ 27.82787911593763, -18.668377700124118, 0.0 ], [ 27.82790265762835, -18.66825037944912, 0.0 ], [ 27.827948546771751, -18.66816176128598, 0.0 ], [ 27.827976983983401, -18.6680612857437, 0.0 ], [ 27.828005454227359, -18.667960686678651, 0.0 ], [ 27.828036485490141, -18.667789922028231, 0.0 ], [ 27.82809483837385, -18.667685440517939, 0.0 ], [ 27.828153239290309, -18.667580871230541, 0.0 ], [ 27.82815120525547, -18.667483091529011, 0.0 ], [ 27.82814916761685, -18.667385123439018, 0.0 ], [ 27.828147126066401, -18.667286965993782, 0.0 ], [ 27.828153376204028, -18.667145536785601, 0.0 ], [ 27.828164575776238, -18.667031498044349, 0.0 ], [ 27.828247740991419, -18.666796233254161, 0.0 ], [ 27.828297451562889, -18.666634950824061, 0.0 ], [ 27.828331118381509, -18.666560367728511, 0.0 ], [ 27.82833918556717, -18.66651687919947, 0.0 ], [ 27.82838565727852, -18.666426611631142, 0.0 ], [ 27.828432061174929, -18.66633625345872, 0.0 ], [ 27.828265426239419, -18.66626784753138, 0.0 ], [ 27.828222333927702, -18.666286709783659, 0.0 ], [ 27.828117416141119, -18.66631168164697, 0.0 ], [ 27.827969020493128, -18.666355599411361, 0.0 ], [ 27.827925482270121, -18.666374437429621, 0.0 ], [ 27.82782045734761, -18.66639965562586, 0.0 ], [ 27.827666504370061, -18.666415615596321, 0.0 ], [ 27.827458011625328, -18.666394045306468, 0.0 ], [ 27.82732884084934, -18.666378544701772, 0.0 ], [ 27.827204543287529, -18.666391349423119, 0.0 ], [ 27.826968080249301, -18.6664012373631, 0.0 ], [ 27.826824616927698, -18.666401504032962, 0.0 ], [ 27.826590699473719, -18.66643967667066, 0.0 ], [ 27.82641158512023, -18.666442563613181, 0.0 ], [ 27.826052240101209, -18.666448610849201, 0.0 ], [ 27.82589226217528, -18.666464780172671, 0.0 ], [ 27.825674559958841, -18.666442665541471, 0.0 ], [ 27.825477025869638, -18.66643365709362, 0.0 ], [ 27.825388256385779, -18.66639865392877, 0.0 ], [ 27.825305364674978, -18.666392511699421, 0.0 ], [ 27.825203277180421, -18.666373543559981, 0.0 ], [ 27.825100970083749, -18.666354533929859, 0.0 ], [ 27.824946157378331, -18.666325767969411, 0.0 ], [ 27.824848803898011, -18.666335601857721, 0.0 ], [ 27.824660422522751, -18.666309969153421, 0.0 ], [ 27.824464767737979, -18.666329727267001, 0.0 ], [ 27.82429520298103, -18.666317087285801, 0.0 ], [ 27.824177481532399, -18.66631407245087, 0.0 ], [ 27.824072608879799, -18.666294729950678, 0.0 ], [ 27.82396749879236, -18.666275342445282, 0.0 ], [ 27.823829209121651, -18.666259229298351, 0.0 ], [ 27.823670037007041, -18.666305111007201, 0.0 ], [ 27.823597150373391, -18.666357517954339, 0.0 ], [ 27.823544885225459, -18.666423078184771, 0.0 ], [ 27.82351329133072, -18.666501707422359, 0.0 ], [ 27.823507568066081, -18.666622343089209, 0.0 ], [ 27.82346874108411, -18.666746144267709, 0.0 ], [ 27.823403259012839, -18.666827742464669, 0.0 ], [ 27.823351476751409, -18.66696754508634, 0.0 ], [ 27.823286083701891, -18.667049016718551, 0.0 ], [ 27.823207644592699, -18.667146744091319, 0.0 ], [ 27.82315537297097, -18.667211871354599, 0.0 ], [ 27.823089870777579, -18.667293239500101, 0.0 ], [ 27.823010905419189, -18.667390819158339, 0.0 ], [ 27.82297826966645, -18.667468489766641, 0.0 ], [ 27.82299875781473, -18.667555055641959, 0.0 ], [ 27.823052259971909, -18.667637793084271, 0.0 ], [ 27.823092519902801, -18.66773651059475, 0.0 ], [ 27.823152517705729, -18.667847434496309, 0.0 ], [ 27.823158811905291, -18.667949318286169, 0.0 ], [ 27.82320346713264, -18.668075741197502, 0.0 ], [ 27.823222164398839, -18.668161085143058, 0.0 ], [ 27.823214067275291, -18.668278461834959, 0.0 ], [ 27.82319976213671, -18.668367324163611, 0.0 ], [ 27.8231916946363, -18.66848436709914, 0.0 ], [ 27.82320405066411, -18.668613330656541, 0.0 ], [ 27.823216964102169, -18.66866967333937, 0.0 ], [ 27.823242741655221, -18.668782154455581, 0.0 ], [ 27.823262033864861, -18.66886633608982, 0.0 ], [ 27.823313661281752, -18.669018277881939, 0.0 ], [ 27.823267458173088, -18.669110050947271, 0.0 ] ] ] } },
{ "type": "Feature", "properties": { "Name": "Untitled Polygon", "description": null, "timestamp": null, "begin": null, "end": null, "altitudeMode": null, "tessellate": 1, "extrude": 0, "visibility": -1, "drawOrder": null, "icon": null }, "geometry": { "type": "Polygon", "coordinates": [ [ [ 27.839444083142439, -18.667811894727301, 0.0 ], [ 27.839462882098481, -18.667823581160981, 0.0 ], [ 27.83964480398825, -18.66777273465577, 0.0 ], [ 27.83978826783401, -18.6677687742914, 0.0 ], [ 27.83986309030503, -18.667745427327532, 0.0 ], [ 27.840030804053018, -18.667710496547439, 0.0 ], [ 27.840136130377761, -18.667683403133239, 0.0 ], [ 27.84017954670627, -18.667664054861401, 0.0 ], [ 27.840333517221008, -18.667644878018251, 0.0 ], [ 27.840431384783209, -18.667660488533532, 0.0 ], [ 27.840606376731781, -18.667749212304859, 0.0 ], [ 27.84069070399347, -18.667779899773791, 0.0 ], [ 27.840822922732169, -18.667818079568988, 0.0 ], [ 27.840941922971691, -18.66787131932951, 0.0 ], [ 27.84113293677315, -18.667901330838919, 0.0 ], [ 27.841197989960619, -18.667920123790768, 0.0 ], [ 27.84137479437501, -18.667964958271039, 0.0 ], [ 27.84158758675709, -18.66796424972026, 0.0 ], [ 27.84193246102345, -18.66795932118772, 0.0 ], [ 27.842024602789468, -18.667973942251258, 0.0 ], [ 27.842107491680181, -18.667936329607571, 0.0 ], [ 27.842093680783059, -18.667857877406519, 0.0 ], [ 27.842050588217059, -18.667782972698639, 0.0 ], [ 27.841990337443729, -18.667696486239642, 0.0 ], [ 27.84195454049356, -18.66757942605873, 0.0 ], [ 27.84195749885868, -18.66751129952878, 0.0 ], [ 27.841951034925771, -18.667389799163121, 0.0 ], [ 27.841872926965529, -18.667290211753109, 0.0 ], [ 27.84179439690168, -18.667190088452109, 0.0 ], [ 27.84171080123923, -18.6670624506759, 0.0 ], [ 27.841666453467091, -18.666984802608109, 0.0 ], [ 27.841621949692069, -18.666906879686081, 0.0 ], [ 27.841607086914141, -18.66682515431744, 0.0 ], [ 27.841574768414901, -18.666731260867891, 0.0 ], [ 27.841502330682669, -18.666585473786238, 0.0 ], [ 27.841404416506439, -18.666469845580551, 0.0 ], [ 27.841386805675789, -18.66645771217874, 0.0 ], [ 27.84131105843495, -18.66638130436608, 0.0 ], [ 27.841265285789969, -18.666301193933592, 0.0 ], [ 27.841203668989529, -18.66613678045843, 0.0 ], [ 27.84114692535552, -18.665999493413821, 0.0 ], [ 27.84112578168553, -18.665886518889302, 0.0 ], [ 27.841091886313919, -18.6657889102909, 0.0 ], [ 27.841094984437671, -18.665642985069791, 0.0 ], [ 27.841109065029169, -18.6655538216304, 0.0 ], [ 27.84113620935593, -18.665448698501532, 0.0 ], [ 27.841133126293911, -18.665346642858321, 0.0 ], [ 27.841135372406779, -18.6652731475858, 0.0 ], [ 27.841095697732811, -18.665144451261689, 0.0 ], [ 27.84106661922393, -18.665073310348891, 0.0 ], [ 27.84094530639263, -18.664935931520819, 0.0 ], [ 27.84083416635746, -18.664856287605051, 0.0 ], [ 27.840759728193088, -18.66480294562076, 0.0 ], [ 27.84068501363819, -18.664749406662171, 0.0 ], [ 27.840610019280359, -18.664695666139661, 0.0 ], [ 27.84046496531089, -18.664617334216761, 0.0 ], [ 27.84041550860735, -18.664530615154419, 0.0 ], [ 27.84056917578118, -18.664306677982339, 0.0 ], [ 27.84064893499075, -18.664209618062191, 0.0 ], [ 27.840730662590719, -18.66403613245631, 0.0 ], [ 27.840763959070781, -18.663956666637059, 0.0 ], [ 27.84076525521483, -18.663879466833951, 0.0 ], [ 27.840760976591191, -18.663771792658171, 0.0 ], [ 27.840703930238789, -18.66372945113913, 0.0 ], [ 27.840562908231401, -18.663677336436539, 0.0 ], [ 27.840492096084589, -18.663651168740302, 0.0 ], [ 27.84033660393548, -18.663615149980242, 0.0 ], [ 27.840265170294359, -18.663588783051441, 0.0 ], [ 27.840127925046691, -18.663566809842418, 0.0 ], [ 27.8400159728651, -18.66359015156975, 0.0 ], [ 27.8399557293002, -18.66370418164826, 0.0 ], [ 27.839881237311829, -18.663912473959709, 0.0 ], [ 27.839860307874069, -18.663975865974759, 0.0 ], [ 27.8398320815106, -18.66408611027558, 0.0 ], [ 27.839804856094801, -18.6641966593379, 0.0 ], [ 27.839752129594491, -18.664417822433531, 0.0 ], [ 27.839758449260401, -18.66444809139772, 0.0 ], [ 27.83973720292461, -18.664664502324921, 0.0 ], [ 27.83972347048131, -18.664757278747039, 0.0 ], [ 27.839722922062499, -18.66483350923561, 0.0 ], [ 27.839715534632688, -18.664955704536819, 0.0 ], [ 27.839668841307219, -18.665126324836049, 0.0 ], [ 27.839635396685811, -18.665280113761, 0.0 ], [ 27.83957633290958, -18.66539075481634, 0.0 ], [ 27.83954982814814, -18.665498194117649, 0.0 ], [ 27.839523386128899, -18.665605387263842, 0.0 ], [ 27.839457931819769, -18.665760796393378, 0.0 ], [ 27.83939085804537, -18.665915268917232, 0.0 ], [ 27.839344108832169, -18.66600843568602, 0.0 ], [ 27.83932986208265, -18.666098220606191, 0.0 ], [ 27.839379320989899, -18.666254579683471, 0.0 ], [ 27.8394033923351, -18.666368989519039, 0.0 ], [ 27.839401661783619, -18.666514959574641, 0.0 ], [ 27.839420206232891, -18.666600249623261, 0.0 ], [ 27.83943869506048, -18.666685291597311, 0.0 ], [ 27.839444847327499, -18.666713583458471, 0.0 ], [ 27.83944274668616, -18.66693027871262, 0.0 ], [ 27.839467209449289, -18.66704241548733, 0.0 ], [ 27.83945945023153, -18.667157768624559, 0.0 ], [ 27.83945236395196, -18.66727286555254, 0.0 ], [ 27.839420214838711, -18.667419130723388, 0.0 ], [ 27.839413529286858, -18.667533486592539, 0.0 ], [ 27.839375313157539, -18.667651366087121, 0.0 ], [ 27.839400222068331, -18.667761119700831, 0.0 ], [ 27.83943763686807, -18.667854822187351, 0.0 ], [ 27.839444083142439, -18.667811894727301, 0.0 ] ] ] } },
{ "type": "Feature", "properties": { "Name": "Untitled Polygon", "description": null, "timestamp": null, "begin": null, "end": null, "altitudeMode": null, "tessellate": 1, "extrude": 0, "visibility": -1, "drawOrder": null, "icon": null }, "geometry": { "type": "Polygon", "coordinates": [ [ [ 27.845285834240901, -18.658538723350372, 0.0 ], [ 27.845315884201021, -18.658543601299289, 0.0 ], [ 27.845387108132471, -18.65856021421191, 0.0 ], [ 27.84542822024007, -18.658571924098439, 0.0 ], [ 27.84552460813352, -18.658577482312971, 0.0 ], [ 27.84564261639164, -18.658596638178619, 0.0 ], [ 27.8456830218236, -18.65860819975163, 0.0 ], [ 27.845846958859489, -18.658629807448801, 0.0 ], [ 27.845908514016799, -18.658654693284841, 0.0 ], [ 27.845951817054161, -18.658681514375161, 0.0 ], [ 27.846002100337099, -18.658699500600171, 0.0 ], [ 27.84606235226234, -18.6587240019478, 0.0 ], [ 27.84612530024609, -18.658763629612569, 0.0 ], [ 27.84617422869221, -18.658781266707919, 0.0 ], [ 27.84625409917885, -18.658818463856349, 0.0 ], [ 27.846323188724991, -18.658848935902011, 0.0 ], [ 27.846443850945789, -18.658872889086769, 0.0 ], [ 27.84649168184675, -18.65889014022817, 0.0 ], [ 27.846559594984001, -18.65892017898874, 0.0 ], [ 27.846614060240821, -18.65892874331762, 0.0 ], [ 27.84667536675104, -18.65892876140521, 0.0 ], [ 27.846773454121241, -18.65893941186452, 0.0 ], [ 27.84682038491761, -18.65895637819149, 0.0 ], [ 27.846881176068461, -18.658956366441121, 0.0 ], [ 27.846920754314461, -18.658981689033059, 0.0 ], [ 27.847033037370242, -18.6590277942, 0.0 ], [ 27.847122174414281, -18.65904641765454, 0.0 ], [ 27.847265828801572, -18.659087612734901, 0.0 ], [ 27.847483702815762, -18.659177380487979, 0.0 ], [ 27.847711471907449, -18.659249229150252, 0.0 ], [ 27.8477226051934, -18.65921859981961, 0.0 ], [ 27.847708422294879, -18.65918404190742, 0.0 ], [ 27.847707832061161, -18.659132950922849, 0.0 ], [ 27.847707239915771, -18.659081730408911, 0.0 ], [ 27.847690501928529, -18.659032476229559, 0.0 ], [ 27.847686025303918, -18.658966403133672, 0.0 ], [ 27.84768785754158, -18.658929189612682, 0.0 ], [ 27.847684673181011, -18.658862859662289, 0.0 ], [ 27.847697729460609, -18.658794291586968, 0.0 ], [ 27.84771081950549, -18.658725542801619, 0.0 ], [ 27.847731449098131, -18.65870061622503, 0.0 ], [ 27.847753977828791, -18.65863803137535, 0.0 ], [ 27.84776276901659, -18.65859198342001, 0.0 ], [ 27.847796676870072, -18.658497757299461, 0.0 ], [ 27.84780109919248, -18.658474631843969, 0.0 ], [ 27.847807478209429, -18.65841348362941, 0.0 ], [ 27.84780201640201, -18.658330748722559, 0.0 ], [ 27.847810985950272, -18.65828418015376, 0.0 ], [ 27.84781299710378, -18.65824590062833, 0.0 ], [ 27.847824014410222, -18.658160762682659, 0.0 ], [ 27.847830554489299, -18.658098817904179, 0.0 ], [ 27.847841614620389, -18.658013166703419, 0.0 ], [ 27.84785252212064, -18.6579271232041, 0.0 ], [ 27.847856493640791, -18.65784922984837, 0.0 ], [ 27.847860505974371, -18.65777107390975, 0.0 ], [ 27.84786251714694, -18.657731891676889, 0.0 ], [ 27.84786655050527, -18.657653316877589, 0.0 ], [ 27.847875604431461, -18.65760542554397, 0.0 ], [ 27.84792309686296, -18.657530944551031, 0.0 ], [ 27.847923184268449, -18.657476205194371, 0.0 ], [ 27.847942036715128, -18.657380241193721, 0.0 ], [ 27.847932324822359, -18.657317840068171, 0.0 ], [ 27.847920326005301, -18.657295058227191, 0.0 ], [ 27.84792013640347, -18.65723953842031, 0.0 ], [ 27.847881503299611, -18.65715494745297, 0.0 ], [ 27.84787425615972, -18.657107688638799, 0.0 ], [ 27.847821234448659, -18.656983669880649, 0.0 ], [ 27.847782410995109, -18.656897961895002, 0.0 ], [ 27.847758027422131, -18.656851196003661, 0.0 ], [ 27.847723648992261, -18.656796687350749, 0.0 ], [ 27.847706235024258, -18.65674083189662, 0.0 ], [ 27.847657006664651, -18.656703154699461, 0.0 ], [ 27.847565858301731, -18.656676250128889, 0.0 ], [ 27.847511578333329, -18.656663425408521, 0.0 ], [ 27.847422462480839, -18.656652841240849, 0.0 ], [ 27.84735025184299, -18.656641034286071, 0.0 ], [ 27.847260146015689, -18.656630250386069, 0.0 ], [ 27.847169540867199, -18.656619406858791, 0.0 ], [ 27.84711663400811, -18.65662277137497, 0.0 ], [ 27.847007491145721, -18.6566129826356, 0.0 ], [ 27.846918435548421, -18.65661860588455, 0.0 ], [ 27.846800541119389, -18.656617635295571, 0.0 ], [ 27.846733017385841, -18.65659657693611, 0.0 ], [ 27.846636453933609, -18.656568719560461, 0.0 ], [ 27.846568175383691, -18.656547429646992, 0.0 ], [ 27.84649642950389, -18.656509179959489, 0.0 ], [ 27.84641349208324, -18.656462786176071, 0.0 ], [ 27.84636259379824, -18.656440009000129, 0.0 ], [ 27.846271155203318, -18.656402207296821, 0.0 ], [ 27.84617144615035, -18.656373239936489, 0.0 ], [ 27.846111976893351, -18.65635920091864, 0.0 ], [ 27.84597692046944, -18.656349228847709, 0.0 ], [ 27.845897787117831, -18.65633609089307, 0.0 ], [ 27.845806985741291, -18.656314733644269, 0.0 ], [ 27.845707686281742, -18.65630234148626, 0.0 ], [ 27.84562329778171, -18.656271328921179, 0.0 ], [ 27.845518987202158, -18.65624109187242, 0.0 ], [ 27.845456728098249, -18.656226325473959, 0.0 ], [ 27.84542920889789, -18.656236485932901, 0.0 ], [ 27.845413144193842, -18.656344022330629, 0.0 ], [ 27.84540502566259, -18.656397587728851, 0.0 ], [ 27.845396666673029, -18.656495189039081, 0.0 ], [ 27.845388830486069, -18.65650444176001, 0.0 ], [ 27.84538858346205, -18.656548483461719, 0.0 ], [ 27.845376484476041, -18.656628252723319, 0.0 ], [ 27.84536062398508, -18.65669054546343, 0.0 ], [ 27.845352595321209, -18.656743512539581, 0.0 ], [ 27.845352167334621, -18.656830755217179, 0.0 ], [ 27.845336353241279, -18.65689265324167, 0.0 ], [ 27.845339785512031, -18.656953081096219, 0.0 ], [ 27.845323653322829, -18.657057883466251, 0.0 ], [ 27.845327092720652, -18.657117916823221, 0.0 ], [ 27.84529181397367, -18.65722358956214, 0.0 ], [ 27.84527981996029, -18.657301559168669, 0.0 ], [ 27.845256385898701, -18.657371719677851, 0.0 ], [ 27.845263874236661, -18.657405215950629, 0.0 ], [ 27.84525207375092, -18.65761011124637, 0.0 ], [ 27.845256179848921, -18.657669056258001, 0.0 ], [ 27.845249018343271, -18.657762569384229, 0.0 ], [ 27.845253323899641, -18.657863071409729, 0.0 ], [ 27.84525760960075, -18.65796310621247, 0.0 ], [ 27.845250700269169, -18.658096998795301, 0.0 ], [ 27.84527426425467, -18.65815289373856, 0.0 ], [ 27.845276780364649, -18.658276988279841, 0.0 ], [ 27.845294777291961, -18.65842328754615, 0.0 ], [ 27.84531835879557, -18.658478070601081, 0.0 ], [ 27.845285834240901, -18.658538723350372, 0.0 ] ] ] } },
{ "type": "Feature", "properties": { "Name": "Untitled Polygon", "description": null, "timestamp": null, "begin": null, "end": null, "altitudeMode": null, "tessellate": 1, "extrude": 0, "visibility": -1, "drawOrder": null, "icon": null }, "geometry": { "type": "Polygon", "coordinates": [ [ [ 27.843016455176809, -18.657184343322498, 0.0 ], [ 27.84296855594733, -18.657243035725092, 0.0 ], [ 27.842888738351238, -18.65734083690926, 0.0 ], [ 27.842856816335281, -18.657379951759761, 0.0 ], [ 27.842816919229708, -18.657428838124218, 0.0 ], [ 27.842737139419651, -18.657526586929979, 0.0 ], [ 27.84269572357362, -18.657575125164961, 0.0 ], [ 27.84277127095735, -18.657605331390322, 0.0 ], [ 27.84282528933004, -18.657637212465719, 0.0 ], [ 27.842865378242351, -18.657660982110269, 0.0 ], [ 27.8429576100032, -18.65771599353144, 0.0 ], [ 27.843031019674822, -18.657745408139991, 0.0 ], [ 27.84315090267998, -18.657788334547, 0.0 ], [ 27.84321050360953, -18.657809675661799, 0.0 ], [ 27.843269879492869, -18.657830936456261, 0.0 ], [ 27.843341826823, -18.657859789105999, 0.0 ], [ 27.843454478390711, -18.65788471394988, 0.0 ], [ 27.8435529834771, -18.65790171985142, 0.0 ], [ 27.84363064769218, -18.657920537436379, 0.0 ], [ 27.843698597881559, -18.657905239189319, 0.0 ], [ 27.843778699559749, -18.657897523870691, 0.0 ], [ 27.84386159331525, -18.657863390142051, 0.0 ], [ 27.843945734526841, -18.657872737644251, 0.0 ], [ 27.844027406388101, -18.6579085739044, 0.0 ], [ 27.84415717280519, -18.657931324918771, 0.0 ], [ 27.844229324428269, -18.657933293697919, 0.0 ], [ 27.844259909829699, -18.657895929148641, 0.0 ], [ 27.84431344269332, -18.657830532739919, 0.0 ], [ 27.844356244630269, -18.657800722146671, 0.0 ], [ 27.844405279029619, -18.657718413542309, 0.0 ], [ 27.844413025694681, -18.657709091768371, 0.0 ], [ 27.844439101789089, -18.657611714873919, 0.0 ], [ 27.844446172766169, -18.657559106501949, 0.0 ], [ 27.844456919399551, -18.657480049000231, 0.0 ], [ 27.84445575494982, -18.657393063274078, 0.0 ], [ 27.84445878846288, -18.657322930669569, 0.0 ], [ 27.844458206595782, -18.657279199519099, 0.0 ], [ 27.844472720536331, -18.65717269949905, 0.0 ], [ 27.844468513344719, -18.657155419714371, 0.0 ], [ 27.844491491159591, -18.657083163023529, 0.0 ], [ 27.84451870362939, -18.657028154609218, 0.0 ], [ 27.8445616537342, -18.656954261074979, 0.0 ], [ 27.844600087169269, -18.65686269137657, 0.0 ], [ 27.844653876636329, -18.65675188225018, 0.0 ], [ 27.8446808116685, -18.656696395021129, 0.0 ], [ 27.844695672617529, -18.656632647109319, 0.0 ], [ 27.844702737268491, -18.656578262992831, 0.0 ], [ 27.8446690779483, -18.656481083381319, 0.0 ], [ 27.844570780914211, -18.65636900698237, 0.0 ], [ 27.844512447999652, -18.65629907970963, 0.0 ], [ 27.844494699423699, -18.6562267087577, 0.0 ], [ 27.84448927752323, -18.656162619454989, 0.0 ], [ 27.844519129399369, -18.656031867110659, 0.0 ], [ 27.844552626138611, -18.655872527782879, 0.0 ], [ 27.844549869135321, -18.65573263881511, 0.0 ], [ 27.844557109295771, -18.655629857013999, 0.0 ], [ 27.84453266418252, -18.655565877820951, 0.0 ], [ 27.8444960525424, -18.655539584560699, 0.0 ], [ 27.844438972858239, -18.655514142594772, 0.0 ], [ 27.844349176600929, -18.655527569297341, 0.0 ], [ 27.84432057754475, -18.65553824203846, 0.0 ], [ 27.84422647960924, -18.65558007710478, 0.0 ], [ 27.844144581488781, -18.655630821172231, 0.0 ], [ 27.844099496833771, -18.655661116047309, 0.0 ], [ 27.84404186109882, -18.655682660474621, 0.0 ], [ 27.84398849724791, -18.655722807462379, 0.0 ], [ 27.8439476503811, -18.6557717423151, 0.0 ], [ 27.84389863144095, -18.6558304667921, 0.0 ], [ 27.843849607171531, -18.655889197369479, 0.0 ], [ 27.843813204653831, -18.655956596123001, 0.0 ], [ 27.84377683142829, -18.656023941412752, 0.0 ], [ 27.84374864743679, -18.656081454785969, 0.0 ], [ 27.8437041699523, -18.65615847121818, 0.0 ], [ 27.84366788285287, -18.656225655267821, 0.0 ], [ 27.843647931011191, -18.656273249091509, 0.0 ], [ 27.843599013995242, -18.65633185714378, 0.0 ], [ 27.843570946923229, -18.656389155368529, 0.0 ], [ 27.843518595893119, -18.656475739611619, 0.0 ], [ 27.843494384038621, -18.65650511509082, 0.0 ], [ 27.843459079961399, -18.6565723726812, 0.0 ], [ 27.84341068428677, -18.656631088463769, 0.0 ], [ 27.843391565275351, -18.65667868318803, 0.0 ], [ 27.843351258732131, -18.65672758526642, 0.0 ], [ 27.843316066445649, -18.656794654056831, 0.0 ], [ 27.843288964422261, -18.656851884764389, 0.0 ], [ 27.843237744179291, -18.65693834913769, 0.0 ], [ 27.843173596042611, -18.657016531282689, 0.0 ], [ 27.843117715016231, -18.65708500101481, 0.0 ], [ 27.843083257349349, -18.657151926213519, 0.0 ], [ 27.843051351077001, -18.657191019015439, 0.0 ], [ 27.843016455176809, -18.657184343322498, 0.0 ] ] ] } },
{ "type": "Feature", "properties": { "Name": "Untitled Polygon", "description": null, "timestamp": null, "begin": null, "end": null, "altitudeMode": null, "tessellate": 1, "extrude": 0, "visibility": -1, "drawOrder": null, "icon": null }, "geometry": { "type": "Polygon", "coordinates": [ [ [ 27.8380378883896, -18.643208255721799, 0.0 ], [ 27.83823407171565, -18.643246751273519, 0.0 ], [ 27.838347151111261, -18.643274787787739, 0.0 ], [ 27.83857200182646, -18.643330679150122, 0.0 ], [ 27.838785930007631, -18.643343778934341, 0.0 ], [ 27.839027912005228, -18.64337452627106, 0.0 ], [ 27.83915936376453, -18.64337732610398, 0.0 ], [ 27.839270613400789, -18.643404829941371, 0.0 ], [ 27.83941124927961, -18.643449700031749, 0.0 ], [ 27.839739969587232, -18.643531763231959, 0.0 ], [ 27.839948692368509, -18.643544237989079, 0.0 ], [ 27.840440963432901, -18.643578995913249, 0.0 ], [ 27.840645622854971, -18.643591460909882, 0.0 ], [ 27.840829608965759, -18.643628205938789, 0.0 ], [ 27.84136169682067, -18.643654885831999, 0.0 ], [ 27.841744049931581, -18.643703054540051, 0.0 ], [ 27.841832438430441, -18.64364739953859, 0.0 ], [ 27.841857080070579, -18.643516769076399, 0.0 ], [ 27.84192208317857, -18.643337510490781, 0.0 ], [ 27.842002726637819, -18.643240671970101, 0.0 ], [ 27.8421014358828, -18.642971053020691, 0.0 ], [ 27.842155009272439, -18.64285676363053, 0.0 ], [ 27.842221546439681, -18.642676515694099, 0.0 ], [ 27.84226780507154, -18.642520319667849, 0.0 ], [ 27.842265951310239, -18.642370674068321, 0.0 ], [ 27.842325321592629, -18.642147746079221, 0.0 ], [ 27.84239218973687, -18.64196644097375, 0.0 ], [ 27.84246650070185, -18.641827046483449, 0.0 ], [ 27.842561268176159, -18.64166325306455, 0.0 ], [ 27.842615229310081, -18.64154804567762, 0.0 ], [ 27.842682181696741, -18.64136610601539, 0.0 ], [ 27.84270153038181, -18.641190224871941, 0.0 ], [ 27.842787503734272, -18.64098326152865, 0.0 ], [ 27.842894842732541, -18.640751645364759, 0.0 ], [ 27.84292054913443, -18.640617325421459, 0.0 ], [ 27.84293154564023, -18.64039699287132, 0.0 ], [ 27.842917164399211, -18.640311101535168, 0.0 ], [ 27.842956901794391, -18.640108559564471, 0.0 ], [ 27.842983440606499, -18.639973291018691, 0.0 ], [ 27.843050970300968, -18.639788797310349, 0.0 ], [ 27.843077613439871, -18.639653110481792, 0.0 ], [ 27.843117650705551, -18.639449213513391, 0.0 ], [ 27.843240703079079, -18.639301913003699, 0.0 ], [ 27.84328171528027, -18.639252819908169, 0.0 ], [ 27.843370121791391, -18.639042845399771, 0.0 ], [ 27.843445154207611, -18.638900907719421, 0.0 ], [ 27.84352023119321, -18.638758882745151, 0.0 ], [ 27.843547289135099, -18.63862205896389, 0.0 ], [ 27.843540283890459, -18.638578163897339, 0.0 ], [ 27.84338163458964, -18.638506013847259, 0.0 ], [ 27.843160433973381, -18.638507642716149, 0.0 ], [ 27.842938322694831, -18.638509277052538, 0.0 ], [ 27.842756759142819, -18.63846133522641, 0.0 ], [ 27.842643480879069, -18.638382853635829, 0.0 ], [ 27.84215443782913, -18.638320254831399, 0.0 ], [ 27.841818293529879, -18.638286444622128, 0.0 ], [ 27.8417001131921, -18.638481449721301, 0.0 ], [ 27.841644921724519, -18.638601260219819, 0.0 ], [ 27.84159776412578, -18.638765652228191, 0.0 ], [ 27.841542565839571, -18.638885206507901, 0.0 ], [ 27.84146074920271, -18.639143457918081, 0.0 ], [ 27.841397258810481, -18.63921829461172, 0.0 ], [ 27.84130757737093, -18.639431722589521, 0.0 ], [ 27.841281441504321, -18.639570107018731, 0.0 ], [ 27.841255339638948, -18.63970829452267, 0.0 ], [ 27.841141597932339, -18.639788830746991, 0.0 ], [ 27.840961518257721, -18.639787047626061, 0.0 ], [ 27.84057832784427, -18.63980856732077, 0.0 ], [ 27.840425994763681, -18.639826104627328, 0.0 ], [ 27.840213528480511, -18.63980504695321, 0.0 ], [ 27.840081352564081, -18.639797412989701, 0.0 ], [ 27.839828298634629, -18.639712034681761, 0.0 ], [ 27.83974658222802, -18.639698397851419, 0.0 ], [ 27.839618761389151, -18.63985038385885, 0.0 ], [ 27.839551576618721, -18.640041103631749, 0.0 ], [ 27.839508989820619, -18.64009174941117, 0.0 ], [ 27.839399364568479, -18.640332790015059, 0.0 ], [ 27.83935419579376, -18.640497657606339, 0.0 ], [ 27.83926632199007, -18.640712804357399, 0.0 ], [ 27.83924501498069, -18.640738085593782, 0.0 ], [ 27.839178571357941, -18.64092764511939, 0.0 ], [ 27.839142368411981, -18.641135698578079, 0.0 ], [ 27.839065752147189, -18.64128064332828, 0.0 ], [ 27.839010597675159, -18.641400280764039, 0.0 ], [ 27.838752528169781, -18.641703280860519, 0.0 ], [ 27.83860084442907, -18.641880210401158, 0.0 ], [ 27.83852340719676, -18.64202507484352, 0.0 ], [ 27.838417471229661, -18.642151459757951, 0.0 ], [ 27.838330894236631, -18.64236493344719, 0.0 ], [ 27.83822328538448, -18.642603341331231, 0.0 ], [ 27.838135333613849, -18.642927792489331, 0.0 ], [ 27.83812231666867, -18.643107482083469, 0.0 ], [ 27.8380378883896, -18.643208255721799, 0.0 ] ] ] } },
{ "type": "Feature", "properties": { "Name": "Untitled Polygon", "description": null, "timestamp": null, "begin": null, "end": null, "altitudeMode": null, "tessellate": 1, "extrude": 0, "visibility": -1, "drawOrder": null, "icon": null }, "geometry": { "type": "Polygon", "coordinates": [ [ [ 27.843561162991051, -18.63883126842774, 0.0 ], [ 27.843579871719871, -18.638843340962591, 0.0 ], [ 27.843626483940199, -18.6388734202176, 0.0 ], [ 27.843686421193421, -18.63888713485084, 0.0 ], [ 27.84375282158144, -18.63889269344703, 0.0 ], [ 27.843843887467902, -18.638902041215552, 0.0 ], [ 27.843943366916811, -18.63891723470682, 0.0 ], [ 27.84410004590918, -18.638945662579779, 0.0 ], [ 27.84418870107476, -18.638954704098669, 0.0 ], [ 27.844245986337938, -18.638967925806401, 0.0 ], [ 27.844342345751169, -18.638982625259271, 0.0 ], [ 27.844463805229161, -18.639014448354221, 0.0 ], [ 27.844534868073008, -18.639025250846441, 0.0 ], [ 27.844584000401451, -18.639045940404021, 0.0 ], [ 27.84466279179922, -18.639062266210569, 0.0 ], [ 27.844781148977741, -18.639093268732299, 0.0 ], [ 27.84481914022918, -18.639094632415741, 0.0 ], [ 27.844915320412198, -18.639135151944242, 0.0 ], [ 27.84496126259566, -18.63914202176975, 0.0 ], [ 27.84503162711303, -18.639165471618099, 0.0 ], [ 27.84509973314583, -18.639175616718688, 0.0 ], [ 27.845152997046579, -18.639187833913169, 0.0 ], [ 27.845228382277931, -18.639203316013429, 0.0 ], [ 27.845272841942158, -18.639209933893241, 0.0 ], [ 27.845376911301368, -18.639233913744789, 0.0 ], [ 27.84545198509673, -18.639261962172089, 0.0 ], [ 27.845546692091961, -18.63928016560466, 0.0 ], [ 27.84558852025026, -18.639273738368139, 0.0 ], [ 27.84565320617202, -18.639283308434742, 0.0 ], [ 27.845709917939541, -18.639287521960942, 0.0 ], [ 27.845764963982479, -18.63927900025768, 0.0 ], [ 27.845775915723621, -18.639251421821569, 0.0 ], [ 27.845797845428589, -18.63919619955939, 0.0 ], [ 27.845812253329079, -18.639135515173699, 0.0 ], [ 27.8458253255328, -18.639061812717571, 0.0 ], [ 27.84585357636665, -18.638998777942049, 0.0 ], [ 27.845861888314442, -18.638945070854021, 0.0 ], [ 27.845876365595839, -18.63888371947148, 0.0 ], [ 27.845889523275741, -18.63880914982073, 0.0 ], [ 27.84590543924449, -18.63876051287891, 0.0 ], [ 27.845920035263038, -18.638698657019251, 0.0 ], [ 27.8459498070664, -18.638647949646749, 0.0 ], [ 27.845960923947501, -18.638619744337529, 0.0 ], [ 27.84601696454126, -18.638552101792179, 0.0 ], [ 27.846045511332409, -18.638488033881789, 0.0 ], [ 27.846068971627041, -18.638370555296529, 0.0 ], [ 27.846107679483978, -18.638264239239849, 0.0 ], [ 27.846120223768889, -18.638174421556489, 0.0 ], [ 27.846136572735752, -18.638124770497889, 0.0 ], [ 27.846137868602209, -18.63806309458802, 0.0 ], [ 27.846132822475251, -18.63800871203955, 0.0 ], [ 27.846121432145409, -18.637961721123599, 0.0 ], [ 27.84612392110165, -18.63791300345785, 0.0 ], [ 27.846120087597459, -18.63787179388288, 0.0 ], [ 27.846103568905221, -18.637845779530458, 0.0 ], [ 27.846043649183141, -18.637810393311131, 0.0 ], [ 27.845991064775731, -18.637780977724582, 0.0 ], [ 27.84596010190268, -18.637756130099881, 0.0 ], [ 27.845884997285719, -18.6377216439401, 0.0 ], [ 27.845825080986302, -18.637699491469061, 0.0 ], [ 27.84580143377001, -18.63768058910356, 0.0 ], [ 27.845733071296351, -18.637651882369479, 0.0 ], [ 27.845672259069691, -18.637629359491839, 0.0 ], [ 27.845603035004231, -18.637600301318479, 0.0 ], [ 27.845556096980491, -18.63757605167174, 0.0 ], [ 27.84551054839341, -18.637566032970359, 0.0 ], [ 27.84544844250118, -18.637543020893141, 0.0 ], [ 27.845379407155239, -18.637527809525849, 0.0 ], [ 27.845278395763369, -18.63750084024489, 0.0 ], [ 27.845191541300061, -18.63747222438219, 0.0 ], [ 27.84511913730962, -18.63744198443155, 0.0 ], [ 27.845048109860159, -18.637426249400701, 0.0 ], [ 27.844998621380281, -18.63740095919313, 0.0 ], [ 27.844942190075798, -18.63738363530474, 0.0 ], [ 27.84489219407887, -18.637358114633798, 0.0 ], [ 27.844850672287929, -18.637339231758151, 0.0 ], [ 27.844760004500088, -18.637309024345068, 0.0 ], [ 27.844657051059439, -18.637309927068369, 0.0 ], [ 27.844517207821191, -18.637283211138332, 0.0 ], [ 27.84436086520569, -18.637258509392989, 0.0 ], [ 27.844259289901231, -18.63723557241833, 0.0 ], [ 27.844182513536559, -18.637218237508939, 0.0 ], [ 27.844105302479559, -18.637200827385801, 0.0 ], [ 27.844060536788799, -18.637180795744211, 0.0 ], [ 27.843966002998741, -18.637164465795209, 0.0 ], [ 27.8438593463163, -18.637180522137431, 0.0 ], [ 27.843712945629299, -18.637167902348299, 0.0 ], [ 27.843684726494779, -18.63720185895292, 0.0 ], [ 27.84367885102105, -18.63726578288783, 0.0 ], [ 27.843675731537861, -18.637345058369618, 0.0 ], [ 27.84366715532002, -18.637393019948892, 0.0 ], [ 27.843665667613141, -18.63743247621014, 0.0 ], [ 27.84366421188103, -18.637471862310861, 0.0 ], [ 27.843654337146461, -18.6375587960333, 0.0 ], [ 27.843652898490561, -18.63759791654245, 0.0 ], [ 27.843663944884678, -18.637659114620892, 0.0 ], [ 27.843677367792331, -18.63773507548547, 0.0 ], [ 27.84367287413604, -18.637758470669279, 0.0 ], [ 27.843675869590889, -18.637826858582741, 0.0 ], [ 27.843666908799399, -18.637873440709889, 0.0 ], [ 27.843669906799349, -18.63794143488186, 0.0 ], [ 27.8436401200238, -18.638012694459039, 0.0 ], [ 27.843603435147539, -18.638092132849501, 0.0 ], [ 27.84356680881503, -18.638171443672999, 0.0 ], [ 27.84352769657043, -18.638235919422758, 0.0 ], [ 27.843505271212759, -18.6382985275003, 0.0 ], [ 27.843490076067201, -18.63835281820089, 0.0 ], [ 27.843475251690471, -18.638407096431902, 0.0 ], [ 27.843483599005928, -18.638450989545689, 0.0 ], [ 27.843494686554809, -18.6385092993863, 0.0 ], [ 27.843505463188141, -18.638567304567822, 0.0 ], [ 27.84353985703936, -18.638666085086751, 0.0 ], [ 27.843585103004759, -18.63873352266851, 0.0 ], [ 27.843592712357481, -18.63877627037439, 0.0 ], [ 27.843561162991051, -18.63883126842774, 0.0 ] ] ] } },
{ "type": "Feature", "properties": { "Name": "Untitled Polygon", "description": null, "timestamp": null, "begin": null, "end": null, "altitudeMode": null, "tessellate": 1, "extrude": 0, "visibility": -1, "drawOrder": null, "icon": null }, "geometry": { "type": "Polygon", "coordinates": [ [ [ 27.83820777066013, -18.636643349810399, 0.0 ], [ 27.838309540167021, -18.636701422058351, 0.0 ], [ 27.838550852374169, -18.63672451321877, 0.0 ], [ 27.838797405092979, -18.63669424009915, 0.0 ], [ 27.83894515205834, -18.636693567516279, 0.0 ], [ 27.839051725915411, -18.63669791647833, 0.0 ], [ 27.839125639933279, -18.6367408227879, 0.0 ], [ 27.83927273841174, -18.636826210952851, 0.0 ], [ 27.83931378660558, -18.636907082342319, 0.0 ], [ 27.839307634502202, -18.637045259713961, 0.0 ], [ 27.839293026274149, -18.637149895100801, 0.0 ], [ 27.8392711739554, -18.637306413527391, 0.0 ], [ 27.839280916494651, -18.637424227234799, 0.0 ], [ 27.83945858091063, -18.63746843822581, 0.0 ], [ 27.839594809599021, -18.637517676428232, 0.0 ], [ 27.839713780293831, -18.637501630396329, 0.0 ], [ 27.839918676935731, -18.63759109962815, 0.0 ], [ 27.840052154904011, -18.637639581870129, 0.0 ], [ 27.840192685604219, -18.637719916203871, 0.0 ], [ 27.840394165156191, -18.637807553758549, 0.0 ], [ 27.840525013860422, -18.637854964150211, 0.0 ], [ 27.840800007221219, -18.637930505662521, 0.0 ], [ 27.84089076507092, -18.637982676744571, 0.0 ], [ 27.841056785473882, -18.63802367016725, 0.0 ], [ 27.841334299655461, -18.63804799947048, 0.0 ], [ 27.841572033142452, -18.638077547626722, 0.0 ], [ 27.84164102729159, -18.637955121171881, 0.0 ], [ 27.841725262783871, -18.637814298767239, 0.0 ], [ 27.841742081478689, -18.63771517596178, 0.0 ], [ 27.84176737179471, -18.637566109637952, 0.0 ], [ 27.84177072103093, -18.637403354739629, 0.0 ], [ 27.84176583802585, -18.637290048795219, 0.0 ], [ 27.84177471225399, -18.63723995986226, 0.0 ], [ 27.841838756868238, -18.637084436034769, 0.0 ], [ 27.841887477783541, -18.63694705235676, 0.0 ], [ 27.841927313190151, -18.636859848408481, 0.0 ], [ 27.841923335939349, -18.6367453107393, 0.0 ], [ 27.841740446646199, -18.636603425075119, 0.0 ], [ 27.841622772266511, -18.636501909265011, 0.0 ], [ 27.84143706231232, -18.6363577865033, 0.0 ], [ 27.84131752698045, -18.636254713763901, 0.0 ], [ 27.841157416400691, -18.636155341064971, 0.0 ], [ 27.841057245854131, -18.636064892256289, 0.0 ], [ 27.840957330514168, -18.635974091946849, 0.0 ], [ 27.840840965235341, -18.635901737341499, 0.0 ], [ 27.840692944012901, -18.63578075656655, 0.0 ], [ 27.8406071092551, -18.635669260882111, 0.0 ], [ 27.840560666309791, -18.63555290200793, 0.0 ], [ 27.840499196822229, -18.635455477868359, 0.0 ], [ 27.8401980009128, -18.63529510075605, 0.0 ], [ 27.839981941163881, -18.635158978441751, 0.0 ], [ 27.83962491912057, -18.63496399303833, 0.0 ], [ 27.839344532971939, -18.63484786635442, 0.0 ], [ 27.839177214947721, -18.634773394055589, 0.0 ], [ 27.83899210053902, -18.634718139679009, 0.0 ], [ 27.838729934469232, -18.63470602639568, 0.0 ], [ 27.838679798014319, -18.634765481303731, 0.0 ], [ 27.83863097730282, -18.634915963184849, 0.0 ], [ 27.838589914991239, -18.6350108823578, 0.0 ], [ 27.838582235300631, -18.635066138654679, 0.0 ], [ 27.838514404717579, -18.635235232572182, 0.0 ], [ 27.838378995351839, -18.635482916695359, 0.0 ], [ 27.83828728004821, -18.63563645243855, 0.0 ], [ 27.83820609474731, -18.63582502562598, 0.0 ], [ 27.83812507214164, -18.63601322042296, 0.0 ], [ 27.838095707095452, -18.636230832509291, 0.0 ], [ 27.838177222040361, -18.636452459593581, 0.0 ], [ 27.838307180559369, -18.63661368638757, 0.0 ], [ 27.83820777066013, -18.636643349810399, 0.0 ] ] ] } },
{ "type": "Feature", "properties": { "Name": "Untitled Polygon", "description": null, "timestamp": null, "begin": null, "end": null, "altitudeMode": null, "tessellate": 1, "extrude": 0, "visibility": -1, "drawOrder": null, "icon": null }, "geometry": { "type": "Polygon", "coordinates": [ [ [ 27.832281918505359, -18.633089869891961, 0.0 ], [ 27.833457607541181, -18.62877756671806, 0.0 ], [ 27.832106313809671, -18.628535207618089, 0.0 ], [ 27.83212263104787, -18.6285157347899, 0.0 ], [ 27.832537697406739, -18.62772352589516, 0.0 ], [ 27.83124648648899, -18.627277519429079, 0.0 ], [ 27.831308803213592, -18.626843955874431, 0.0 ], [ 27.82890747063901, -18.62618979089131, 0.0 ], [ 27.828729196570681, -18.626689715910999, 0.0 ], [ 27.82771486820328, -18.62678945999513, 0.0 ], [ 27.827845666236939, -18.62746082530365, 0.0 ], [ 27.82718741717682, -18.627322688298399, 0.0 ], [ 27.827240461671678, -18.626273234947579, 0.0 ], [ 27.826244480300559, -18.626243596872008, 0.0 ], [ 27.82590869808843, -18.627574130999399, 0.0 ], [ 27.824651297296061, -18.627479573266118, 0.0 ], [ 27.823990484381309, -18.630814522540131, 0.0 ], [ 27.832281918505359, -18.633089869891961, 0.0 ] ] ] } }
]
}
