{"type":"FeatureCollection","crs":{"type":"name","properties":{"name":"EPSG:4326"}},"features":[{"type":"Feature","id":1,"geometry":{"type":"Polygon","coordinates":[[[28.196452912000041,-19.200822524999978,0],[28.194529276000026,-19.19471396299997,0],[28.186278100000038,-19.19089915099994,0],[28.174988219000056,-19.188841810999975,0],[28.173800111000048,-19.18862526199996,0],[28.157630102000041,-19.18625211799997,0],[28.141206059000069,-19.182672608999951,0],[28.138985030000072,-19.181689344999938,0],[28.124479879000035,-19.17788029999997,0],[28.094997888000023,-19.169588436999959,0],[28.092766914000038,-19.168600632999983,0],[28.080871957000056,-19.164101898999945,0],[28.079689845000075,-19.163884105999955,0],[28.06388163500003,-19.157503002999931,0],[28.054448625000077,-19.142323060999956,0],[28.056190958000059,-19.124290090999978,0],[28.056660664000049,-19.119601762999935,0],[28.037624464000032,-19.11790969599997,0],[28.025947918000043,-19.116970112999979,0],[28.014678400000037,-19.11133689299993,0],[27.996790338000039,-19.098436689999971,0],[27.992811126000049,-19.096497826999951,0],[27.986783194000054,-19.098405087999936,0],[27.969127750000041,-19.102337177999971,0],[27.955911877000062,-19.103287160999969,0],[27.954754968000032,-19.101953232999961,0],[27.947701378000033,-19.100087643999927,0],[27.93580322400004,-19.100130521999972,0],[27.93435597000007,-19.099863003999928,0],[27.928163852000068,-19.098998006999977,0],[27.926476841000067,-19.098407577999978,0],[27.922085378000077,-19.090583838999976,0],[27.921329926000055,-19.08874971399996,0],[27.921313189000045,-19.087613603999955,0],[27.910385022000071,-19.079915451999966,0],[27.909702849000041,-19.078933402999951,0],[27.907156713000063,-19.074167983999928,0],[27.893380551000064,-19.063524945999973,0],[27.891800068000066,-19.062360396999964,0],[27.886775232000048,-19.055861112999935,0],[27.887017766000042,-19.054729798999972,0],[27.875285747000078,-19.044554244999972,0],[27.872419463000028,-19.041934788999981,0],[27.862656596000079,-19.044652715999973,0],[27.851148530000046,-19.040261407999935,0],[27.850198917000057,-19.030943386999979,0],[27.850241298000071,-19.026784797999937,0],[27.851201084000024,-19.021573499999931,0],[27.851699642000028,-19.01955947099998,0],[27.851728655000045,-19.018051795999952,0],[27.851528472000041,-19.010724755999945,0],[27.851884203000054,-19.009263597999961,0],[27.849434324000072,-18.998651104999965,0],[27.849079993000032,-18.997345281999969,0],[27.84840523400004,-18.99597775899997,0],[27.843496112000025,-18.994133016999967,0],[27.827841470000067,-18.989664954999967,0],[27.827148409000074,-18.988288211999929,0],[27.809585361000074,-18.980009668999969,0],[27.807910592000042,-18.978439039999955,0],[27.794249351000076,-18.973376642999938,0],[27.793987444000038,-18.973011411999948,0],[27.784997074000046,-18.969436682999969,0],[27.771189495000044,-18.959231202999945,0],[27.770438437000053,-18.957808387999933,0],[27.761752393000052,-18.948147431999928,0],[27.760991484000044,-18.946709393999981,0],[27.760393500000077,-18.946273661999953,0],[27.752814973000056,-18.939333290999969,0],[27.750343364000059,-18.937882950999949,0],[27.742681528000048,-18.935141471999941,0],[27.740675091000071,-18.941283060999979,0],[27.741651736000051,-18.949870102999967,0],[27.748119272000054,-18.953326966999953,0],[27.753157952000038,-18.959053409999967,0],[27.758129972000063,-18.970734273999938,0],[27.757913855000027,-18.981299932999946,0],[27.739385689000073,-19.011778257999936,0],[27.73326473700007,-19.013690223999959,0],[27.722293351000076,-19.016301813999974,0],[27.715430453000067,-19.017567299999939,0],[27.708170892000055,-19.019890174999944,0],[27.702373880000039,-19.026080203999982,0],[27.700673429000062,-19.047034325999959,0],[27.697548970000071,-19.053422897999951,0],[27.697046090000072,-19.053955865999967,0],[27.694319302000054,-19.064603655999974,0],[27.702746828000045,-19.082807401999958,0],[27.693276551000054,-19.090476398999954,0],[27.68832515400004,-19.091565636999974,0],[27.685880936000046,-19.10248443699993,0],[27.692488411000056,-19.107705353999961,0],[27.700734941000064,-19.119169480999972,0],[27.703402879000066,-19.13543961299996,0],[27.701797051000028,-19.152641614999936,0],[27.704943226000069,-19.176884700999949,0],[27.704836639000064,-19.177499270999931,0],[27.708797742000058,-19.192751352999949,0],[27.721277916000076,-19.218741064999961,0],[27.735821832000056,-19.242511218999937,0],[27.737642830000027,-19.244922119999956,0],[27.737894358000062,-19.245116829999972,0],[27.73832062200006,-19.248981367999932,0],[27.738517083000033,-19.25002819499997,0],[27.737447088000067,-19.252694695999935,0],[27.729408213000056,-19.253195368999968,0],[27.728275219000068,-19.251703545999931,0],[27.727993814000058,-19.251650949999942,0],[27.723358405000056,-19.249364257999957,0],[27.722682319000057,-19.24909553599997,0],[27.721498866000047,-19.248448079999946,0],[27.720229144000029,-19.247502053999938,0],[27.714944714000069,-19.246096918999967,0],[27.71083227400004,-19.246212406999973,0],[27.710330659000078,-19.246552468999937,0],[27.706633572000044,-19.248441478999951,0],[27.705802159000029,-19.248983149999958,0],[27.701733714000056,-19.251460054999939,0],[27.701243071000079,-19.251789857999938,0],[27.699040699000079,-19.25527055799995,0],[27.698809044000029,-19.25578210599997,0],[27.698577818000047,-19.256292719999976,0],[27.69685043100003,-19.260493285999928,0],[27.699679696000032,-19.269215737999957,0],[27.699854422000044,-19.271364151999933,0],[27.700089622000064,-19.274683557999936,0],[27.697793475000026,-19.279680034999956,0],[27.692888792000076,-19.286805352999977,0],[27.692213160000051,-19.286717301999943,0],[27.691753471000027,-19.28654445799998,0],[27.691716303000078,-19.286537684999928,0],[27.690937903000076,-19.285904208999966,0],[27.690582537000068,-19.285595384999965,0],[27.689561414000025,-19.28512243299997,0],[27.689495590000035,-19.285068883999941,0],[27.688967259000037,-19.284639522999953,0],[27.688901018000024,-19.284585703999937,0],[27.688750906000053,-19.284558040999968,0],[27.688254546000053,-19.284508097999947,0],[27.687987431000067,-19.284665058999963,0],[27.687887347000071,-19.284770446999971,0],[27.687484864000055,-19.285024243999942,0],[27.687009451000051,-19.285266818999958,0],[27.686630940000043,-19.285615156999938,0],[27.686577988000067,-19.28568740399993,0],[27.686195661000056,-19.286255686999937,0],[27.68614361300007,-19.286324911999941,0],[27.685677659000078,-19.28694730199993,0],[27.685406598000043,-19.287170313999979,0],[27.685406253000053,-19.287366206999934,0],[27.685391200000026,-19.287636855999949,0],[27.685339679000037,-19.288283664999938,0],[27.685332420000066,-19.288320594999959,0],[27.68530342300005,-19.288468089999981,0],[27.685301914000036,-19.289614245999928,0],[27.685420583000052,-19.291078617999972,0],[27.685036964000062,-19.293400344999952,0],[27.687485625000079,-19.296009125999944,0],[27.687589832000072,-19.295551634999981,0],[27.687216204000038,-19.296901978999927,0],[27.686913851000043,-19.297329465999951,0],[27.686473720000038,-19.298667612999964,0],[27.685835116000078,-19.298816192999936,0],[27.685419499000034,-19.29887225899995,0],[27.684989844000029,-19.298992539999972,0],[27.683832236000057,-19.299376765999966,0],[27.683454543000039,-19.299572631999979,0],[27.682558595000046,-19.30000360799994,0],[27.682338651000066,-19.300094725999941,0],[27.68168815000007,-19.300637566999967,0],[27.681596949000038,-19.300752381999928,0],[27.681007983000029,-19.301638480999941,0],[27.68091706000007,-19.301753520999966,0],[27.681013877000055,-19.303154655999947,0],[27.681253089000052,-19.304494966999982,0],[27.681186540000056,-19.304803908999929,0],[27.681283320000034,-19.307381893999946,0],[27.68110478400007,-19.307602342999928,0],[27.680815608000046,-19.31009179299997,0],[27.682782028000076,-19.315748164999945,0],[27.683074463000025,-19.316259883999976,0],[27.683111861000043,-19.316397010999935,0],[27.68289571300005,-19.317074167999976,0],[27.68235857600007,-19.317687183999965,0],[27.682123974000035,-19.31783846299993,0],[27.68160146300005,-19.318389039999943,0],[27.681120551000049,-19.318752296999946,0],[27.680822715000033,-19.31889089799995,0],[27.68075830500004,-19.318879091999975,0],[27.679585190000068,-19.319047959999978,0],[27.679175359000055,-19.318776327999956,0],[27.679111111000054,-19.318764175999945,0],[27.677904260000048,-19.317827329999943,0],[27.677801525000064,-19.31767862099997,0],[27.67754435300003,-19.31730693399993,0],[27.677170911000076,-19.31684766199993,0],[27.677003088000049,-19.316687830999967,0],[27.67671903300004,-19.316441352999959,0],[27.675749443000029,-19.315615426999955,0],[27.675335411000049,-19.31534510399996,0],[27.675037738000071,-19.315160911999953,0],[27.674817257000029,-19.314925535999976,0],[27.67470060100004,-19.314838216999931,0],[27.673974798000074,-19.31443935599998,0],[27.673250620000033,-19.314369058999944,0],[27.673108820000039,-19.314407975999927,0],[27.671536030000027,-19.314572302999977,0],[27.670860898000058,-19.315289652999979,0],[27.670474249000051,-19.31625356099994,0],[27.67029761200007,-19.316479674999982,0],[27.66977444500003,-19.317480691999947,0],[27.669586593000076,-19.317766566999978,0],[27.669303009000032,-19.318543786999953,0],[27.669255172000078,-19.318789576999961,0],[27.669041380000067,-19.319894888999954,0],[27.66935238700006,-19.321033328999931,0],[27.669893548000061,-19.322337265999977,0],[27.670398740000053,-19.323124365999945,0],[27.670466015000045,-19.32345046599994,0],[27.671019563000073,-19.323909484999945,0],[27.671811281000032,-19.323537657999964,0],[27.672086333000038,-19.323356307999973,0],[27.672614621000037,-19.323104626999964,0],[27.672683506000055,-19.323059215999933,0],[27.673015434000035,-19.322598614999947,0],[27.673118054000042,-19.322384369999952,0],[27.67335758400003,-19.321789322999962,0],[27.673552381000036,-19.321418870999935,0],[27.674556860000052,-19.320899986999962,0],[27.675331627000048,-19.320340269999974,0],[27.676283760000047,-19.320982529999981,0],[27.676341760000071,-19.32099311199994,0],[27.676829290000057,-19.321547947999932,0],[27.676980091000075,-19.321691867999959,0],[27.677455357000042,-19.32230298199994,0],[27.677640009000072,-19.323153571999967,0],[27.677651381000032,-19.323388510999962,0],[27.677766751000036,-19.32370089799997,0],[27.677778072000024,-19.323935481999968,0],[27.677835539000057,-19.324236611999936,0],[27.677776522000045,-19.325097858999982,0],[27.677753284000062,-19.32520960599993,0],[27.677902151000069,-19.325933008999982,0],[27.677290434000042,-19.327148421999937,0],[27.676164834000076,-19.328262432999963,0],[27.675444167000023,-19.329161004999946,0],[27.674884415000065,-19.329571973999975,0],[27.674610523000069,-19.329749667999977,0],[27.673469228000044,-19.330105709999941,0],[27.672440659000074,-19.329915572999937,0],[27.671983436000062,-19.32983016299994,0],[27.671776828000077,-19.329677729999958,0],[27.671673587000043,-19.329601808999939,0],[27.670779232000029,-19.329038790999959,0],[27.669753846000049,-19.329134228999976,0],[27.669050151000079,-19.330943106999939,0],[27.66743794100006,-19.333610134999958,0],[27.667292450000048,-19.33526577899994,0],[27.667861440000024,-19.335194864999949,0],[27.669270338000047,-19.335110418999932,0],[27.670870875000048,-19.334962755999982,0],[27.671313394000038,-19.334600799999976,0],[27.67170453500006,-19.334495483999945,0],[27.672308717000078,-19.334251811999934,0],[27.673342222000031,-19.33417645399993,0],[27.675304632000064,-19.33409766099993,0],[27.676665564000075,-19.335152812999979,0],[27.677041870000039,-19.335578888999976,0],[27.677650780000079,-19.336228843999947,0],[27.677919864000046,-19.336724157999981,0],[27.678152253000064,-19.336944888999938,0],[27.67820867100005,-19.338014917999942,0],[27.678424498000027,-19.338762909999957,0],[27.678550008000059,-19.339051430999973,0],[27.678749049000032,-19.340327049999928,0],[27.678767738000033,-19.340683240999965,0],[27.678432882000038,-19.341849145999959,0],[27.678362709000055,-19.342190423999966,0],[27.677443210000035,-19.343515673999946,0],[27.676682347000053,-19.344077897999966,0],[27.674129391000065,-19.344388925999965,0],[27.671483099000056,-19.343371529999956,0],[27.671233686000051,-19.343236586999978,0],[27.669318520000047,-19.341292543999941,0],[27.668141942000034,-19.34072034299993,0],[27.667981093000037,-19.340602198999932,0],[27.667765187000043,-19.340297581999948,0],[27.666910709000035,-19.339962849999949,0],[27.666661199000032,-19.339828598999929,0],[27.665640521000057,-19.338933378999968,0],[27.665568672000063,-19.338832129999957,0],[27.665010230000064,-19.337936543999945,0],[27.663261211000076,-19.335580439999944,0],[27.662484250000034,-19.33481154499998,0],[27.661525046000065,-19.335963484999979,0],[27.659427266000023,-19.338218939999933,0],[27.660260699000048,-19.34172869799994,0],[27.661706482000056,-19.343762110999933,0],[27.662319115000059,-19.34440555499998,0],[27.664341859000046,-19.347250871999961,0],[27.665998544000047,-19.349144816999967,0],[27.668504417000065,-19.350490509999929,0],[27.670167140000046,-19.353265252999961,0],[27.670311602000027,-19.353468367999938,0],[27.669966646000034,-19.355162745999962,0],[27.669298474000072,-19.356619921999936,0],[27.667667197000071,-19.358247324999979,0],[27.666600802000062,-19.358925933999956,0],[27.666029819000073,-19.358994326999948,0],[27.664034081000068,-19.359673683999972,0],[27.661033714000041,-19.358938228999932,0],[27.658892956000045,-19.358539604999976,0],[27.658534992000057,-19.358472287999973,0],[27.656352861000073,-19.358237681999981,0],[27.656906655000057,-19.360099145999982,0],[27.656386615000031,-19.361757967999949,0],[27.657791264000025,-19.363949253999976,0],[27.659266566000042,-19.364929242999949,0],[27.661051960000066,-19.365263144999972,0],[27.661409022000043,-19.365329919999965,0],[27.663194374000057,-19.365663802999961,0],[27.663873902000034,-19.365965836999976,0],[27.664918410000041,-19.367214485999966,0],[27.664510154000027,-19.370117646999972,0],[27.663315129000068,-19.372346765999964,0],[27.663179875000026,-19.373022840999965,0],[27.662909446000072,-19.374374546999945,0],[27.663145046000068,-19.376870012999973,0],[27.66482873700005,-19.377710561999947,0],[27.671559456000068,-19.377394538999965,0],[27.673051180000073,-19.377322111999945,0],[27.676964830000031,-19.37717676799997,0],[27.678968902000065,-19.379125301999977,0],[27.680254262000062,-19.38006444499996,0],[27.681048356000076,-19.381612928999971,0],[27.68126720500004,-19.382353752999961,0],[27.682026559000064,-19.38406991599993,0],[27.683313683000051,-19.38500960999994,0],[27.684881955000037,-19.385477054999967,0],[27.686522505000028,-19.385609369999941,0],[27.687304221000034,-19.385405551999952,0],[27.688263176000078,-19.385234285999957,0],[27.689896154000053,-19.384489495999958,0],[27.689865865000058,-19.380734691999976,0],[27.690030038000032,-19.379950187999953,0],[27.690909654000052,-19.377876698999955,0],[27.692321291000042,-19.37732525499996,0],[27.693483450000031,-19.376930870999956,0],[27.694810369000038,-19.376770245999978,0],[27.695266795000066,-19.376651567999943,0],[27.69617964400004,-19.376414195999928,0],[27.698384556000065,-19.376215687999945,0],[27.699008263000053,-19.37633217399997,0],[27.70149550800005,-19.378031577999934,0],[27.70198438500006,-19.379746800999953,0],[27.702114800000061,-19.380180405999965,0],[27.702469078000036,-19.382695834999936,0],[27.70000552700003,-19.387116695999964,0],[27.699671507000062,-19.38766465599997,0],[27.697670171000027,-19.388918891999936,0],[27.697121748000029,-19.389425831999972,0],[27.694755628000053,-19.390410353999982,0],[27.694807859000036,-19.393273078999982,0],[27.697139772000071,-19.394523459999959,0],[27.699420079000049,-19.393929827999955,0],[27.701326965000078,-19.39306277999998,0],[27.703779723000025,-19.391899657999943,0],[27.706796010000062,-19.392061128999956,0],[27.710591413000031,-19.393373696999959,0],[27.715821688000062,-19.395266248999974,0],[27.727700898000023,-19.400039453999966,0],[27.730029997000031,-19.403679495999938,0],[27.728486169000064,-19.407864601999961,0],[27.726105539000059,-19.407732033999935,0],[27.724127309000039,-19.407357191999949,0],[27.72162097000006,-19.406244722999929,0],[27.719717836000029,-19.405568100999972,0],[27.718879514000037,-19.407969204999972,0],[27.717857795000043,-19.412892787999965,0],[27.71695586900006,-19.415600934999929,0],[27.715790854000034,-19.41794008599993,0],[27.717886338000028,-19.419290043999979,0],[27.722006664000048,-19.422295555999938,0],[27.723827882000023,-19.423273278999943,0],[27.726639787000067,-19.42603384399996,0],[27.727081828000053,-19.43059024799993,0],[27.723448985000061,-19.433425916999965,0],[27.722730254000055,-19.433611294999935,0],[27.717103616000031,-19.432881777999967,0],[27.717375296000057,-19.434848595999938,0],[27.718963913000039,-19.440254138999933,0],[27.719689925000068,-19.443263318999982,0],[27.725004527000067,-19.451915401999941,0],[27.72645331700005,-19.454738037999959,0],[27.724167824000062,-19.457507484999951,0],[27.721615632000066,-19.459909660999926,0],[27.722357928000065,-19.464514745999963,0],[27.726298960000065,-19.471630379999965,0],[27.728258679000078,-19.471993751999946,0],[27.73178716700005,-19.476163053999983,0],[27.733941263000077,-19.47880018799998,0],[27.737351010000054,-19.481982603999938,0],[27.737546391000024,-19.48265829099995,0],[27.742241286000024,-19.486088743999971,0],[27.747323204000054,-19.486077373999933,0],[27.753469831000075,-19.492325190999964,0],[27.754904529000044,-19.493551079999975,0],[27.757196279000027,-19.497168095999939,0],[27.762538041000028,-19.495925921999969,0],[27.770229411000059,-19.496397305999949,0],[27.773173025000062,-19.500134688999935,0],[27.779693813000051,-19.502944764999938,0],[27.789179000000047,-19.493218383999931,0],[27.796537447000048,-19.493633642999953,0],[27.799399892000054,-19.491289994999931,0],[27.805518099000039,-19.489555159999952,0],[27.812170127000059,-19.488539119999928,0],[27.816604023000025,-19.493208307999964,0],[28.094753118000028,-19.285071482999967,0],[28.196452912000041,-19.200822524999978,0]]]},"properties":{"OID":1,"Name":"Untitled Polygon","FolderPath":"2010.kml/Temporary Places","SymbolID":0,"AltMode":0,"Base":0,"Clamped":-1,"Extruded":0,"Snippet":"","PopupInfo":"","Shape_Length":2.0573871448750136,"Shape_Area":0.14795211652005172}},{"type":"Feature","id":2,"geometry":{"type":"Polygon","coordinates":[[[28.42611607300006,-19.157728057999975,0],[28.433615338000038,-19.159077744999934,0],[28.436217384000031,-19.080010792999929,0],[28.333866380000075,-19.055282596999973,0],[28.330072655000038,-19.054597559999934,0],[28.287322465000045,-19.045636854999941,0],[28.276950261000025,-19.04504501699995,0],[28.249429436000071,-19.045100653999953,0],[28.235297363000029,-19.043787917999964,0],[28.184551966000072,-19.035794375999956,0],[28.182026477000079,-19.03533456699995,0],[28.172496755000054,-19.037372458999982,0],[28.138350949000028,-19.038707957999975,0],[28.116690032000065,-19.035993452999946,0],[28.098167312000044,-19.037612880999973,0],[28.093521915000053,-19.041762557999959,0],[28.079860401000076,-19.04550373099994,0],[28.072103871000024,-19.045336610999982,0],[28.050522819000037,-19.042646887999979,0],[28.041720312000052,-19.041038244999982,0],[28.001469273000055,-19.033671556999934,0],[27.990440162000027,-19.021648687999971,0],[27.98413221800007,-19.020487634999938,0],[27.951869164000072,-19.010776439999972,0],[27.941763230000049,-19.017699612999934,0],[27.937803989000031,-19.018225332999975,0],[27.924840570000072,-19.018341956999961,0],[27.914747240000054,-19.016478398999936,0],[27.908806856000069,-19.012886239999943,0],[27.891493838000031,-19.007189751999931,0],[27.883736088000035,-19.00700618299993,0],[27.867162936000057,-19.005201454999963,0],[27.905337609000071,-19.027189464999935,0],[27.939143168000044,-19.050745654999957,0],[27.967682113000023,-19.065850072999979,0],[27.968740264000076,-19.067275941999981,0],[27.987603921000073,-19.085459924999952,0],[28.01444777100005,-19.101363262999939,0],[28.033176652000066,-19.112112316999969,0],[28.036504630000024,-19.115159229999961,0],[28.043777614000078,-19.11770919099996,0],[28.05333973300003,-19.121896298999957,0],[28.061853684000027,-19.124670683999966,0],[28.06911339100003,-19.127211823999971,0],[28.077816732000031,-19.128796332999968,0],[28.096459636000077,-19.132185012999969,0],[28.107567497000048,-19.120808314999977,0],[28.121252639000033,-19.109888271999978,0],[28.143144151000058,-19.110205224999959,0],[28.163892477000047,-19.129860973999939,0],[28.183044328000051,-19.130907091999973,0],[28.209522783000068,-19.140606507999962,0],[28.210533304000023,-19.142007325999941,0],[28.220256523000046,-19.144984982999972,0],[28.258785270000033,-19.139743601999953,0],[28.268489963000036,-19.136609735999969,0],[28.273971060000065,-19.13515383999993,0],[28.289687158000049,-19.134330974999955,0],[28.291934208000043,-19.135966825999958,0],[28.42611607300006,-19.157728057999975,0]]]},"properties":{"OID":2,"Name":"Untitled Polygon","FolderPath":"2010.kml/Temporary Places","SymbolID":0,"AltMode":0,"Base":0,"Clamped":-1,"Extruded":0,"Snippet":"","PopupInfo":"","Shape_Length":1.2929831835199359,"Shape_Area":0.041406712830127111}},{"type":"Feature","id":3,"geometry":{"type":"Polygon","coordinates":[[[27.98761507100005,-18.966529043999969,0],[27.980263561000072,-18.959975491999955,0],[27.966774104000024,-18.956266476999929,0],[27.957670287000042,-18.957413651999957,0],[27.955648613000051,-18.957040282999969,0],[27.954270203000078,-18.957586333999927,0],[27.940126562000046,-18.956970195999929,0],[27.939722675000041,-18.95689544499993,0],[27.93721974400006,-18.95683170999996,0],[27.924466677000055,-18.955663634999951,0],[27.914903022000033,-18.957484510999961,0],[27.910468451000042,-18.956664554999975,0],[27.90925900700006,-18.956440921999956,0],[27.90405137700003,-18.95746351899993,0],[27.899547908000045,-18.957028517999959,0],[27.897603717000038,-18.956268770999941,0],[27.891695632000051,-18.954373954999937,0],[27.889678682000067,-18.953999623999948,0],[27.887731530000053,-18.953239810999946,0],[27.875422007000054,-18.949758031999977,0],[27.87495040500005,-18.950069448999955,0],[27.868691768000076,-18.950103123999952,0],[27.865811318000056,-18.94997293199998,0],[27.854155416000026,-18.950207722999949,0],[27.852475983000033,-18.950291621999952,0],[27.849922690000028,-18.950608089999946,0],[27.848305162000031,-18.950305800999956,0],[27.837330055000052,-18.94865520999997,0],[27.832784944000025,-18.948607766999942,0],[27.830596098000058,-18.949391623999929,0],[27.828527629000064,-18.949404882999943,0],[27.822728887000039,-18.949518782999974,0],[27.819916397000043,-18.94899784699993,0],[27.819112712000049,-18.948848952999981,0],[27.809772902000077,-18.950266520999946,0],[27.801680044000079,-18.948755252999945,0],[27.792169723000029,-18.948559518999957,0],[27.790936934000058,-18.951477995999937,0],[27.798366101000056,-18.954429328999936,0],[27.799173839000048,-18.954579877999947,0],[27.802459677000058,-18.954800088999946,0],[27.809030876000065,-18.955240277999962,0],[27.81104840200004,-18.955616329999941,0],[27.813405085000056,-18.95644683699993,0],[27.819704025000078,-18.958399268999926,0],[27.825993494000045,-18.960348384999975,0],[27.840218449000076,-18.964157892999935,0],[27.84181860800004,-18.964454197999942,0],[27.85108475100003,-18.963433848999955,0],[27.855022671000029,-18.962204927999949,0],[27.856225831000074,-18.962428049999971,0],[27.861361232000036,-18.96611962399993,0],[27.862290148000056,-18.96785493699997,0],[27.86635633700007,-18.968216415999962,0],[27.870644622000043,-18.96509627599994,0],[27.875920135000058,-18.965679909999949,0],[27.877452110000036,-18.966355135999947,0],[27.879786280000076,-18.967179281999961,0],[27.882119991000025,-18.96800331999998,0],[27.886930315000029,-18.968895352999937,0],[27.888934597000059,-18.969267233999972,0],[27.899825699000075,-18.970896015999926,0],[27.90462939400004,-18.97178523599996,0],[27.910806510000043,-18.97410001999998,0],[27.917528360000063,-18.975729962999935,0],[27.918500918000063,-18.977082731999928,0],[27.921394129000078,-18.979178915999967,0],[27.925006024000027,-18.981795660999978,0],[27.927891826000064,-18.98388646899997,0],[27.931262128000071,-18.987618432999966,0],[27.936827426000036,-18.984757320999961,0],[27.94048777200004,-18.979182866999963,0],[27.94400709100006,-18.976303336999933,0],[27.953069149000044,-18.974834120999958,0],[27.965913224000076,-18.97719959899996,0],[27.965829461000055,-18.977577965999956,0],[27.98761507100005,-18.966529043999969,0]]]},"properties":{"OID":3,"Name":"Untitled Polygon","FolderPath":"2010.kml/Temporary Places","SymbolID":0,"AltMode":0,"Base":0,"Clamped":-1,"Extruded":0,"Snippet":"","PopupInfo":"","Shape_Length":0.42032560599352731,"Shape_Area":0.0029587063521779727}},{"type":"Feature","id":4,"geometry":{"type":"Polygon","coordinates":[[[28.056665321000025,-18.90944620099998,0],[28.044714352000028,-18.895583042999931,0],[28.038574192000056,-18.893542456999967,0],[28.017479982000054,-18.882390658999952,0],[28.014227890000029,-18.879985523999949,0],[27.990824167000028,-18.870238771999936,0],[27.98261502500003,-18.873260548999951,0],[27.961336266000046,-18.884695686999976,0],[27.94267301800005,-18.879466364999928,0],[27.939777441000047,-18.87983251199995,0],[27.93397008900007,-18.876059217999966,0],[27.941371375000074,-18.867492607999964,0],[27.941537587000028,-18.86208897399996,0],[27.939720002000058,-18.861753738999937,0],[27.933180830000026,-18.86145393399994,0],[27.914697634000049,-18.864377650999927,0],[27.912361376000035,-18.866654227999959,0],[27.906056487000058,-18.869995784999958,0],[27.902981071000056,-18.852250696999931,0],[27.883316297000079,-18.84678702399998,0],[27.874220894000075,-18.845100958999979,0],[27.84586061400006,-18.840746858999978,0],[27.842222220000053,-18.840070664999928,0],[27.83174037200007,-18.840851313999963,0],[27.793887987000062,-18.832025370999929,0],[27.783275373000038,-18.822775794999927,0],[27.777821159000041,-18.821770381999954,0],[27.774332433000041,-18.820213999999964,0],[27.761095172000068,-18.814998592999927,0],[27.75199402100003,-18.813315453999962,0],[27.728606727000056,-18.80715031699998,0],[27.712223321000067,-18.797675297999945,0],[27.707803201000047,-18.795939899999951,0],[27.698958843000071,-18.792467100999943,0],[27.682790276000048,-18.78761942999995,0],[27.677299431000051,-18.786589126999957,0],[27.656884628000057,-18.77816044399998,0],[27.654145287000063,-18.777651644999935,0],[27.639646265000067,-18.774029463999966,0],[27.633254346000058,-18.772841608999954,0],[27.61115404800006,-18.762224424999943,0],[27.605234203000066,-18.754148548999979,0],[27.591278587000033,-18.748137404999966,0],[27.584853617000078,-18.74524480599996,0],[27.552889901000071,-18.732460350999929,0],[27.549050331000046,-18.731180187999939,0],[27.542492047000053,-18.728820126999949,0],[27.531908503000068,-18.722855326999934,0],[27.52844976800003,-18.719357772999956,0],[27.518965656000034,-18.71359014899997,0],[27.516239252000048,-18.712512551999964,0],[27.508706638000035,-18.70881503399994,0],[27.503404642000078,-18.705504262999966,0],[27.500574100000051,-18.704973264999978,0],[27.497177661000023,-18.704336014999967,0],[27.491045187000054,-18.702614382999968,0],[27.484894833000055,-18.700872036999954,0],[27.482641749000038,-18.700460337999971,0],[27.472711896000078,-18.696868278999943,0],[27.467197248000048,-18.694660064999937,0],[27.465000447000023,-18.69365718399996,0],[27.459423103000063,-18.692037035999931,0],[27.449484978000044,-18.688450799999941,0],[27.445844807000071,-18.685457443999951,0],[27.436662292000051,-18.676833654999939,0],[27.432973441000058,-18.674437823999938,0],[27.427759263000041,-18.669967529999951,0],[27.420452011000066,-18.663317357999972,0],[27.419619221000062,-18.660820443999967,0],[27.417489284000055,-18.659247800999935,0],[27.411159767000072,-18.649209284999927,0],[27.416349869000044,-18.704467085999966,0],[27.42683499900005,-18.70816107099995,0],[27.426624855000057,-18.728310363999981,0],[27.462486487000035,-18.742353313999956,0],[27.463604713000052,-18.742565015999958,0],[27.465751463000061,-18.743526226999961,0],[27.485070178000058,-18.752183276999972,0],[27.486188668000068,-18.752396211999951,0],[27.491657471000053,-18.753973431999952,0],[27.525531053000066,-18.764219013999934,0],[27.528115061000051,-18.765806248999979,0],[27.530913424000062,-18.766343830999972,0],[27.571358169000064,-18.77233208399997,0],[27.57525875500005,-18.773064800999975,0],[27.577594888000078,-18.77295313999997,0],[27.610927501000049,-18.78255074499998,0],[27.612369184000045,-18.786682239999948,0],[27.613926126000024,-18.787523320999981,0],[27.617148111000063,-18.788683602999981,0],[27.629814617000079,-18.794345266999983,0],[27.633464091000064,-18.796140295999976,0],[27.659163177000039,-18.805351790999964,0],[27.666449316000069,-18.808904372999962,0],[27.667711479000047,-18.813498692999929,0],[27.668775513000071,-18.816416537999942,0],[27.669165746000033,-18.819746102999943,0],[27.671280466000042,-18.825559365999936,0],[27.670992793000039,-18.829286373999935,0],[27.676224018000028,-18.838880866999943,0],[27.678251983000052,-18.84247944699996,0],[27.679728806000071,-18.845968596999967,0],[27.685339276000036,-18.851295313999969,0],[27.686985049000043,-18.851604336999969,0],[27.69964880200007,-18.856113788999949,0],[27.708341906000044,-18.860406833999946,0],[27.710532340000043,-18.860817762999943,0],[27.716634113000055,-18.859300257999962,0],[27.747707121000076,-18.856469406999963,0],[27.767221146000054,-18.860887101999936,0],[27.771157259000063,-18.861622893999936,0],[27.803361748000043,-18.864562527999965,0],[27.828274478000026,-18.863817946999973,0],[27.834842065000032,-18.867354770999953,0],[27.832429245000071,-18.873829461999946,0],[27.830133313000033,-18.876472344999968,0],[27.823693523000031,-18.885987820999958,0],[27.820193791000065,-18.88686165799993,0],[27.814166098000044,-18.888025002999939,0],[27.792899438000063,-18.887863397999979,0],[27.788023373000044,-18.887713665999968,0],[27.752831607000076,-18.887976142999946,0],[27.748589528000025,-18.888700301999961,0],[27.744350021000059,-18.889423938999983,0],[27.724026743000024,-18.885625149999953,0],[27.72260118500003,-18.88838917399994,0],[27.718793754000046,-18.898254626999972,0],[27.729406519000065,-18.897971265999956,0],[27.731746546000068,-18.898408604999929,0],[27.77902253600007,-18.898175418999926,0],[27.782149846000038,-18.898759775999963,0],[27.789186573000052,-18.900074405999931,0],[27.813965644000064,-18.902430936999963,0],[27.807184439000025,-18.910243295999976,0],[27.811362239000061,-18.920073109999976,0],[27.825503898000079,-18.918948973999932,0],[27.841148897000039,-18.915073996999979,0],[27.845997271000044,-18.905374406999954,0],[27.848150876000034,-18.896651058999964,0],[27.85841171800007,-18.911481868999942,0],[27.878869191000035,-18.908464532999972,0],[27.895024464000073,-18.900046394999947,0],[27.913286629000027,-18.899623972999962,0],[27.927256635000049,-18.89992661499997,0],[27.927462283000068,-18.902260892999948,0],[27.930265405000057,-18.916512845999932,0],[27.966316213000027,-18.911776866999958,0],[27.969273564000048,-18.913090705999934,0],[27.975584560000073,-18.914262909999934,0],[28.004989417000047,-18.918956723999941,0],[28.032507100000032,-18.920999420999976,0],[28.054844888000048,-18.919002230999979,0],[28.056665321000025,-18.90944620099998,0]]]},"properties":{"OID":4,"Name":"Untitled Polygon","FolderPath":"2010.kml/Temporary Places","SymbolID":0,"AltMode":0,"Base":0,"Clamped":-1,"Extruded":0,"Snippet":"","PopupInfo":"","Shape_Length":1.8451744684210318,"Shape_Area":0.02895821239857525}},{"type":"Feature","id":5,"geometry":{"type":"Polygon","coordinates":[[[28.061854088000075,-18.629304435999927,0],[28.067942960000039,-18.611517290999927,0],[28.067221537000023,-18.601843341999938,0],[28.055191452000031,-18.595723549999946,0],[28.053332493000028,-18.600450943999931,0],[28.047209139000074,-18.608305821999977,0],[28.042321731000072,-18.609633977999977,0],[28.036504184000023,-18.608022938999966,0],[28.030278181000028,-18.605785556999933,0],[28.018702552000036,-18.598064432999934,0],[28.01711201300003,-18.593279153999958,0],[28.014817552000068,-18.591171509999981,0],[28.010084390000031,-18.587486772999966,0],[28.008593546000043,-18.586649560999945,0],[28.003168850000066,-18.583397156999979,0],[28.000038210000071,-18.584520202999954,0],[27.996228097000028,-18.588335706999942,0],[27.990673467000079,-18.599098553999966,0],[27.986498669000071,-18.604466095999953,0],[27.98461482700003,-18.605232507999972,0],[27.970085876000041,-18.604780471999959,0],[27.96577165900004,-18.603995052999949,0],[27.958632816000033,-18.603250902999946,0],[27.955270044000031,-18.603193961999978,0],[27.946399492000069,-18.602681717999928,0],[27.944786392000026,-18.602384159999929,0],[27.941560142000071,-18.601789005999933,0],[27.939284106000059,-18.601923693999936,0],[27.921096025000054,-18.590788698999972,0],[27.918099707000067,-18.589131006999935,0],[27.910024204000024,-18.582596652999939,0],[27.906775952000032,-18.58201328399997,0],[27.896330101000046,-18.578402659999938,0],[27.895013265000046,-18.579280849999975,0],[27.891426140000078,-18.580284292999977,0],[27.886473246000037,-18.584983071999943,0],[27.885393862000058,-18.584788395999965,0],[27.874158826000041,-18.584952054999974,0],[27.870929035000074,-18.584353921999934,0],[27.867160867000052,-18.583656003999977,0],[27.860291905000054,-18.579039123999962,0],[27.857281358000023,-18.577358357999969,0],[27.847477066000067,-18.573283311999944,0],[27.844779561000053,-18.572777654999982,0],[27.838735757000052,-18.57221508899994,0],[27.822354033000067,-18.573143185999982,0],[27.808856909000042,-18.567870933999927,0],[27.806160764000026,-18.567370303999951,0],[27.799111573000062,-18.563253821999979,0],[27.788805382000078,-18.564700519999974,0],[27.784640542000034,-18.566159307999953,0],[27.78038452800007,-18.568153279999933,0],[27.778672947000075,-18.568391236999958,0],[27.765346650000026,-18.571448049999958,0],[27.755182578000074,-18.578949234999982,0],[27.743304887000079,-18.577290825999967,0],[27.736084321000078,-18.577615828999967,0],[27.73332453200004,-18.577661561999946,0],[27.727263854000057,-18.577634762999935,0],[27.725030307000054,-18.577757303999931,0],[27.716644853000048,-18.578362122999977,0],[27.714338699000052,-18.579031967999981,0],[27.712034150000079,-18.57970126999993,0],[27.702620762000038,-18.580139231999965,0],[27.699788756000032,-18.580707410999935,0],[27.692341282000029,-18.584454677999929,0],[27.681257851000055,-18.585708618999945,0],[27.67748707800007,-18.585838753999951,0],[27.674523073000046,-18.586114122999959,0],[27.666466802000059,-18.584576268999967,0],[27.664712819000044,-18.585072822999962,0],[27.663101787000073,-18.58476651899997,0],[27.656592222000029,-18.583958784999936,0],[27.654511024000044,-18.583983107999927,0],[27.643780923000065,-18.583626405999951,0],[27.638288963000036,-18.589169396999978,0],[27.634010685000078,-18.589995755999951,0],[27.632339898000055,-18.590087833999974,0],[27.631073083000047,-18.59025967499997,0],[27.624207857000044,-18.589393038999958,0],[27.614538185000072,-18.587994286999958,0],[27.610532176000049,-18.587241713999958,0],[27.608529081000029,-18.586865388999968,0],[27.605724555000052,-18.586338458999933,0],[27.600736066000024,-18.586624387999962,0],[27.596213745000057,-18.586590950999948,0],[27.591407029000038,-18.588540292999937,0],[27.588301809000029,-18.589972836999948,0],[27.592101031000027,-18.591883591999931,0],[27.594713236000075,-18.593582969999943,0],[27.598301893000041,-18.597097466999969,0],[27.601060140000072,-18.600427167999953,0],[27.604667426000049,-18.603507514999933,0],[27.60607144100004,-18.604971356999954,0],[27.607597483000063,-18.605656164999971,0],[27.608726224000065,-18.606266791999929,0],[27.611107252000068,-18.606710387999954,0],[27.621838062000052,-18.611111673999972,0],[27.623759448000044,-18.61187234199997,0],[27.629850727000075,-18.614613976999976,0],[27.631241807000038,-18.616072281999948,0],[27.633558035000078,-18.619295387999955,0],[27.638437445000079,-18.624181808999936,0],[27.640014603000054,-18.626853457999971,0],[27.646266458000071,-18.623645848999956,0],[27.646468623000032,-18.622490649999975,0],[27.648734024000078,-18.618935225999962,0],[27.651784384000052,-18.617911883999966,0],[27.655165476000036,-18.617347352999957,0],[27.656145311000046,-18.618726996999953,0],[27.656798012000024,-18.619645972999933,0],[27.658102106000058,-18.62148209399993,0],[27.660237919000053,-18.625454239999954,0],[27.661141668000027,-18.62720754399993,0],[27.661861784000052,-18.627738915999942,0],[27.663554876000035,-18.629640485999971,0],[27.665245490000075,-18.631539485999951,0],[27.667649020000056,-18.633960426999977,0],[27.670657928000026,-18.635308223999971,0],[27.680928511000047,-18.639187886999935,0],[27.683684828000025,-18.639701913999943,0],[27.694618010000056,-18.640159738999955,0],[27.698228478000033,-18.638474315999929,0],[27.700419987000032,-18.635738188999937,0],[27.705448838000052,-18.629142513999966,0],[27.704318512000043,-18.622532193999973,0],[27.704630890000033,-18.620985178999945,0],[27.705486380000025,-18.614700714999969,0],[27.705873782000026,-18.61072782399998,0],[27.708578629000044,-18.60554639999998,0],[27.719890047000035,-18.599066155999935,0],[27.727272139000036,-18.601666793999982,0],[27.729264785000055,-18.604082715999937,0],[27.72998377600004,-18.604624955999952,0],[27.74205528400006,-18.610524430999931,0],[27.743251933000067,-18.618430289999935,0],[27.743138934000058,-18.620839435999983,0],[27.742430940000077,-18.62595474699998,0],[27.756777213000078,-18.62298594899994,0],[27.759831509000037,-18.622342523999976,0],[27.769742307000058,-18.620922386999951,0],[27.773990320000053,-18.624149796999973,0],[27.780047210000077,-18.628507882999941,0],[27.799688102000061,-18.624869521999926,0],[27.801594850000072,-18.625627355999939,0],[27.805810102000066,-18.627213866999966,0],[27.838165885000024,-18.633569445999967,0],[27.830789925000033,-18.639990869999963,0],[27.83093248800003,-18.646306559999971,0],[27.831380082000067,-18.649003903999983,0],[27.840372075000062,-18.652229578999936,0],[27.843490853000048,-18.652802251999958,0],[27.877970993000076,-18.649723431999973,0],[27.879574984000044,-18.636826486999951,0],[27.890418184000055,-18.637238555999943,0],[27.901020648000042,-18.640780018999976,0],[27.906127987000048,-18.640127427999971,0],[27.915303628000061,-18.632258021999974,0],[27.917303909000054,-18.628876964999961,0],[27.918532878000065,-18.624266464999948,0],[27.921068214000059,-18.620963838999955,0],[27.931500639000035,-18.621263788999954,0],[27.935723961000065,-18.622037915999954,0],[27.944364594000035,-18.623046084999942,0],[27.975026206000052,-18.623095348999982,0],[27.982499104000055,-18.626826652999966,0],[27.98638356500004,-18.632835077999971,0],[27.992969802000061,-18.63522155499993,0],[27.997554095000055,-18.638405096999975,0],[28.001844987000027,-18.642700290999983,0],[27.997984852000059,-18.650732472999948,0],[27.970297087000063,-18.642155727999977,0],[27.961164972000063,-18.640476228999944,0],[27.958306478000054,-18.639955328999974,0],[27.944945707000045,-18.640991399999962,0],[27.94039216300007,-18.640145219999965,0],[27.933867476000046,-18.640094612999974,0],[27.932907104000037,-18.641654820999975,0],[27.931471823000038,-18.647753223999928,0],[27.941822896000076,-18.649098686999935,0],[27.960008736000077,-18.652456593999943,0],[27.979099400000052,-18.661732798999935,0],[27.989905957000076,-18.668316490999928,0],[27.986946990000035,-18.672935050999968,0],[27.965596438000034,-18.670722594999972,0],[27.96236349000003,-18.671841596999968,0],[27.959115928000074,-18.672970464999935,0],[27.954780066000069,-18.67846992099993,0],[27.950823213000035,-18.67774875799995,0],[27.942663362000076,-18.677384601999961,0],[27.940277665000053,-18.677513083999941,0],[27.931696432000024,-18.676497874999939,0],[27.926497203000054,-18.676106512999979,0],[27.920605615000056,-18.676157211999964,0],[27.91328468100005,-18.674806825999951,0],[27.905341572000054,-18.671066357999962,0],[27.890315340000029,-18.664856932999953,0],[27.88975111700006,-18.664752697999972,0],[27.882293050000044,-18.663946989999943,0],[27.879913123000051,-18.664080177999949,0],[27.873143212000059,-18.662832418999926,0],[27.868633071000033,-18.661995454999953,0],[27.85641045400007,-18.664293577999956,0],[27.855611672000066,-18.665284677999978,0],[27.850991399000065,-18.664997821999975,0],[27.835779668000043,-18.66785846199997,0],[27.831620808000025,-18.668220085999963,0],[27.822299503000067,-18.668193918999975,0],[27.818258651000065,-18.668015925999953,0],[27.81422010700004,-18.667828188999977,0],[27.809512681000058,-18.668090718999963,0],[27.807160314000043,-18.668224380999959,0],[27.802565994000076,-18.667943865999973,0],[27.799201419000042,-18.667319758999952,0],[27.787008478000075,-18.667323869999962,0],[27.782319772000051,-18.667586210999957,0],[27.779520250000076,-18.667070214999967,0],[27.776057657000024,-18.666992573999948,0],[27.775497786000074,-18.666889130999948,0],[27.772137960000066,-18.666267329999982,0],[27.759356720000028,-18.663334174999932,0],[27.750952405000078,-18.661771484999974,0],[27.749270448000061,-18.661457044999963,0],[27.738054980000072,-18.659360110999955,0],[27.729728694000073,-18.667353273999936,0],[27.727767653000058,-18.672014019999949,0],[27.726835734000076,-18.67406862799993,0],[27.725912145000052,-18.676128116999962,0],[27.720246517000078,-18.678954972999975,0],[27.711998534000031,-18.68018878099997,0],[27.70875938000006,-18.679038164999952,0],[27.696744012000067,-18.671803036999961,0],[27.685311966000029,-18.675230708999948,0],[27.668918225000027,-18.669943975999956,0],[27.664616759000069,-18.668027822999932,0],[27.658971980000047,-18.671420606999959,0],[27.657390588000055,-18.67445031799997,0],[27.661336651000056,-18.678490159999967,0],[27.66384421600003,-18.680599665999978,0],[27.669707320000043,-18.683344811999973,0],[27.677788594000049,-18.686504140999944,0],[27.691270369000051,-18.69119477299995,0],[27.695503496000072,-18.693067606999932,0],[27.696692601000052,-18.69273775299996,0],[27.709583086000066,-18.697304567999936,0],[27.710602739000024,-18.698042892999979,0],[27.727500216000067,-18.70611573399998,0],[27.727959057000078,-18.706745913999953,0],[27.738661939000053,-18.710332749999964,0],[27.740317473000061,-18.710638084999971,0],[27.742882623000071,-18.712200465999956,0],[27.755579809000039,-18.717848347999961,0],[27.757442755000056,-18.723064587999943,0],[27.757239359000039,-18.724103784999954,0],[27.760816376000037,-18.72906547499997,0],[27.763257553000074,-18.731129482999961,0],[27.768108719000054,-18.732570615999975,0],[27.774937555000065,-18.735442578999937,0],[27.775936483000066,-18.736167016999957,0],[27.779235955000047,-18.736782347999963,0],[27.796940935000066,-18.742220737999958,0],[27.805438185000071,-18.750753342999928,0],[27.825592895000057,-18.757686772999932,0],[27.828217884000026,-18.758706485999937,0],[27.834338377000051,-18.761972793999973,0],[27.844926342000065,-18.768188496999983,0],[27.848525731000052,-18.769916170999977,0],[27.851797870000041,-18.770520307999959,0],[27.864461774000063,-18.772325293999927,0],[27.871307483000066,-18.764529526999979,0],[27.870281657000078,-18.758984905999966,0],[27.867684904000043,-18.755285639999954,0],[27.861803740000028,-18.74828569999994,0],[27.860178319000056,-18.745288414999948,0],[27.859308515000066,-18.744047260999935,0],[27.86229628500007,-18.730490519999933,0],[27.863863503000061,-18.728598345999956,0],[27.86703398800006,-18.722073344999956,0],[27.867267439000045,-18.721019141999932,0],[27.879331430000036,-18.711098981999953,0],[27.884164242000054,-18.707581413999947,0],[27.885836367000024,-18.707888153999932,0],[27.895972286000074,-18.704200456999956,0],[27.916329093000058,-18.701816317999942,0],[27.923146018000068,-18.702526225999975,0],[27.929087000000038,-18.706965345999947,0],[27.936695254000028,-18.711701369999957,0],[27.941926741000032,-18.716550144999928,0],[27.942224499000076,-18.717714108999928,0],[27.943891472000075,-18.732358284999975,0],[27.943926598000076,-18.734562973999971,0],[27.945551522000073,-18.74198944099993,0],[27.944768104000048,-18.745124089999933,0],[27.940125490000071,-18.752417384999944,0],[27.939104064000048,-18.756566441999951,0],[27.948192767000023,-18.761496001999944,0],[27.956134241000029,-18.75048686699995,0],[27.959848539000063,-18.738051361999965,0],[27.962610822000045,-18.724781378999978,0],[27.962877928000069,-18.723722950999957,0],[27.963946958000065,-18.719482399999947,0],[27.96568506400007,-18.712568507999947,0],[27.977749373000051,-18.699655476999965,0],[27.986182068000062,-18.701198678999958,0],[27.996745074000046,-18.708181919999959,0],[28.013289557000064,-18.714577298999927,0],[28.019094688000052,-18.708335378999948,0],[28.019449715000064,-18.693711859999951,0],[28.019464431000074,-18.691441595999947,0],[28.016959890000066,-18.683008107999967,0],[28.016972983000073,-18.680723547999946,0],[28.015011807000064,-18.674638295999955,0],[28.013615698000024,-18.668635020999943,0],[28.012062595000032,-18.665469581999957,0],[28.010802389000048,-18.658882867999978,0],[28.018547075000072,-18.652169632999971,0],[28.023731773000065,-18.64844927799993,0],[28.025597576000052,-18.648205472999962,0],[28.029206038000041,-18.645939286999976,0],[28.033571791000043,-18.640870849999942,0],[28.042231332000028,-18.628880240999933,0],[28.049460340000053,-18.620092903999932,0],[28.061854088000075,-18.629304435999927,0]]]},"properties":{"OID":5,"Name":"Untitled Polygon","FolderPath":"2010.kml/Temporary Places","SymbolID":0,"AltMode":0,"Base":0,"Clamped":-1,"Extruded":0,"Snippet":"","PopupInfo":"","Shape_Length":2.2830340310177903,"Shape_Area":0.039770018197643045}},{"type":"Feature","id":6,"geometry":{"type":"Polygon","coordinates":[[[28.101133033000053,-18.650183181999978,0],[28.114054573000033,-18.647681133999981,0],[28.121499588000063,-18.650116391999973,0],[28.125116685000023,-18.651854043999947,0],[28.127743308000049,-18.652871098999981,0],[28.139881303000038,-18.657225839999967,0],[28.150906386000031,-18.658688953999956,0],[28.163796169000079,-18.656711282999936,0],[28.181154819000028,-18.628766104999954,0],[28.187752660000058,-18.632717040999978,0],[28.190830792000042,-18.634374145999971,0],[28.19355990300005,-18.637613912999939,0],[28.199704307000047,-18.640919530999952,0],[28.201356159000056,-18.641218540999944,0],[28.213558205000027,-18.637938832999964,0],[28.225998830000037,-18.636330007999959,0],[28.235823550000077,-18.638654370999973,0],[28.240488312000025,-18.643345359999955,0],[28.241775060000066,-18.645224544999962,0],[28.244887721000055,-18.649080948999938,0],[28.24641500000007,-18.654819560999954,0],[28.248270519000073,-18.656777765999948,0],[28.250654891000067,-18.663731075999976,0],[28.255843679000066,-18.668460406999941,0],[28.26647306600006,-18.669316848999927,0],[28.271122494000053,-18.669069341999943,0],[28.277372729000035,-18.666940960999966,0],[28.283077011000046,-18.664710817999946,0],[28.287815202000047,-18.661756408999963,0],[28.290527030000078,-18.660065411999938,0],[28.292562911000061,-18.658795845999975,0],[28.301001747000043,-18.652651458999969,0],[28.302322601000071,-18.645168673999933,0],[28.293936220000035,-18.634782628999972,0],[28.276331085000038,-18.63103422699993,0],[28.269839999000055,-18.631528327999945,0],[28.241997135000076,-18.627041643999974,0],[28.221295846000032,-18.621626649999939,0],[28.202669593000053,-18.617150734999939,0],[28.190119786000025,-18.616545606999978,0],[28.179886403000069,-18.602413432999981,0],[28.177677082000059,-18.599208571999952,0],[28.173149864000038,-18.590498345999947,0],[28.161996087000034,-18.585631047999982,0],[28.15853381200003,-18.594020202999957,0],[28.155299469000056,-18.601326849999964,0],[28.155419703000064,-18.609155501999965,0],[28.154209635000029,-18.615043998999965,0],[28.148026455000036,-18.617238823999969,0],[28.125873881000075,-18.619285397999931,0],[28.101133033000053,-18.650183181999978,0]]]},"properties":{"OID":6,"Name":"Untitled Polygon","FolderPath":"2010.kml/Temporary Places","SymbolID":0,"AltMode":0,"Base":0,"Clamped":-1,"Extruded":0,"Snippet":"","PopupInfo":"","Shape_Length":0.51305722078392879,"Shape_Area":0.0058906925176710834}},{"type":"Feature","id":7,"geometry":{"type":"Polygon","coordinates":[[[27.746530226000061,-18.479048850999959,0],[27.746158463000029,-18.484713833999933,0],[27.747049660000073,-18.489996489999953,0],[27.753292404000035,-18.492845960999944,0],[27.754185311000072,-18.493386543999975,0],[27.760816874000056,-18.500244597999938,0],[27.761856309000052,-18.500864847999935,0],[27.762955042000044,-18.501067300999978,0],[27.76474356500006,-18.501182469999947,0],[27.767159703000061,-18.501627492999944,0],[27.773740082000074,-18.50283901399996,0],[27.775242490000039,-18.503329788999963,0],[27.776087085000029,-18.503699337999933,0],[27.777742861000036,-18.504646233999949,0],[27.779058408000026,-18.504888364999942,0],[27.781032558000049,-18.505251786999963,0],[27.782129786000041,-18.505453787999954,0],[27.783007497000028,-18.505615371999966,0],[27.784104570000068,-18.505817325999942,0],[27.784763097000052,-18.505938433999972,0],[27.787362580000035,-18.506631082999945,0],[27.789553487000035,-18.507034287999943,0],[27.790649189000078,-18.507235889999947,0],[27.79130593800005,-18.50735646499993,0],[27.792400053000051,-18.507557667999947,0],[27.793566330000033,-18.507344514999943,0],[27.796778567000047,-18.50707923899995,0],[27.798532516000023,-18.507401877999939,0],[27.799922084000059,-18.507229112999937,0],[27.800691709000034,-18.506727578999971,0],[27.803660242000035,-18.506630697999981,0],[27.804759024000077,-18.506833111999981,0],[27.808299257000044,-18.508556676999945,0],[27.809613734000038,-18.508798234999972,0],[27.81107096900007,-18.50949464699994,0],[27.815041320000034,-18.511294724999971,0],[27.816713950000064,-18.512029647999952,0],[27.823962571000038,-18.515494418999936,0],[27.82527495000005,-18.515735594999967,0],[27.826587193000023,-18.515976733999935,0],[27.833439569000063,-18.515742939999939,0],[27.834659937000026,-18.515326473999949,0],[27.835662331000037,-18.514869411999939,0],[27.840781661000051,-18.514311180999982,0],[27.842140760000063,-18.514346204999981,0],[27.843324445000064,-18.514134506999937,0],[27.844552575000023,-18.513716034999959,0],[27.845518410000068,-18.513463668999975,0],[27.847627396000064,-18.513205743999947,0],[27.848859201000039,-18.512786240999958,0],[27.850577075000047,-18.512239618999956,0],[27.852377880000063,-18.51343112099994,0],[27.854818328000079,-18.517957085999967,0],[27.855734369000061,-18.518980974999977,0],[27.856959008000047,-18.519633269999929,0],[27.858226372000047,-18.520079730999953,0],[27.860802703000047,-18.520766670999933,0],[27.862116215000071,-18.521007730999941,0],[27.863354009000034,-18.52059358899993,0],[27.86442670200006,-18.519933651999963,0],[27.868054792000066,-18.519097812999973,0],[27.869075859000077,-18.518640922999964,0],[27.870458178000035,-18.517604842999958,0],[27.872714813000073,-18.516728572999966,0],[27.873860285000035,-18.516723723999974,0],[27.87505423600004,-18.516512083999942,0],[27.880194437000057,-18.516158812999947,0],[27.880904888000032,-18.516072928999961,0],[27.887082312000075,-18.51525841299997,0],[27.887779643000044,-18.514300744999957,0],[27.888205792000065,-18.513509137999961,0],[27.889177765000056,-18.512380599999972,0],[27.893472039000073,-18.511858676999964,0],[27.893745817000024,-18.511690363999946,0],[27.894683598000029,-18.511643843999934,0],[27.897110121000026,-18.511213724999948,0],[27.898599392000051,-18.510829766999962,0],[27.899814614000036,-18.510614262999979,0],[27.900090154000054,-18.510445422999965,0],[27.903239917000064,-18.509045466999964,0],[27.904015167000068,-18.508747367999945,0],[27.912299067000049,-18.50739621799994,0],[27.913749821000067,-18.507218963999946,0],[27.914196182000069,-18.507300524999948,0],[27.918352853000044,-18.502282010999977,0],[27.915497944000037,-18.49974984399995,0],[27.908037251000053,-18.498610739999947,0],[27.897809869000071,-18.498297664999939,0],[27.89696921500007,-18.497919749999937,0],[27.89481943100003,-18.495285791999947,0],[27.89464877000006,-18.495030152999959,0],[27.894137281000042,-18.494262435999929,0],[27.892112742000052,-18.492988121999929,0],[27.88067533800006,-18.490879607999943,0],[27.877088762000028,-18.490215844999966,0],[27.875190662000023,-18.490317946999937,0],[27.874294071000065,-18.490152010999964,0],[27.872472669000047,-18.49094187399993,0],[27.870152300000029,-18.491866242999947,0],[27.868256580000036,-18.491970828999968,0],[27.867309161000037,-18.492023268999958,0],[27.863226344000054,-18.491501881999966,0],[27.855311518000065,-18.489371724999955,0],[27.841779170000052,-18.485087687999965,0],[27.840432992000046,-18.484840872999939,0],[27.839312563000078,-18.484628035999947,0],[27.838459767000074,-18.484240730999943,0],[27.836889212000074,-18.483945306999942,0],[27.830893657000047,-18.484871492999957,0],[27.830390656000077,-18.483878106999953,0],[27.829987921000054,-18.47995747799996,0],[27.829779600000052,-18.477422320999949,0],[27.828299680000043,-18.474192997999978,0],[27.823753254000053,-18.474718394999968,0],[27.810976527000037,-18.473032264999972,0],[27.807208604000039,-18.473248388999934,0],[27.802810735000037,-18.474485626999979,0],[27.792249584000047,-18.475258478999933,0],[27.791061676000027,-18.475496094999983,0],[27.786646705000067,-18.472646594999958,0],[27.760596633000034,-18.469690033999939,0],[27.746530226000061,-18.479048850999959,0]]]},"properties":{"OID":7,"Name":"Untitled Polygon","FolderPath":"2010.kml/Temporary Places","SymbolID":0,"AltMode":0,"Base":0,"Clamped":-1,"Extruded":0,"Snippet":"","PopupInfo":"","Shape_Length":0.38891247445248811,"Shape_Area":0.0046151513030195657}},{"type":"Feature","id":8,"geometry":{"type":"Polygon","coordinates":[[[27.76759917000004,-18.405411447999938,0],[27.766183071000057,-18.410137530999975,0],[27.763056885000026,-18.412879140999962,0],[27.760974514000054,-18.413151984999956,0],[27.750764749000041,-18.424712458999977,0],[27.751698899000075,-18.427490216999956,0],[27.754340680000041,-18.429919390999942,0],[27.755270087000042,-18.430413957999974,0],[27.75942830200006,-18.43183180799997,0],[27.764048347000028,-18.434289736999972,0],[27.76497775200005,-18.434784456999978,0],[27.769085404000066,-18.438445231999935,0],[27.779217583000047,-18.439978062999955,0],[27.780900644000042,-18.439965296999958,0],[27.782035916000041,-18.439205005999952,0],[27.785825763000048,-18.436664611999959,0],[27.78696547900006,-18.435901396999952,0],[27.78734309500004,-18.435644726999953,0],[27.78869403300007,-18.433613603999959,0],[27.793228597000052,-18.430868336999936,0],[27.794323065000071,-18.430417796999961,0],[27.797008399000049,-18.42862595899993,0],[27.799145922000037,-18.428037576999941,0],[27.801886233000062,-18.427886014999956,0],[27.803256688000033,-18.427810016999956,0],[27.811740616000066,-18.429694230999928,0],[27.817115495000053,-18.430027356999972,0],[27.819536538000079,-18.429819617999954,0],[27.820253574000049,-18.42962403699994,0],[27.831736286000023,-18.430085374999976,0],[27.833381992000056,-18.430387425999982,0],[27.839866721000078,-18.42862529699994,0],[27.844762168000045,-18.431493128999932,0],[27.849586184000032,-18.434679968999944,0],[27.854858395000065,-18.437281050999957,0],[27.857688749000033,-18.43845297799993,0],[27.862291200000072,-18.439296320999972,0],[27.873285472000077,-18.43737688799996,0],[27.875531934000037,-18.436472153999944,0],[27.882418914000027,-18.434755673999973,0],[27.878949428000055,-18.428504246999978,0],[27.878423921000035,-18.427745116999972,0],[27.874336177000032,-18.422677004999969,0],[27.87387601100005,-18.421592491999945,0],[27.873489532000065,-18.41851565199994,0],[27.873624980000045,-18.41787146799993,0],[27.880145105000054,-18.408303295999929,0],[27.882793260000028,-18.404032672999961,0],[27.884697243000062,-18.401649319999933,0],[27.885507415000063,-18.401117751999948,0],[27.887341553000056,-18.399067153999965,0],[27.888050891000034,-18.395771946999957,0],[27.885383163000029,-18.393555642999956,0],[27.881577697000068,-18.390084332999947,0],[27.876128695000034,-18.38770131299998,0],[27.86877895300006,-18.386014122999939,0],[27.859272958000076,-18.384609238999928,0],[27.856925108000041,-18.387622144999966,0],[27.843832733000056,-18.388672425999971,0],[27.833077520000074,-18.390505258999951,0],[27.820199815000024,-18.39087668999997,0],[27.812921270000061,-18.392944721999982,0],[27.80613113000004,-18.392389718999937,0],[27.801996272000054,-18.394327141999952,0],[27.798368731000039,-18.395332607999933,0],[27.792746320000049,-18.400005937999936,0],[27.765129221000052,-18.401624003999927,0],[27.76759917000004,-18.405411447999938,0]]]},"properties":{"OID":8,"Name":"Untitled Polygon","FolderPath":"2010.kml/Temporary Places","SymbolID":0,"AltMode":0,"Base":0,"Clamped":-1,"Extruded":0,"Snippet":"","PopupInfo":"","Shape_Length":0.35237132613648026,"Shape_Area":0.0049085689685740468}},{"type":"Feature","id":9,"geometry":{"type":"Polygon","coordinates":[[[27.562974808000035,-18.456841519999955,0],[27.55581588900003,-18.456058046999942,0],[27.55235986200006,-18.456795062999959,0],[27.551490917000024,-18.456882433999965,0],[27.549958166000067,-18.457230669999944,0],[27.549211620000051,-18.45733050399997,0],[27.545646390000059,-18.458773212999972,0],[27.545224321000035,-18.459065902999953,0],[27.542230711000059,-18.460231779999958,0],[27.539012931000059,-18.459631094999963,0],[27.537174099000026,-18.459287278999966,0],[27.536714334000067,-18.459203379999963,0],[27.536046991000035,-18.45895210599997,0],[27.53085561000006,-18.456001919999949,0],[27.530414196000038,-18.455799095999964,0],[27.528719839000075,-18.455234055999938,0],[27.526889532000041,-18.45477503799998,0],[27.52197934000003,-18.45584853899993,0],[27.523274602000072,-18.457434148999937,0],[27.523793169000044,-18.457896303999973,0],[27.527706503000047,-18.459232952999969,0],[27.528144851000036,-18.459437477999927,0],[27.529343779000044,-18.460028658999931,0],[27.535935958000039,-18.462712129999943,0],[27.536369021000041,-18.462915659999965,0],[27.537143258000071,-18.463181592999945,0],[27.541992090000065,-18.463722177999955,0],[27.542333656000039,-18.463785829999949,0],[27.54317902300005,-18.463702169999976,0],[27.544644832000074,-18.463491985999951,0],[27.545150837000051,-18.463344163999977,0],[27.546621841000047,-18.46313321699995,0],[27.546735988000023,-18.463154971999927,0],[27.547498467000025,-18.462932904999946,0],[27.549805105000075,-18.462750424999967,0],[27.551076875000035,-18.461888287999955,0],[27.551529412000036,-18.461482057999945,0],[27.552240801000039,-18.460999439999966,0],[27.555926567000029,-18.461689174999947,0],[27.556675167000037,-18.462076097999955,0],[27.557365266000033,-18.462206066999954,0],[27.559714004000057,-18.463391616999957,0],[27.561748372000068,-18.463898454999935,0],[27.56251992600005,-18.464167432999943,0],[27.564081596000051,-18.465077330999975,0],[27.568550502000051,-18.471735897999963,0],[27.568948871000032,-18.472406071999956,0],[27.568813464000073,-18.474502805999975,0],[27.56879596400006,-18.474967705999973,0],[27.568763814000079,-18.475078449999955,0],[27.569266776000063,-18.477375537999933,0],[27.569534530000055,-18.477656439999976,0],[27.568253606000042,-18.481184759999962,0],[27.565453562000073,-18.48289888599993,0],[27.562454451000065,-18.482997100999967,0],[27.559125455000071,-18.483480497999949,0],[27.555205409000052,-18.482676150999964,0],[27.553444174000049,-18.482495982999978,0],[27.550712686000054,-18.481903475999957,0],[27.550439525000058,-18.481774743999949,0],[27.550165857000025,-18.481645994999951,0],[27.548350437000067,-18.480382148999979,0],[27.547012622000068,-18.479823182999951,0],[27.546707474000073,-18.479531872999928,0],[27.543874360000075,-18.479395896999961,0],[27.543113335000044,-18.479560369999945,0],[27.542664572000035,-18.479474880999931,0],[27.542514477000054,-18.479446641999971,0],[27.541445427000042,-18.479018829999973,0],[27.541301431000079,-18.478684605999945,0],[27.54018852300004,-18.477549032999946,0],[27.539892346000045,-18.477182213999981,0],[27.539781876000063,-18.477005529999929,0],[27.537740340000028,-18.475437539999973,0],[27.537062988000059,-18.474675846999958,0],[27.534274456000048,-18.473359647999928,0],[27.530818363000037,-18.472401856999966,0],[27.530222221000031,-18.472211419999951,0],[27.527888603000065,-18.469020041999954,0],[27.527256822000027,-18.467834728999946,0],[27.526733163000074,-18.466489855999953,0],[27.525245111000061,-18.463429255999927,0],[27.525182805000043,-18.463332502999947,0],[27.523287883000023,-18.46127096999993,0],[27.521723706000046,-18.459942803999979,0],[27.521241926000073,-18.459418831999926,0],[27.517169025000044,-18.460043820999942,0],[27.516396114000031,-18.460244364999937,0],[27.511199172000033,-18.462149452999938,0],[27.51236442000004,-18.465608127999928,0],[27.515278814000055,-18.476030826999931,0],[27.516055759000039,-18.489999335999983,0],[27.516085516000032,-18.490156791999937,0],[27.516122847000076,-18.490616940999928,0],[27.516652075000025,-18.491563099999951,0],[27.518075468000063,-18.493305495999948,0],[27.518502806000072,-18.493823508999981,0],[27.518711806000056,-18.494105063999939,0],[27.518803173000038,-18.494170584999949,0],[27.519019390000039,-18.494404424999971,0],[27.520258424000076,-18.496073441999954,0],[27.519985046000045,-18.498459024999931,0],[27.519921646000057,-18.498815996999951,0],[27.519905734000076,-18.49890500999993,0],[27.520119461000036,-18.501872957999979,0],[27.520145037000077,-18.502008860999979,0],[27.532592579000038,-18.507188892999977,0],[27.532244472000059,-18.507928186999948,0],[27.531728002000023,-18.508661969999935,0],[27.531278117000056,-18.509715633999974,0],[27.530772288000037,-18.510449197999947,0],[27.527580221000051,-18.516567300999952,0],[27.527050663000068,-18.51766822299993,0],[27.527000211000029,-18.518157236999969,0],[27.526756176000049,-18.51850854199995,0],[27.52656778100004,-18.521334001999946,0],[27.52669955600004,-18.522043254999971,0],[27.526660634000052,-18.522426017999976,0],[27.528266411000061,-18.523700359999964,0],[27.530436681000026,-18.521674895999979,0],[27.530937597000047,-18.520885720999956,0],[27.531200246000026,-18.520444447999978,0],[27.531923797000047,-18.51959540799993,0],[27.536242463000065,-18.519134959999974,0],[27.536704287000077,-18.519623966999973,0],[27.53747114600003,-18.52263761599994,0],[27.537569566000059,-18.523436258999936,0],[27.538067914000067,-18.524981916999934,0],[27.538450948000047,-18.525822242999936,0],[27.539278377000073,-18.527028476999931,0],[27.540169890000072,-18.527765646999967,0],[27.540696853000043,-18.52824365999993,0],[27.542172090000065,-18.52842097499996,0],[27.54220138200003,-18.528235936999977,0],[27.543272572000035,-18.52719190199997,0],[27.543468291000067,-18.527228011999966,0],[27.544008963000067,-18.526367429999937,0],[27.545311926000068,-18.52515694899995,0],[27.545637000000056,-18.525022346999947,0],[27.546171070000071,-18.524826663999931,0],[27.547041762000049,-18.524395334999952,0],[27.548580319000052,-18.524280802999954,0],[27.550020909000068,-18.524254278999933,0],[27.550850217000061,-18.52421249899993,0],[27.551396521000072,-18.524018441999942,0],[27.55232440900005,-18.52399188399994,0],[27.552523353000026,-18.52402832599995,0],[27.553037519000043,-18.524023942999975,0],[27.553850630000056,-18.523478615999977,0],[27.555442687000038,-18.52268563399997,0],[27.560428868000031,-18.523217769999974,0],[27.561030659000039,-18.523329668999963,0],[27.557456398000056,-18.515119003999928,0],[27.55696103300005,-18.515564738999956,0],[27.556404804000067,-18.516400784999973,0],[27.555963605000045,-18.514706696999951,0],[27.556393585000023,-18.511950935999948,0],[27.556430882000029,-18.51168660299993,0],[27.555955508000068,-18.510103603999937,0],[27.555853726000066,-18.508856973999968,0],[27.560805443000049,-18.505655978999982,0],[27.561362596000038,-18.505758305999962,0],[27.561965023000027,-18.505593441999963,0],[27.562405951000073,-18.505536604999975,0],[27.563378768000064,-18.504887082999971,0],[27.564239881000049,-18.504906951999942,0],[27.564659258000063,-18.504983944999935,0],[27.565731602000028,-18.504628019999927,0],[27.566898998000056,-18.50456566899993,0],[27.567786797000053,-18.504451610999979,0],[27.568348265000054,-18.504554891999931,0],[27.569307051000067,-18.504036828999972,0],[27.569798481000078,-18.503709819999926,0],[27.573507532000065,-18.50327647599994,0],[27.573954456000024,-18.503218940999943,0],[27.575037580000071,-18.502858305999951,0],[27.578282864000073,-18.501919845999964,0],[27.579740874000038,-18.500360358999956,0],[27.581557331000056,-18.499285674999953,0],[27.581749899000044,-18.499037706999957,0],[27.58327876900006,-18.49875898199997,0],[27.584574161000035,-18.498149742999942,0],[27.584860167000045,-18.498204524999949,0],[27.585897615000079,-18.497400951999964,0],[27.585974684000064,-18.496985803999962,0],[27.586893685000064,-18.496000634999973,0],[27.58874349000007,-18.489428233999945,0],[27.589165280000032,-18.488773910999953,0],[27.590290436000032,-18.486774084999979,0],[27.590806888000031,-18.486429838999982,0],[27.591323555000031,-18.486084500999937,0],[27.59347832800006,-18.48425599199993,0],[27.593908259000045,-18.483583179999982,0],[27.59507319100004,-18.483803253999952,0],[27.595627310000054,-18.484058859999948,0],[27.596181087000048,-18.484314305999931,0],[27.597490458000038,-18.484560425999973,0],[27.602151960000072,-18.484664259999931,0],[27.602648607000049,-18.484456850999948,0],[27.607294402000036,-18.485433286999978,0],[27.607586953000066,-18.485485281999956,0],[27.60809352800004,-18.484533992999957,0],[27.610919530000047,-18.48203209899998,0],[27.611066672000049,-18.482058361999975,0],[27.616575784000077,-18.482113143999982,0],[27.618998089000058,-18.481622268999956,0],[27.620922535000034,-18.481965652999975,0],[27.622107192000044,-18.482177344999968,0],[27.622749592000048,-18.478767975999972,0],[27.618082804000039,-18.475461595999946,0],[27.608783016000075,-18.466060831999982,0],[27.606466744000045,-18.46291832199995,0],[27.604234263000023,-18.45845852399998,0],[27.604986336000024,-18.455497854999976,0],[27.595848304000071,-18.453788236999969,0],[27.595268231000034,-18.453517786999953,0],[27.591059340000072,-18.452414720999968,0],[27.575906577000069,-18.46140751799993,0],[27.562974808000035,-18.456841519999955,0]]]},"properties":{"OID":9,"Name":"Untitled Polygon","FolderPath":"2010.kml/Temporary Places","SymbolID":0,"AltMode":0,"Base":0,"Clamped":-1,"Extruded":0,"Snippet":"","PopupInfo":"","Shape_Length":0.4698608208614678,"Shape_Area":0.0038915373429874588}},{"type":"Feature","id":10,"geometry":{"type":"Polygon","coordinates":[[[27.367502914000056,-18.404067192999946,0],[27.370324063000055,-18.406374099999937,0],[27.372041972000034,-18.407997322999961,0],[27.372337719000029,-18.408129638999981,0],[27.374253502000045,-18.411553246999972,0],[27.374584631000062,-18.413135032999946,0],[27.374635497000043,-18.414100105999978,0],[27.372267949000047,-18.417958356999975,0],[27.372124679000024,-18.418313577999982,0],[27.371913414000062,-18.419033398999943,0],[27.372713020000049,-18.420082186999934,0],[27.374027684000055,-18.421587062999947,0],[27.374387010000078,-18.422473368999931,0],[27.37725707900006,-18.425853070999949,0],[27.379554817000042,-18.433918684999981,0],[27.379882774000066,-18.433775951999962,0],[27.381308704000048,-18.433974210999963,0],[27.381770309000046,-18.434196569999926,0],[27.384149579000052,-18.43470913799996,0],[27.384926332000077,-18.434853786999952,0],[27.385259903000076,-18.434711858999947,0],[27.386126400000023,-18.434804878999955,0],[27.386712012000032,-18.43484518799994,0],[27.38740497200007,-18.43476868099998,0],[27.388030335000053,-18.43467863199993,0],[27.388854343000048,-18.434693151999966,0],[27.390717856000038,-18.434212401999957,0],[27.391204389000052,-18.434094868999978,0],[27.391638629000056,-18.433897964999971,0],[27.391982853000059,-18.43270545799993,0],[27.391987916000062,-18.432425277999982,0],[27.391522826000028,-18.430569902999935,0],[27.391476045000047,-18.429918058999931,0],[27.391027888000053,-18.424558456999932,0],[27.391141133000076,-18.424429495999959,0],[27.391423258000032,-18.424256125999932,0],[27.391881807000061,-18.423735744999931,0],[27.391997365000066,-18.423604854999951,0],[27.393559760000073,-18.42167829999994,0],[27.393730624000057,-18.421633168999961,0],[27.394564284000069,-18.421481421999943,0],[27.394927705000043,-18.421317789999932,0],[27.397575816000028,-18.421262142999979,0],[27.398049331000038,-18.42127413399993,0],[27.399096318000034,-18.423090310999953,0],[27.399382317000061,-18.423450893999927,0],[27.400166256000034,-18.423982137999928,0],[27.400552334000054,-18.424280378999981,0],[27.401306005000038,-18.423420200999942,0],[27.401880759000051,-18.419784927999956,0],[27.402305737000063,-18.418428911999968,0],[27.403627681000046,-18.414253219999978,0],[27.403807234000055,-18.413697377999938,0],[27.404104335000056,-18.412491304999946,0],[27.405343880000032,-18.409315635999974,0],[27.405450216000077,-18.409247953999966,0],[27.405657905000055,-18.408590570999934,0],[27.40583863300003,-18.408014109999954,0],[27.407147442000053,-18.404155928999955,0],[27.405103950000068,-18.402624036999953,0],[27.400702945000035,-18.402635170999929,0],[27.400374252000063,-18.402578136999978,0],[27.397255760000064,-18.403627323999956,0],[27.395099008000045,-18.404045633999942,0],[27.394052250000072,-18.400555319999967,0],[27.39113750000007,-18.40194259499998,0],[27.388313277000066,-18.403482648999955,0],[27.386758010000051,-18.404763455999955,0],[27.384942914000078,-18.406510490999949,0],[27.384727896000072,-18.406729010999982,0],[27.383075017000067,-18.407869867999977,0],[27.381329242000049,-18.404942007999978,0],[27.381302464000044,-18.404680222999957,0],[27.380993731000046,-18.403007592999927,0],[27.381087746000048,-18.402162797999949,0],[27.381280192000077,-18.401243715999954,0],[27.367502914000056,-18.404067192999946,0]]]},"properties":{"OID":10,"Name":"Untitled Polygon","FolderPath":"2010.kml/Temporary Places","SymbolID":0,"AltMode":0,"Base":0,"Clamped":-1,"Extruded":0,"Snippet":"","PopupInfo":"","Shape_Length":0.14214781000238891,"Shape_Area":0.00077227270759960939}},{"type":"Feature","id":11,"geometry":{"type":"Polygon","coordinates":[[[27.674935724000079,-18.516619415999969,0],[27.674730422000039,-18.51658193399993,0],[27.672502792000046,-18.517943550999973,0],[27.672275851000052,-18.518106112999931,0],[27.672261053000057,-18.521151422999935,0],[27.672218929000053,-18.521545312999933,0],[27.672400130000028,-18.521779550999952,0],[27.673480940000047,-18.523177008999937,0],[27.673550639000041,-18.523488852999947,0],[27.673896618000072,-18.524046895999959,0],[27.675472529000047,-18.525313703999927,0],[27.676069428000062,-18.525422477999939,0],[27.676268409000045,-18.525458739999976,0],[27.677215856000032,-18.525241661999928,0],[27.679142065000065,-18.525292549999961,0],[27.680810218000033,-18.525792010999965,0],[27.681194606000076,-18.525959358999955,0],[27.681956596000077,-18.527760074999946,0],[27.681874815000072,-18.528327543999978,0],[27.681473999000048,-18.531131500999948,0],[27.681355406000023,-18.531960848999972,0],[27.681328936000057,-18.532144268999957,0],[27.679780806000053,-18.535294982999972,0],[27.679623206000031,-18.535724215999949,0],[27.679223352000065,-18.536471004999953,0],[27.679173319000029,-18.536824457999955,0],[27.679390185000045,-18.540085379999937,0],[27.682425547000037,-18.539306831999966,0],[27.682724223000037,-18.539272048999976,0],[27.683730138000044,-18.539097743999946,0],[27.684247624000079,-18.538922961999958,0],[27.685108378000052,-18.538449324999931,0],[27.68531381300005,-18.538396503999934,0],[27.688513340000043,-18.53707413799998,0],[27.68925050200005,-18.536842154999931,0],[27.689668064000045,-18.536734748999947,0],[27.690488161000076,-18.536608003999959,0],[27.690940312000066,-18.536321744999952,0],[27.693767478000041,-18.535159435999958,0],[27.694174607000036,-18.535139241999957,0],[27.696880960000044,-18.53525321799998,0],[27.697914367000067,-18.535159341999929,0],[27.698774119000063,-18.534937602999946,0],[27.699263642000062,-18.534553248999941,0],[27.70099450500004,-18.534107655999946,0],[27.70154767300005,-18.533922086999951,0],[27.701961666000045,-18.533902613999942,0],[27.702592689000028,-18.533828270999948,0],[27.70380453100006,-18.533473194999942,0],[27.70416407600004,-18.533251126999971,0],[27.707002112000055,-18.532210741999961,0],[27.708135861000073,-18.531830257999957,0],[27.708893958000033,-18.531284325999934,0],[27.71252645800007,-18.530571124999938,0],[27.713226032000023,-18.530701312999952,0],[27.714105283000038,-18.53056302899995,0],[27.71488770600007,-18.530405086999963,0],[27.715089711000076,-18.530441296999982,0],[27.718001836000042,-18.531057646999955,0],[27.718608864000032,-18.531166413999927,0],[27.719074183000032,-18.531358087999934,0],[27.727865242000064,-18.532162999999969,0],[27.729887605000044,-18.530603518999953,0],[27.730624702000057,-18.529934682999965,0],[27.734480551000047,-18.528300847999958,0],[27.734853823000037,-18.528161871999941,0],[27.742618809000078,-18.525964334999969,0],[27.730267160000039,-18.523414435999939,0],[27.733613201000026,-18.515076326999974,0],[27.733850853000035,-18.514460706999955,0],[27.72954313300005,-18.512729275999959,0],[27.728094253000052,-18.511989429999971,0],[27.727519776000065,-18.511209452999935,0],[27.727195330000029,-18.511052303999975,0],[27.723572563000062,-18.509120462999931,0],[27.723336962000076,-18.508686700999931,0],[27.723191192000058,-18.508268116999943,0],[27.721223741000074,-18.504318429999955,0],[27.720951099000047,-18.503660925999952,0],[27.720463624000047,-18.502755896999929,0],[27.720218491000026,-18.502607960999967,0],[27.718544330000043,-18.50452338499997,0],[27.714744621000079,-18.506823920999977,0],[27.714156161000062,-18.507201886999951,0],[27.710990785000035,-18.50990453999998,0],[27.70618894200004,-18.507961239999929,0],[27.705931411000051,-18.507525400999953,0],[27.705673035000075,-18.50708812299996,0],[27.705681953000067,-18.50670122799994,0],[27.704129342000044,-18.505048993999935,0],[27.703748219000033,-18.504685724999945,0],[27.694930358000079,-18.503658112999972,0],[27.693666049000058,-18.503423280999982,0],[27.693304245000036,-18.503358104999961,0],[27.688746967000043,-18.503220489999933,0],[27.685438612000041,-18.50608103899998,0],[27.68517859800005,-18.506503641999927,0],[27.685073536000061,-18.506579103999968,0],[27.681545132000053,-18.51019886499995,0],[27.679937592000044,-18.516096767999954,0],[27.674935724000079,-18.516619415999969,0]]]},"properties":{"OID":11,"Name":"Untitled Polygon","FolderPath":"2010.kml/Temporary Places","SymbolID":0,"AltMode":0,"Base":0,"Clamped":-1,"Extruded":0,"Snippet":"","PopupInfo":"","Shape_Length":0.19778235417114925,"Shape_Area":0.0014759103350057057}},{"type":"Feature","id":12,"geometry":{"type":"Polygon","coordinates":[[[27.742842139000061,-18.453535114999966,0],[27.741806702000076,-18.453358327999979,0],[27.741215342000032,-18.453257362999977,0],[27.735785890000045,-18.447313319999978,0],[27.736458700000071,-18.442004553999936,0],[27.736354172000063,-18.441828333999979,0],[27.736069911000072,-18.439083366999967,0],[27.73599321100005,-18.438271541999939,0],[27.739852026000051,-18.429122546999963,0],[27.736822087000064,-18.427226961999963,0],[27.732270827000036,-18.426587100999939,0],[27.730278390000024,-18.426735203999954,0],[27.725004005000073,-18.426458010999966,0],[27.723694323000075,-18.425888630999964,0],[27.717515816000059,-18.422053913999946,0],[27.71231146100007,-18.421451512999965,0],[27.711846581000032,-18.421363657999962,0],[27.702523967000047,-18.416416567999931,0],[27.700595900000053,-18.412072242999955,0],[27.698603006000042,-18.41048761299993,0],[27.636663002000034,-18.41945076199994,0],[27.63231859900003,-18.419884758999956,0],[27.62798059000005,-18.420430664999969,0],[27.627129217000061,-18.420717991999936,0],[27.623404753000045,-18.42092153699997,0],[27.622987776000059,-18.420990943999982,0],[27.621447725000053,-18.421435814999938,0],[27.621157091000043,-18.421672426999976,0],[27.620337898000059,-18.42166739299995,0],[27.619923494000034,-18.421736005999946,0],[27.618956481000055,-18.42184205999996,0],[27.616767598000024,-18.421864494999966,0],[27.575529412000037,-18.428235600999926,0],[27.578654898000025,-18.435077210999964,0],[27.585951418000036,-18.437466807999954,0],[27.587737803000039,-18.439728634999938,0],[27.592034690000048,-18.439911307999978,0],[27.593398721000028,-18.439422438999941,0],[27.59789188700006,-18.438466107999943,0],[27.598952569000062,-18.438219706999973,0],[27.599729998000043,-18.437920248999944,0],[27.606308323000064,-18.43715167199997,0],[27.606929905000072,-18.436963506999973,0],[27.608487426000067,-18.436492862999955,0],[27.611211985000068,-18.435319149999941,0],[27.611407697000061,-18.435048747999929,0],[27.615191297000024,-18.433121771999936,0],[27.619230720000076,-18.431669871999929,0],[27.626232238000057,-18.43232212199996,0],[27.627111132000039,-18.432483029999958,0],[27.632823611000049,-18.433535607999943,0],[27.638813424000034,-18.434750006999934,0],[27.637245631000042,-18.437450847999969,0],[27.636447275000023,-18.438244650999934,0],[27.636195802000032,-18.43866430099996,0],[27.634888495000041,-18.442260835999946,0],[27.634221005000029,-18.443809621999947,0],[27.637000479000051,-18.446441163999964,0],[27.638940073000072,-18.447559657999932,0],[27.64459375000007,-18.443623027999934,0],[27.644787281000049,-18.44289413499996,0],[27.645097945000032,-18.441722566999943,0],[27.646525325000027,-18.439802952999969,0],[27.647877549000043,-18.438175599999965,0],[27.648055889000034,-18.436945990999959,0],[27.648864639000067,-18.435662983999975,0],[27.651091745000031,-18.435428462999937,0],[27.651970320000032,-18.435595599999942,0],[27.65605114400006,-18.436496228999943,0],[27.657402496000032,-18.441409285999953,0],[27.656675153000037,-18.443809133999935,0],[27.656596490000027,-18.445328518999929,0],[27.656816821000064,-18.445698200999971,0],[27.657964392000054,-18.446979904999978,0],[27.661291371000061,-18.44725544299996,0],[27.661797884000066,-18.447347237999963,0],[27.664874042000065,-18.447045209999942,0],[27.665208742000061,-18.446998491999977,0],[27.668948473000057,-18.447037777999981,0],[27.669507998000029,-18.448004389999937,0],[27.669577606000075,-18.448124857999971,0],[27.671287279000069,-18.447796417999939,0],[27.673476580000056,-18.44668050599995,0],[27.674462003000031,-18.445984991999978,0],[27.677504106000072,-18.449483166999983,0],[27.677570116000027,-18.449603280999952,0],[27.677497687000027,-18.450126498999964,0],[27.677359737000074,-18.45052846599998,0],[27.67646966500007,-18.452800328999956,0],[27.67509906600003,-18.454090734999966,0],[27.676407643000061,-18.454591363999953,0],[27.678705458000024,-18.455245943999955,0],[27.677079445000061,-18.461794660999942,0],[27.675345207000078,-18.462440150999953,0],[27.674868738000043,-18.462565991999952,0],[27.672354096000049,-18.462947519999943,0],[27.672100430000057,-18.46500158799995,0],[27.67423935100004,-18.466629315999967,0],[27.677906872000051,-18.46874739499998,0],[27.678065185000037,-18.469283490999942,0],[27.678383085000064,-18.469645401999969,0],[27.679962342000067,-18.471442033999949,0],[27.680044682000073,-18.471855719999951,0],[27.680788525000025,-18.47318251799993,0],[27.680827714000031,-18.473387225999943,0],[27.683042088000036,-18.474386159999938,0],[27.683211536000044,-18.474515125999972,0],[27.684365660000026,-18.474534263999942,0],[27.684248098000069,-18.473925181999959,0],[27.683982517000061,-18.472189465999975,0],[27.683809259000043,-18.471756225999968,0],[27.683740973000056,-18.471642937999945,0],[27.683348611000042,-18.468936763999977,0],[27.684883270000057,-18.467973488999974,0],[27.685702073000073,-18.468125556999951,0],[27.687925024000037,-18.468948619999935,0],[27.68833661900004,-18.469332465999969,0],[27.691050902000029,-18.470857894999938,0],[27.693424242000049,-18.471194818999948,0],[27.693599554000059,-18.471022193999943,0],[27.697264006000069,-18.468349649999936,0],[27.698306693000063,-18.467032314999926,0],[27.698643487000027,-18.46607746199993,0],[27.698873803000026,-18.465608578999934,0],[27.700184697000054,-18.464299969999956,0],[27.704260415000078,-18.464921379999964,0],[27.708569296000064,-18.463629775999948,0],[27.711575581000034,-18.462063096999941,0],[27.714518576000046,-18.460861921999935,0],[27.714893830000051,-18.460931333999952,0],[27.720110797000075,-18.461607623999953,0],[27.725049582000054,-18.461953846999961,0],[27.72642662100003,-18.462211184999944,0],[27.727677276000065,-18.462445776999971,0],[27.736485301000073,-18.461334122999972,0],[27.737364349000075,-18.461502118999931,0],[27.737565708000034,-18.461681899999974,0],[27.742842139000061,-18.453535114999966,0]]]},"properties":{"OID":12,"Name":"Untitled Polygon","FolderPath":"2010.kml/Temporary Places","SymbolID":0,"AltMode":0,"Base":0,"Clamped":-1,"Extruded":0,"Snippet":"","PopupInfo":"","Shape_Length":0.45929827084625224,"Shape_Area":0.0046921451313821942}},{"type":"Feature","id":13,"geometry":{"type":"Polygon","coordinates":[[[27.965277960000037,-18.47832098899994,0],[27.979259223000042,-18.478091235999955,0],[27.980351471000063,-18.47678706499994,0],[27.989387446000023,-18.469254244999945,0],[27.989558929000054,-18.468510188999971,0],[27.992122578000078,-18.459791153999959,0],[27.994355434000056,-18.451309562999938,0],[27.994536559000039,-18.450522881999973,0],[27.995401083000047,-18.44431106899998,0],[27.996153285000048,-18.44106077899994,0],[27.99659622300004,-18.439147840999965,0],[27.996693209000057,-18.43369998999998,0],[27.99683292800006,-18.430530067999939,0],[27.996691540000029,-18.424648549999972,0],[27.996453417000055,-18.420435080999937,0],[27.99623645500003,-18.406550333999974,0],[27.996500161000029,-18.405342372999939,0],[27.996901296000033,-18.400697927999943,0],[27.99740468400006,-18.396963913999969,0],[27.998117874000059,-18.39224627699997,0],[27.998592452000025,-18.390048691999937,0],[27.999000785000078,-18.388156600999935,0],[28.000189232000025,-18.379739753999957,0],[28.00037542900003,-18.377410749999967,0],[27.987933891000068,-18.398490294999931,0],[27.982151376000047,-18.406267881999952,0],[27.980700651000063,-18.407558563999942,0],[27.979141535000053,-18.40943700899993,0],[27.977879138000048,-18.411356075999947,0],[27.977367197000035,-18.412478667999949,0],[27.974863243000073,-18.414752848999967,0],[27.974127881000072,-18.415525964999972,0],[27.970691139000053,-18.418209531999935,0],[27.969787217000032,-18.418347227999959,0],[27.968884006000053,-18.418484829999954,0],[27.964630606000071,-18.417732706999971,0],[27.963561081000023,-18.41545714199998,0],[27.961875688000077,-18.411552753999956,0],[27.961974736000059,-18.410964923999927,0],[27.965393953000046,-18.39956622699998,0],[27.970826851000027,-18.392601663999926,0],[27.971341796000047,-18.391408555999931,0],[27.973970549000057,-18.388644196999962,0],[27.975500279000073,-18.386959157999968,0],[27.976915856000062,-18.384251358999961,0],[27.977509018000035,-18.38269558199994,0],[27.980152490000023,-18.375093675999949,0],[27.980459343000064,-18.373434032999967,0],[27.981749481000065,-18.369862198999954,0],[27.98230127000005,-18.368597456999964,0],[27.987939491000077,-18.357299341999976,0],[27.988960926000061,-18.355329501999961,0],[27.999790923000035,-18.343378168999948,0],[27.998914566000053,-18.342838598999947,0],[27.997158671000079,-18.34175877499996,0],[27.989722698000037,-18.341127021999966,0],[27.987797234000027,-18.342646222999974,0],[27.985448658000053,-18.342962184999976,0],[27.982342901000038,-18.343881353999961,0],[27.97912296800007,-18.343662670999947,0],[27.976105377000067,-18.34606598299996,0],[27.975644205000037,-18.341148063999981,0],[27.974940258000061,-18.339517611999952,0],[27.974478085000044,-18.336418715999969,0],[27.974466196000037,-18.334527485999956,0],[27.974059480000051,-18.33103450699997,0],[27.973511470000062,-18.326327668999966,0],[27.972192175000032,-18.315909589999933,0],[27.975176843000042,-18.336164581999981,0],[27.97660460000003,-18.345051661999946,0],[27.966918469000063,-18.306491706999964,0],[27.957582111000079,-18.314106683999967,0],[27.956242222000071,-18.316898133999928,0],[27.950756043000069,-18.326419530999942,0],[27.949527690000025,-18.328664813999978,0],[27.948305323000056,-18.330908065999949,0],[27.946936484000048,-18.336990607999951,0],[27.946784957000034,-18.340809081999964,0],[27.947814464000032,-18.348109146999946,0],[27.94794704800006,-18.35001548799994,0],[27.949031000000048,-18.356735589999971,0],[27.948887876000072,-18.357638637999969,0],[27.942407225000068,-18.372020634999956,0],[27.940054991000068,-18.379176359999974,0],[27.93951858500003,-18.379965674999937,0],[27.937235347000069,-18.38132571999995,0],[27.933964873000036,-18.383809613999972,0],[27.931703281000068,-18.385151630999928,0],[27.924920249000024,-18.386574063999944,0],[27.920513845000073,-18.385820106999972,0],[27.917409042000031,-18.393805132999944,0],[27.91514021100005,-18.401766603999931,0],[27.914479211000071,-18.40371284899993,0],[27.913451142000042,-18.408445455999981,0],[27.913211215000047,-18.413266820999979,0],[27.912408794000044,-18.416347560999952,0],[27.912049096000032,-18.41908495399997,0],[27.903034655000056,-18.428141680999943,0],[27.90165496000003,-18.42984146699996,0],[27.896660337000071,-18.435891108999954,0],[27.894761525000035,-18.438990688999979,0],[27.893130244000076,-18.439844894999965,0],[27.888968921000071,-18.44289138399995,0],[27.888139288000048,-18.443495430999974,0],[27.884606083000051,-18.448092891999977,0],[27.884378641000069,-18.45027356199995,0],[27.883819015000029,-18.452016662999938,0],[27.883811664000064,-18.466878196999971,0],[27.885323218000053,-18.473872203999974,0],[27.888001774000031,-18.479932919999953,0],[27.910024823000072,-18.483169887999964,0],[27.910654256000043,-18.483976578999943,0],[27.929806031000055,-18.489121723999972,0],[27.933090759000038,-18.489361243999952,0],[27.935356884000043,-18.489073083999926,0],[27.937684279000052,-18.488448522999931,0],[27.960812125000075,-18.484543114999951,0],[27.962469835000036,-18.483776734999935,0],[27.965277960000037,-18.47832098899994,0]]]},"properties":{"OID":13,"Name":"Untitled Polygon","FolderPath":"2010.kml/Temporary Places","SymbolID":0,"AltMode":0,"Base":0,"Clamped":-1,"Extruded":0,"Snippet":"","PopupInfo":"","Shape_Length":0.68241901072639044,"Shape_Area":0.011146423677321238}},{"type":"Feature","id":14,"geometry":{"type":"Polygon","coordinates":[[[27.864627005000045,-18.373476797999956,0],[27.871555570000055,-18.373374375999958,0],[27.879244199000027,-18.372216978999973,0],[27.879623000000038,-18.372285279999971,0],[27.888761719000058,-18.37231541899996,0],[27.894962245000045,-18.370450388999927,0],[27.895536124000046,-18.370556757999964,0],[27.900286399000038,-18.366138321999927,0],[27.901315044000057,-18.364880685999935,0],[27.903120922000028,-18.362711790999981,0],[27.904636566000079,-18.361081476999971,0],[27.90734705400007,-18.359635060999949,0],[27.912629994000042,-18.362697917999981,0],[27.921232316000044,-18.361628144999941,0],[27.927613355000062,-18.351070610999955,0],[27.927402489000031,-18.348336475999929,0],[27.926024906000066,-18.345099221999931,0],[27.92270505700003,-18.34568029899998,0],[27.920815468000058,-18.345591628999955,0],[27.907761770000036,-18.345543975999931,0],[27.906747575000054,-18.345363000999953,0],[27.902145803000053,-18.343016038999963,0],[27.899058246000038,-18.342708276999929,0],[27.890942974000041,-18.344076407999978,0],[27.884430476000034,-18.346210200999963,0],[27.883828931000039,-18.346101860999966,0],[27.877618806000044,-18.349792136999952,0],[27.875558396000031,-18.354996225999969,0],[27.873448422000024,-18.357564064999963,0],[27.869005979000065,-18.36172492999998,0],[27.868790778000061,-18.361890754999934,0],[27.865735272000052,-18.364791354999966,0],[27.864716930000043,-18.365211631999955,0],[27.865286088000062,-18.370866932999945,0],[27.865183124000055,-18.371824109999977,0],[27.864627005000045,-18.373476797999956,0]]]},"properties":{"OID":14,"Name":"Untitled Polygon","FolderPath":"2010.kml/Temporary Places","SymbolID":0,"AltMode":0,"Base":0,"Clamped":-1,"Extruded":0,"Snippet":"","PopupInfo":"","Shape_Length":0.16040794760476063,"Shape_Area":0.0011879757768671843}}]}
