{
"type": "FeatureCollection",
"name": "LUPANE COMMUNAL FARM BOUNDARIES",
"crs": { "type": "name", "properties": { "name": "urn:ogc:def:crs:OGC:1.3:CRS84" } },
"features": [
{ "type": "Feature", "properties": { "ROW_ID": "44", "NAME": "148", "NAME_CFU": "148", "MAP_SHEET": "Kamativi", "PROVINCE": "Matabeleland North", "DISTRICT": "Lupane", "STATUS": "Commercial", "AREA_KM2": 1.116, "AREA_HA": 111.631, "AREA_ACRE": 275.847 }, "geometry": { "type": "MultiPolygon", "coordinates": [ [ [ [ 27.744745, -18.927102 ], [ 27.751148, -18.929905 ], [ 27.754299, -18.93799 ], [ 27.741921, -18.941348 ], [ 27.743606, -18.935892 ], [ 27.745298, -18.931872 ], [ 27.744745, -18.927102 ] ] ] ] } },
{ "type": "Feature", "properties": { "ROW_ID": "45", "NAME": "146", "NAME_CFU": "146", "MAP_SHEET": "Kamativi", "PROVINCE": "Matabeleland North", "DISTRICT": "Lupane", "STATUS": "Commercial", "AREA_KM2": 1.217, "AREA_HA": 121.701, "AREA_ACRE": 300.73 }, "geometry": { "type": "MultiPolygon", "coordinates": [ [ [ [ 27.763364, -18.938948 ], [ 27.767347, -18.93997 ], [ 27.767659, -18.941632 ], [ 27.770012, -18.943349 ], [ 27.772252, -18.947072 ], [ 27.773167, -18.95184 ], [ 27.775476, -18.956196 ], [ 27.773121, -18.958492 ], [ 27.765016, -18.949388 ], [ 27.763364, -18.938948 ] ] ] ] } },
{ "type": "Feature", "properties": { "ROW_ID": "88", "NAME": "Gutamegwa", "NAME_CFU": "Gutamegwa", "MAP_SHEET": "Nyamandlovu", "PROVINCE": "Matabeleland North", "DISTRICT": "Lupane", "STATUS": "Commercial", "AREA_KM2": 26.501, "AREA_HA": 2650.061, "AREA_ACRE": 6548.443 }, "geometry": { "type": "MultiPolygon", "coordinates": [ [ [ [ 27.75295, -19.335868 ], [ 27.667189, -19.329253 ], [ 27.667839, -19.327697 ], [ 27.675406, -19.327388 ], [ 27.678621, -19.322243 ], [ 27.674965, -19.319925 ], [ 27.670096, -19.323251 ], [ 27.667688, -19.318904 ], [ 27.66956, -19.313194 ], [ 27.674042, -19.312924 ], [ 27.678447, -19.316957 ], [ 27.682682, -19.31686 ], [ 27.680061, -19.309133 ], [ 27.681159, -19.298438 ], [ 27.688276, -19.29589 ], [ 27.684658, -19.291041 ], [ 27.686692, -19.283388 ], [ 27.691926, -19.285799 ], [ 27.694229, -19.285438 ], [ 27.696757, -19.278053 ], [ 27.701677, -19.280303 ], [ 27.703265, -19.286786 ], [ 27.710104, -19.292344 ], [ 27.713123, -19.297312 ], [ 27.715802, -19.304984 ], [ 27.720874, -19.308958 ], [ 27.73531, -19.317089 ], [ 27.739412, -19.320777 ], [ 27.745154, -19.325489 ], [ 27.751478, -19.328527 ], [ 27.753899, -19.333271 ], [ 27.75295, -19.335868 ] ] ] ] } },
{ "type": "Feature", "properties": { "ROW_ID": "96", "NAME": "STATE LAND\/A", "NAME_CFU": "STATE LAND\/A", "MAP_SHEET": "Nyamandlovu", "PROVINCE": "Matabeleland North", "DISTRICT": "Lupane", "STATUS": "Commercial", "AREA_KM2": 208.169, "AREA_HA": 20816.855, "AREA_ACRE": 51439.57 }, "geometry": { "type": "MultiPolygon", "coordinates": [ [ [ [ 28.264497, -19.172527 ], [ 28.260535, -19.201582 ], [ 28.212805, -19.187969 ], [ 27.968935, -19.115335 ], [ 27.975111, -19.095565 ], [ 27.971838, -19.09485 ], [ 27.969666, -19.055116 ], [ 28.082595, -19.087933 ], [ 28.265818, -19.143033 ], [ 28.264497, -19.172527 ] ] ] ] } },
{ "type": "Feature", "properties": { "ROW_ID": "224", "NAME": "149", "NAME_CFU": "149", "MAP_SHEET": "Kamativi", "PROVINCE": "Matabeleland North", "DISTRICT": "Lupane", "STATUS": "Commercial", "AREA_KM2": 1.382, "AREA_HA": 138.152, "AREA_ACRE": 341.381 }, "geometry": { "type": "MultiPolygon", "coordinates": [ [ [ [ 27.754299, -18.93799 ], [ 27.749786, -18.950345 ], [ 27.748954, -18.953159 ], [ 27.745507, -18.953454 ], [ 27.744171, -18.951904 ], [ 27.741996, -18.947665 ], [ 27.741629, -18.944106 ], [ 27.741921, -18.941348 ], [ 27.754299, -18.93799 ] ] ] ] } },
{ "type": "Feature", "properties": { "ROW_ID": "225", "NAME": "Sotani", "NAME_CFU": "Sotani", "MAP_SHEET": "Kamativi", "PROVINCE": "Matabeleland North", "DISTRICT": "Lupane", "STATUS": "Commercial", "AREA_KM2": 78.045, "AREA_HA": 7804.478, "AREA_ACRE": 19285.285 }, "geometry": { "type": "MultiPolygon", "coordinates": [ [ [ [ 27.605856, -18.875539 ], [ 27.599393, -18.873536 ], [ 27.588646, -18.867813 ], [ 27.572403, -18.862323 ], [ 27.565811, -18.852456 ], [ 27.552109, -18.84232 ], [ 27.52947, -18.835968 ], [ 27.515944, -18.820081 ], [ 27.487933, -18.821892 ], [ 27.472667, -18.806638 ], [ 27.491859, -18.78486 ], [ 27.496754, -18.781295 ], [ 27.501759, -18.782954 ], [ 27.507311, -18.789555 ], [ 27.513826, -18.791553 ], [ 27.520169, -18.789945 ], [ 27.528011, -18.791369 ], [ 27.533687, -18.797734 ], [ 27.539719, -18.799795 ], [ 27.548951, -18.796623 ], [ 27.555288, -18.798972 ], [ 27.556981, -18.802989 ], [ 27.561148, -18.803438 ], [ 27.567306, -18.797463 ], [ 27.574547, -18.800324 ], [ 27.577871, -18.806685 ], [ 27.581676, -18.809385 ], [ 27.585893, -18.8076 ], [ 27.605516, -18.815202 ], [ 27.605816, -18.819449 ], [ 27.601416, -18.825718 ], [ 27.6016, -18.829504 ], [ 27.605952, -18.831045 ], [ 27.617781, -18.831774 ], [ 27.627556, -18.829174 ], [ 27.63209, -18.830949 ], [ 27.631364, -18.837377 ], [ 27.632281, -18.843981 ], [ 27.633668, -18.851894 ], [ 27.632227, -18.859825 ], [ 27.633435, -18.863147 ], [ 27.605856, -18.875539 ] ] ] ] } },
{ "type": "Feature", "properties": { "ROW_ID": "261", "NAME": "Sunbeam", "NAME_CFU": "Sunbeam", "MAP_SHEET": "Nyamandlovu", "PROVINCE": "Matabeleland North", "DISTRICT": "Lupane", "STATUS": "Commercial", "AREA_KM2": 2.533, "AREA_HA": 253.279, "AREA_ACRE": 625.865 }, "geometry": { "type": "MultiPolygon", "coordinates": [ [ [ [ 27.713123, -19.297312 ], [ 27.71545, -19.293905 ], [ 27.737191, -19.311893 ], [ 27.741807, -19.307365 ], [ 27.742972, -19.308219 ], [ 27.73531, -19.317089 ], [ 27.720874, -19.308958 ], [ 27.715802, -19.304984 ], [ 27.713123, -19.297312 ] ] ] ] } },
{ "type": "Feature", "properties": { "ROW_ID": "361", "NAME": "147", "NAME_CFU": "147", "MAP_SHEET": "Kamativi", "PROVINCE": "Matabeleland North", "DISTRICT": "Lupane", "STATUS": "Commercial", "AREA_KM2": 1.619, "AREA_HA": 161.914, "AREA_ACRE": 400.098 }, "geometry": { "type": "MultiPolygon", "coordinates": [ [ [ [ 27.754299, -18.93799 ], [ 27.763364, -18.938948 ], [ 27.765016, -18.949388 ], [ 27.749786, -18.950345 ], [ 27.754299, -18.93799 ] ] ] ] } },
{ "type": "Feature", "properties": { "ROW_ID": "387", "NAME": "B", "NAME_CFU": "B", "MAP_SHEET": "Nyamandlovu", "PROVINCE": "Matabeleland North", "DISTRICT": "Lupane", "STATUS": "Commercial", "AREA_KM2": 0.763, "AREA_HA": 76.325, "AREA_ACRE": 188.604 }, "geometry": { "type": "MultiPolygon", "coordinates": [ [ [ [ 27.742972, -19.308219 ], [ 27.74713, -19.312142 ], [ 27.739412, -19.320777 ], [ 27.73531, -19.317089 ], [ 27.742972, -19.308219 ] ] ] ] } },
{ "type": "Feature", "properties": { "ROW_ID": "480", "NAME": "A", "NAME_CFU": "A", "MAP_SHEET": "Nyamandlovu", "PROVINCE": "Matabeleland North", "DISTRICT": "Lupane", "STATUS": "Commercial", "AREA_KM2": 2.331, "AREA_HA": 233.052, "AREA_ACRE": 575.885 }, "geometry": { "type": "MultiPolygon", "coordinates": [ [ [ [ 27.737191, -19.311893 ], [ 27.71545, -19.293905 ], [ 27.720841, -19.288389 ], [ 27.741807, -19.307365 ], [ 27.737191, -19.311893 ] ] ] ] } },
{ "type": "Feature", "properties": { "ROW_ID": "632", "NAME": "Lonely", "NAME_CFU": "Lonely", "MAP_SHEET": "Nyamandlovu", "PROVINCE": "Matabeleland North", "DISTRICT": "Lupane", "STATUS": "Commercial", "AREA_KM2": 13.765, "AREA_HA": 1376.528, "AREA_ACRE": 3401.475 }, "geometry": { "type": "MultiPolygon", "coordinates": [ [ [ [ 28.10998, -19.010526 ], [ 28.11189, -19.009591 ], [ 28.115481, -19.010959 ], [ 28.117021, -19.011472 ], [ 28.121467, -19.011643 ], [ 28.128138, -19.011814 ], [ 28.130019, -19.009933 ], [ 28.134637, -19.010617 ], [ 28.141479, -19.010446 ], [ 28.14336, -19.009591 ], [ 28.145754, -19.010104 ], [ 28.148491, -19.010275 ], [ 28.149859, -19.011472 ], [ 28.153964, -19.011985 ], [ 28.157385, -19.013353 ], [ 28.15995, -19.015577 ], [ 28.164397, -19.016432 ], [ 28.169015, -19.018484 ], [ 28.16985, -19.020211 ], [ 28.16941, -19.035179 ], [ 28.108219, -19.027695 ], [ 28.10998, -19.010526 ] ] ] ] } },
{ "type": "Feature", "properties": { "ROW_ID": "713", "NAME": null, "NAME_CFU": null, "MAP_SHEET": "Nyamandlovu", "PROVINCE": null, "DISTRICT": "Lupane", "STATUS": "Commercial", "AREA_KM2": 0.95, "AREA_HA": 94.991, "AREA_ACRE": 234.727 }, "geometry": { "type": "MultiPolygon", "coordinates": [ [ [ [ 27.694775, -19.030508 ], [ 27.698484, -19.028098 ], [ 27.702573, -19.027259 ], [ 27.703872, -19.035056 ], [ 27.707554, -19.036572 ], [ 27.702139, -19.041337 ], [ 27.694775, -19.030508 ] ] ] ] } },
{ "type": "Feature", "properties": { "ROW_ID": "714", "NAME": null, "NAME_CFU": null, "MAP_SHEET": "Nyamandlovu", "PROVINCE": null, "DISTRICT": "Lupane", "STATUS": "Commercial", "AREA_KM2": 0.678, "AREA_HA": 67.831, "AREA_ACRE": 167.614 }, "geometry": { "type": "MultiPolygon", "coordinates": [ [ [ [ 27.703655, -19.031807 ], [ 27.702573, -19.027259 ], [ 27.703869, -19.026514 ], [ 27.705136, -19.022713 ], [ 27.70907, -19.021411 ], [ 27.710803, -19.030941 ], [ 27.703655, -19.031807 ] ] ] ] } },
{ "type": "Feature", "properties": { "ROW_ID": "715", "NAME": null, "NAME_CFU": null, "MAP_SHEET": "Nyamandlovu", "PROVINCE": null, "DISTRICT": "Lupane", "STATUS": "Commercial", "AREA_KM2": 0.928, "AREA_HA": 92.783, "AREA_ACRE": 229.271 }, "geometry": { "type": "MultiPolygon", "coordinates": [ [ [ [ 27.710803, -19.030941 ], [ 27.70907, -19.021411 ], [ 27.711154, -19.020179 ], [ 27.715906, -19.020496 ], [ 27.7186, -19.020761 ], [ 27.717301, -19.029641 ], [ 27.710803, -19.030941 ] ] ] ] } },
{ "type": "Feature", "properties": { "ROW_ID": "716", "NAME": null, "NAME_CFU": null, "MAP_SHEET": "Nyamandlovu", "PROVINCE": null, "DISTRICT": "Lupane", "STATUS": "Commercial", "AREA_KM2": 0.95, "AREA_HA": 94.959, "AREA_ACRE": 234.648 }, "geometry": { "type": "MultiPolygon", "coordinates": [ [ [ [ 27.717301, -19.029641 ], [ 27.7186, -19.020761 ], [ 27.723148, -19.020111 ], [ 27.725725, -19.018279 ], [ 27.728347, -19.027692 ], [ 27.717301, -19.029641 ] ] ] ] } },
{ "type": "Feature", "properties": { "ROW_ID": "717", "NAME": null, "NAME_CFU": null, "MAP_SHEET": "Nyamandlovu", "PROVINCE": null, "DISTRICT": "Lupane", "STATUS": "Commercial", "AREA_KM2": 0.997, "AREA_HA": 99.71, "AREA_ACRE": 246.388 }, "geometry": { "type": "MultiPolygon", "coordinates": [ [ [ [ 27.728347, -19.027692 ], [ 27.730296, -19.034623 ], [ 27.72943, -19.032674 ], [ 27.725725, -19.018279 ], [ 27.731595, -19.019678 ], [ 27.735711, -19.020761 ], [ 27.735711, -19.023793 ], [ 27.731162, -19.03224 ], [ 27.730296, -19.034623 ], [ 27.728347, -19.027692 ] ] ] ] } },
{ "type": "Feature", "properties": { "ROW_ID": "718", "NAME": null, "NAME_CFU": null, "MAP_SHEET": "Nyamandlovu", "PROVINCE": null, "DISTRICT": "Lupane", "STATUS": "Commercial", "AREA_KM2": 3.783, "AREA_HA": 378.264, "AREA_ACRE": 934.712 }, "geometry": { "type": "MultiPolygon", "coordinates": [ [ [ [ 27.707554, -19.036572 ], [ 27.709937, -19.036356 ], [ 27.703872, -19.035056 ], [ 27.703655, -19.031807 ], [ 27.728347, -19.027692 ], [ 27.730296, -19.034623 ], [ 27.731595, -19.037872 ], [ 27.731595, -19.045019 ], [ 27.727913, -19.047618 ], [ 27.719033, -19.043936 ], [ 27.709937, -19.036356 ], [ 27.707554, -19.036572 ] ] ] ] } },
{ "type": "Feature", "properties": { "ROW_ID": "719", "NAME": null, "NAME_CFU": null, "MAP_SHEET": "Nyamandlovu", "PROVINCE": null, "DISTRICT": "Lupane", "STATUS": "Commercial", "AREA_KM2": 0.938, "AREA_HA": 93.751, "AREA_ACRE": 231.663 }, "geometry": { "type": "MultiPolygon", "coordinates": [ [ [ [ 27.709937, -19.036356 ], [ 27.719033, -19.043936 ], [ 27.716434, -19.047402 ], [ 27.706038, -19.046535 ], [ 27.709937, -19.036356 ] ] ] ] } },
{ "type": "Feature", "properties": { "ROW_ID": "720", "NAME": null, "NAME_CFU": null, "MAP_SHEET": "Nyamandlovu", "PROVINCE": null, "DISTRICT": "Lupane", "STATUS": "Commercial", "AREA_KM2": 0.813, "AREA_HA": 81.305, "AREA_ACRE": 200.908 }, "geometry": { "type": "MultiPolygon", "coordinates": [ [ [ [ 27.706038, -19.046535 ], [ 27.704955, -19.048051 ], [ 27.700068, -19.048371 ], [ 27.697808, -19.044586 ], [ 27.702139, -19.041337 ], [ 27.707554, -19.036572 ], [ 27.709937, -19.036356 ], [ 27.706038, -19.046535 ] ] ] ] } },
{ "type": "Feature", "properties": { "ROW_ID": "721", "NAME": null, "NAME_CFU": null, "MAP_SHEET": "Nyamandlovu", "PROVINCE": null, "DISTRICT": "Lupane", "STATUS": "Commercial", "AREA_KM2": 0.831, "AREA_HA": 83.059, "AREA_ACRE": 205.244 }, "geometry": { "type": "MultiPolygon", "coordinates": [ [ [ [ 27.704955, -19.048051 ], [ 27.714268, -19.0513 ], [ 27.711019, -19.057798 ], [ 27.707554, -19.056498 ], [ 27.702139, -19.056282 ], [ 27.704955, -19.048051 ] ] ] ] } },
{ "type": "Feature", "properties": { "ROW_ID": "722", "NAME": null, "NAME_CFU": null, "MAP_SHEET": "Nyamandlovu", "PROVINCE": null, "DISTRICT": "Lupane", "STATUS": "Commercial", "AREA_KM2": 0.514, "AREA_HA": 51.4, "AREA_ACRE": 127.011 }, "geometry": { "type": "MultiPolygon", "coordinates": [ [ [ [ 27.716434, -19.047402 ], [ 27.719033, -19.043936 ], [ 27.727913, -19.047618 ], [ 27.726181, -19.051733 ], [ 27.716434, -19.047402 ] ] ] ] } },
{ "type": "Feature", "properties": { "ROW_ID": "723", "NAME": null, "NAME_CFU": null, "MAP_SHEET": "Nyamandlovu", "PROVINCE": null, "DISTRICT": "Lupane", "STATUS": "Commercial", "AREA_KM2": 0.76, "AREA_HA": 75.952, "AREA_ACRE": 187.681 }, "geometry": { "type": "MultiPolygon", "coordinates": [ [ [ [ 27.733978, -19.039171 ], [ 27.734904, -19.040634 ], [ 27.735927, -19.041337 ], [ 27.738191, -19.041574 ], [ 27.741949, -19.043452 ], [ 27.736794, -19.0513 ], [ 27.734195, -19.049568 ], [ 27.731595, -19.040687 ], [ 27.733978, -19.039171 ] ] ] ] } },
{ "type": "Feature", "properties": { "ROW_ID": "724", "NAME": null, "NAME_CFU": null, "MAP_SHEET": "Nyamandlovu", "PROVINCE": null, "DISTRICT": "Lupane", "STATUS": "Commercial", "AREA_KM2": 1.225, "AREA_HA": 122.529, "AREA_ACRE": 302.775 }, "geometry": { "type": "MultiPolygon", "coordinates": [ [ [ [ 27.741949, -19.043452 ], [ 27.74589, -19.04372 ], [ 27.747585, -19.042043 ], [ 27.749933, -19.042513 ], [ 27.748489, -19.045019 ], [ 27.748524, -19.04627 ], [ 27.749463, -19.049088 ], [ 27.741992, -19.056715 ], [ 27.736794, -19.0513 ], [ 27.741949, -19.043452 ] ] ] ] } },
{ "type": "Feature", "properties": { "ROW_ID": "725", "NAME": null, "NAME_CFU": null, "MAP_SHEET": "Nyamandlovu", "PROVINCE": null, "DISTRICT": "Lupane", "STATUS": "Commercial", "AREA_KM2": 1.203, "AREA_HA": 120.306, "AREA_ACRE": 297.282 }, "geometry": { "type": "MultiPolygon", "coordinates": [ [ [ [ 27.733978, -19.039171 ], [ 27.731595, -19.040687 ], [ 27.731595, -19.037872 ], [ 27.730296, -19.034623 ], [ 27.735711, -19.023793 ], [ 27.738661, -19.022317 ], [ 27.739393, -19.026609 ], [ 27.74007, -19.028892 ], [ 27.739131, -19.03171 ], [ 27.738661, -19.034998 ], [ 27.7396, -19.037816 ], [ 27.736144, -19.037655 ], [ 27.733978, -19.039171 ] ] ] ] } },
{ "type": "Feature", "properties": { "ROW_ID": "726", "NAME": null, "NAME_CFU": null, "MAP_SHEET": "Nyamandlovu", "PROVINCE": null, "DISTRICT": "Lupane", "STATUS": "Commercial", "AREA_KM2": 0.617, "AREA_HA": 61.685, "AREA_ACRE": 152.427 }, "geometry": { "type": "MultiPolygon", "coordinates": [ [ [ [ 27.741992, -19.056715 ], [ 27.748489, -19.049784 ], [ 27.750006, -19.0513 ], [ 27.750403, -19.050028 ], [ 27.753038, -19.050001 ], [ 27.744374, -19.061913 ], [ 27.743508, -19.061047 ], [ 27.741992, -19.056715 ] ] ] ] } },
{ "type": "Feature", "properties": { "ROW_ID": "727", "NAME": null, "NAME_CFU": null, "MAP_SHEET": "Nyamandlovu", "PROVINCE": null, "DISTRICT": "Lupane", "STATUS": "Commercial", "AREA_KM2": 0.549, "AREA_HA": 54.939, "AREA_ACRE": 135.757 }, "geometry": { "type": "MultiPolygon", "coordinates": [ [ [ [ 27.716434, -19.047402 ], [ 27.726181, -19.051733 ], [ 27.724231, -19.056282 ], [ 27.715784, -19.05195 ], [ 27.716434, -19.047402 ] ] ] ] } },
{ "type": "Feature", "properties": { "ROW_ID": "728", "NAME": null, "NAME_CFU": null, "MAP_SHEET": "Nyamandlovu", "PROVINCE": null, "DISTRICT": "Lupane", "STATUS": "Commercial", "AREA_KM2": 0.491, "AREA_HA": 49.117, "AREA_ACRE": 121.371 }, "geometry": { "type": "MultiPolygon", "coordinates": [ [ [ [ 27.715784, -19.05195 ], [ 27.724231, -19.056282 ], [ 27.722499, -19.061263 ], [ 27.714268, -19.054982 ], [ 27.715784, -19.05195 ] ] ] ] } },
{ "type": "Feature", "properties": { "ROW_ID": "729", "NAME": null, "NAME_CFU": null, "MAP_SHEET": "Nyamandlovu", "PROVINCE": null, "DISTRICT": "Lupane", "STATUS": "Commercial", "AREA_KM2": 0.487, "AREA_HA": 48.654, "AREA_ACRE": 120.228 }, "geometry": { "type": "MultiPolygon", "coordinates": [ [ [ [ 27.714268, -19.054982 ], [ 27.722499, -19.061263 ], [ 27.720983, -19.064945 ], [ 27.712536, -19.058881 ], [ 27.714268, -19.054982 ] ] ] ] } },
{ "type": "Feature", "properties": { "ROW_ID": "730", "NAME": null, "NAME_CFU": null, "MAP_SHEET": "Nyamandlovu", "PROVINCE": null, "DISTRICT": "Lupane", "STATUS": "Commercial", "AREA_KM2": 0.698, "AREA_HA": 69.835, "AREA_ACRE": 172.567 }, "geometry": { "type": "MultiPolygon", "coordinates": [ [ [ [ 27.712102, -19.059964 ], [ 27.719683, -19.065379 ], [ 27.717734, -19.071226 ], [ 27.70972, -19.066678 ], [ 27.712102, -19.059964 ] ] ] ] } },
{ "type": "Feature", "properties": { "ROW_ID": "731", "NAME": null, "NAME_CFU": null, "MAP_SHEET": "Nyamandlovu", "PROVINCE": null, "DISTRICT": "Lupane", "STATUS": "Commercial", "AREA_KM2": 0.755, "AREA_HA": 75.463, "AREA_ACRE": 186.474 }, "geometry": { "type": "MultiPolygon", "coordinates": [ [ [ [ 27.70972, -19.066678 ], [ 27.717734, -19.071226 ], [ 27.714268, -19.078591 ], [ 27.707554, -19.072959 ], [ 27.70972, -19.066678 ] ] ] ] } },
{ "type": "Feature", "properties": { "ROW_ID": "732", "NAME": null, "NAME_CFU": null, "MAP_SHEET": "Nyamandlovu", "PROVINCE": null, "DISTRICT": "Lupane", "STATUS": "Commercial", "AREA_KM2": 0.515, "AREA_HA": 51.5, "AREA_ACRE": 127.259 }, "geometry": { "type": "MultiPolygon", "coordinates": [ [ [ [ 27.719033, -19.071443 ], [ 27.723798, -19.075342 ], [ 27.720116, -19.080323 ], [ 27.714268, -19.078591 ], [ 27.719033, -19.071443 ] ] ] ] } },
{ "type": "Feature", "properties": { "ROW_ID": "733", "NAME": null, "NAME_CFU": null, "MAP_SHEET": "Nyamandlovu", "PROVINCE": null, "DISTRICT": "Lupane", "STATUS": "Commercial", "AREA_KM2": 0.507, "AREA_HA": 50.735, "AREA_ACRE": 125.368 }, "geometry": { "type": "MultiPolygon", "coordinates": [ [ [ [ 27.723798, -19.075342 ], [ 27.719033, -19.071443 ], [ 27.719683, -19.065379 ], [ 27.72748, -19.070793 ], [ 27.723798, -19.075342 ] ] ] ] } },
{ "type": "Feature", "properties": { "ROW_ID": "734", "NAME": null, "NAME_CFU": null, "MAP_SHEET": "Nyamandlovu", "PROVINCE": null, "DISTRICT": "Lupane", "STATUS": "Commercial", "AREA_KM2": 0.562, "AREA_HA": 56.243, "AREA_ACRE": 138.979 }, "geometry": { "type": "MultiPolygon", "coordinates": [ [ [ [ 27.720983, -19.064945 ], [ 27.725098, -19.058881 ], [ 27.731162, -19.06213 ], [ 27.726397, -19.067978 ], [ 27.720983, -19.064945 ] ] ] ] } },
{ "type": "Feature", "properties": { "ROW_ID": "735", "NAME": null, "NAME_CFU": null, "MAP_SHEET": "Nyamandlovu", "PROVINCE": null, "DISTRICT": "Lupane", "STATUS": "Commercial", "AREA_KM2": 0.495, "AREA_HA": 49.527, "AREA_ACRE": 122.385 }, "geometry": { "type": "MultiPolygon", "coordinates": [ [ [ [ 27.731162, -19.06213 ], [ 27.735277, -19.064512 ], [ 27.732895, -19.067544 ], [ 27.732245, -19.072309 ], [ 27.726397, -19.067978 ], [ 27.731162, -19.06213 ] ] ] ] } },
{ "type": "Feature", "properties": { "ROW_ID": "736", "NAME": null, "NAME_CFU": null, "MAP_SHEET": "Nyamandlovu", "PROVINCE": null, "DISTRICT": "Lupane", "STATUS": "Commercial", "AREA_KM2": 0.425, "AREA_HA": 42.481, "AREA_ACRE": 104.972 }, "geometry": { "type": "MultiPolygon", "coordinates": [ [ [ [ 27.735277, -19.064512 ], [ 27.743291, -19.070577 ], [ 27.740259, -19.072959 ], [ 27.732895, -19.067544 ], [ 27.735277, -19.064512 ] ] ] ] } },
{ "type": "Feature", "properties": { "ROW_ID": "737", "NAME": null, "NAME_CFU": null, "MAP_SHEET": "Nyamandlovu", "PROVINCE": null, "DISTRICT": "Lupane", "STATUS": "Commercial", "AREA_KM2": 0.395, "AREA_HA": 39.528, "AREA_ACRE": 97.675 }, "geometry": { "type": "MultiPolygon", "coordinates": [ [ [ [ 27.740259, -19.072959 ], [ 27.73831, -19.076425 ], [ 27.732245, -19.072309 ], [ 27.732895, -19.067544 ], [ 27.740259, -19.072959 ] ] ] ] } },
{ "type": "Feature", "properties": { "ROW_ID": "738", "NAME": null, "NAME_CFU": null, "MAP_SHEET": "Nyamandlovu", "PROVINCE": null, "DISTRICT": "Lupane", "STATUS": "Commercial", "AREA_KM2": 0.381, "AREA_HA": 38.13, "AREA_ACRE": 94.222 }, "geometry": { "type": "MultiPolygon", "coordinates": [ [ [ [ 27.735277, -19.064512 ], [ 27.738526, -19.06213 ], [ 27.744591, -19.067328 ], [ 27.743291, -19.070577 ], [ 27.735277, -19.064512 ] ] ] ] } },
{ "type": "Feature", "properties": { "ROW_ID": "739", "NAME": null, "NAME_CFU": null, "MAP_SHEET": "Nyamandlovu", "PROVINCE": null, "DISTRICT": "Lupane", "STATUS": "Commercial", "AREA_KM2": 0.507, "AREA_HA": 50.739, "AREA_ACRE": 125.378 }, "geometry": { "type": "MultiPolygon", "coordinates": [ [ [ [ 27.738526, -19.06213 ], [ 27.735277, -19.064512 ], [ 27.726614, -19.059314 ], [ 27.736794, -19.057581 ], [ 27.738526, -19.06213 ] ] ] ] } },
{ "type": "Feature", "properties": { "ROW_ID": "740", "NAME": null, "NAME_CFU": null, "MAP_SHEET": "Nyamandlovu", "PROVINCE": null, "DISTRICT": "Lupane", "STATUS": "Commercial", "AREA_KM2": 0.552, "AREA_HA": 55.174, "AREA_ACRE": 136.339 }, "geometry": { "type": "MultiPolygon", "coordinates": [ [ [ [ 27.720116, -19.080323 ], [ 27.72748, -19.070793 ], [ 27.730296, -19.073392 ], [ 27.724881, -19.081839 ], [ 27.720116, -19.080323 ] ] ] ] } },
{ "type": "Feature", "properties": { "ROW_ID": "741", "NAME": null, "NAME_CFU": null, "MAP_SHEET": "Nyamandlovu", "PROVINCE": null, "DISTRICT": "Lupane", "STATUS": "Commercial", "AREA_KM2": 0.549, "AREA_HA": 54.873, "AREA_ACRE": 135.595 }, "geometry": { "type": "MultiPolygon", "coordinates": [ [ [ [ 27.727697, -19.078591 ], [ 27.730296, -19.073392 ], [ 27.736794, -19.077074 ], [ 27.732462, -19.083355 ], [ 27.727697, -19.078591 ] ] ] ] } },
{ "type": "Feature", "properties": { "ROW_ID": "742", "NAME": null, "NAME_CFU": null, "MAP_SHEET": "Nyamandlovu", "PROVINCE": null, "DISTRICT": "Lupane", "STATUS": "Commercial", "AREA_KM2": 0.768, "AREA_HA": 76.807, "AREA_ACRE": 189.794 }, "geometry": { "type": "MultiPolygon", "coordinates": [ [ [ [ 27.753038, -19.050001 ], [ 27.75542, -19.052167 ], [ 27.756978, -19.053315 ], [ 27.753688, -19.053466 ], [ 27.753221, -19.054724 ], [ 27.753691, -19.057542 ], [ 27.746757, -19.065812 ], [ 27.744374, -19.061913 ], [ 27.753038, -19.050001 ] ] ] ] } },
{ "type": "Feature", "properties": { "ROW_ID": "743", "NAME": null, "NAME_CFU": null, "MAP_SHEET": "Nyamandlovu", "PROVINCE": null, "DISTRICT": "Lupane", "STATUS": "Commercial", "AREA_KM2": 0.727, "AREA_HA": 72.687, "AREA_ACRE": 179.614 }, "geometry": { "type": "MultiPolygon", "coordinates": [ [ [ [ 27.753691, -19.057542 ], [ 27.755204, -19.059097 ], [ 27.756509, -19.0613 ], [ 27.75737, -19.062996 ], [ 27.759327, -19.061769 ], [ 27.759796, -19.065057 ], [ 27.747623, -19.067111 ], [ 27.746757, -19.065812 ], [ 27.753691, -19.057542 ] ] ] ] } },
{ "type": "Feature", "properties": { "ROW_ID": "744", "NAME": null, "NAME_CFU": null, "MAP_SHEET": "Nyamandlovu", "PROVINCE": null, "DISTRICT": "Lupane", "STATUS": "Commercial", "AREA_KM2": 0.807, "AREA_HA": 80.743, "AREA_ACRE": 199.521 }, "geometry": { "type": "MultiPolygon", "coordinates": [ [ [ [ 27.759796, -19.065057 ], [ 27.763084, -19.066936 ], [ 27.761675, -19.069754 ], [ 27.748273, -19.071876 ], [ 27.747623, -19.067111 ], [ 27.759796, -19.065057 ] ] ] ] } },
{ "type": "Feature", "properties": { "ROW_ID": "745", "NAME": null, "NAME_CFU": null, "MAP_SHEET": "Nyamandlovu", "PROVINCE": null, "DISTRICT": "Lupane", "STATUS": "Commercial", "AREA_KM2": 0.474, "AREA_HA": 47.419, "AREA_ACRE": 117.176 }, "geometry": { "type": "MultiPolygon", "coordinates": [ [ [ [ 27.760185, -19.070144 ], [ 27.757153, -19.073826 ], [ 27.749139, -19.076858 ], [ 27.748273, -19.071876 ], [ 27.760185, -19.070144 ] ] ] ] } },
{ "type": "Feature", "properties": { "ROW_ID": "746", "NAME": null, "NAME_CFU": null, "MAP_SHEET": "Nyamandlovu", "PROVINCE": null, "DISTRICT": "Lupane", "STATUS": "Commercial", "AREA_KM2": 0.56, "AREA_HA": 55.976, "AREA_ACRE": 138.319 }, "geometry": { "type": "MultiPolygon", "coordinates": [ [ [ [ 27.757153, -19.073826 ], [ 27.758387, -19.077269 ], [ 27.75607, -19.080323 ], [ 27.752388, -19.083572 ], [ 27.749139, -19.076858 ], [ 27.757153, -19.073826 ] ] ] ] } },
{ "type": "Feature", "properties": { "ROW_ID": "747", "NAME": null, "NAME_CFU": null, "MAP_SHEET": "Nyamandlovu", "PROVINCE": null, "DISTRICT": "Lupane", "STATUS": "Commercial", "AREA_KM2": 0.58, "AREA_HA": 58.03, "AREA_ACRE": 143.395 }, "geometry": { "type": "MultiPolygon", "coordinates": [ [ [ [ 27.758387, -19.077269 ], [ 27.763001, -19.077724 ], [ 27.763001, -19.078374 ], [ 27.755204, -19.087904 ], [ 27.752388, -19.083572 ], [ 27.758387, -19.077269 ] ] ] ] } },
{ "type": "Feature", "properties": { "ROW_ID": "748", "NAME": null, "NAME_CFU": null, "MAP_SHEET": "Nyamandlovu", "PROVINCE": null, "DISTRICT": "Lupane", "STATUS": "Commercial", "AREA_KM2": 0.628, "AREA_HA": 62.778, "AREA_ACRE": 155.128 }, "geometry": { "type": "MultiPolygon", "coordinates": [ [ [ [ 27.755204, -19.087904 ], [ 27.763001, -19.078374 ], [ 27.763867, -19.082056 ], [ 27.763867, -19.085521 ], [ 27.758019, -19.091802 ], [ 27.755204, -19.087904 ] ] ] ] } },
{ "type": "Feature", "properties": { "ROW_ID": "749", "NAME": null, "NAME_CFU": null, "MAP_SHEET": "Nyamandlovu", "PROVINCE": null, "DISTRICT": "Lupane", "STATUS": "Commercial", "AREA_KM2": 0.327, "AREA_HA": 32.67, "AREA_ACRE": 80.73 }, "geometry": { "type": "MultiPolygon", "coordinates": [ [ [ [ 27.758019, -19.091802 ], [ 27.763867, -19.085521 ], [ 27.765383, -19.089203 ], [ 27.760835, -19.094185 ], [ 27.758019, -19.091802 ] ] ] ] } },
{ "type": "Feature", "properties": { "ROW_ID": "750", "NAME": null, "NAME_CFU": null, "MAP_SHEET": "Nyamandlovu", "PROVINCE": null, "DISTRICT": "Lupane", "STATUS": "Commercial", "AREA_KM2": 0.674, "AREA_HA": 67.423, "AREA_ACRE": 166.605 }, "geometry": { "type": "MultiPolygon", "coordinates": [ [ [ [ 27.732462, -19.083355 ], [ 27.736794, -19.077074 ], [ 27.742425, -19.081623 ], [ 27.736144, -19.08877 ], [ 27.732462, -19.083355 ] ] ] ] } },
{ "type": "Feature", "properties": { "ROW_ID": "751", "NAME": null, "NAME_CFU": null, "MAP_SHEET": "Nyamandlovu", "PROVINCE": null, "DISTRICT": "Lupane", "STATUS": "Commercial", "AREA_KM2": 0.64, "AREA_HA": 63.964, "AREA_ACRE": 158.059 }, "geometry": { "type": "MultiPolygon", "coordinates": [ [ [ [ 27.736144, -19.08877 ], [ 27.742425, -19.081623 ], [ 27.74654, -19.085521 ], [ 27.739393, -19.093102 ], [ 27.736144, -19.08877 ] ] ] ] } },
{ "type": "Feature", "properties": { "ROW_ID": "752", "NAME": null, "NAME_CFU": null, "MAP_SHEET": "Nyamandlovu", "PROVINCE": null, "DISTRICT": "Lupane", "STATUS": "Commercial", "AREA_KM2": 0.557, "AREA_HA": 55.684, "AREA_ACRE": 137.599 }, "geometry": { "type": "MultiPolygon", "coordinates": [ [ [ [ 27.739393, -19.093102 ], [ 27.74654, -19.085521 ], [ 27.749572, -19.08812 ], [ 27.741775, -19.097217 ], [ 27.739393, -19.093102 ] ] ] ] } },
{ "type": "Feature", "properties": { "ROW_ID": "753", "NAME": null, "NAME_CFU": null, "MAP_SHEET": "Nyamandlovu", "PROVINCE": null, "DISTRICT": "Lupane", "STATUS": "Commercial", "AREA_KM2": 0.581, "AREA_HA": 58.1, "AREA_ACRE": 143.569 }, "geometry": { "type": "MultiPolygon", "coordinates": [ [ [ [ 27.741775, -19.097217 ], [ 27.745457, -19.092452 ], [ 27.750439, -19.097217 ], [ 27.745457, -19.103931 ], [ 27.741775, -19.097217 ] ] ] ] } },
{ "type": "Feature", "properties": { "ROW_ID": "754", "NAME": null, "NAME_CFU": null, "MAP_SHEET": "Nyamandlovu", "PROVINCE": null, "DISTRICT": "Lupane", "STATUS": "Commercial", "AREA_KM2": 0.307, "AREA_HA": 30.696, "AREA_ACRE": 75.851 }, "geometry": { "type": "MultiPolygon", "coordinates": [ [ [ [ 27.745457, -19.092452 ], [ 27.748923, -19.089853 ], [ 27.753038, -19.094618 ], [ 27.750439, -19.097217 ], [ 27.745457, -19.092452 ] ] ] ] } },
{ "type": "Feature", "properties": { "ROW_ID": "755", "NAME": null, "NAME_CFU": null, "MAP_SHEET": "Nyamandlovu", "PROVINCE": null, "DISTRICT": "Lupane", "STATUS": "Commercial", "AREA_KM2": 0.722, "AREA_HA": 72.178, "AREA_ACRE": 178.357 }, "geometry": { "type": "MultiPolygon", "coordinates": [ [ [ [ 27.753038, -19.094618 ], [ 27.756287, -19.097867 ], [ 27.74589, -19.109346 ], [ 27.742642, -19.108696 ], [ 27.753038, -19.094618 ] ] ] ] } },
{ "type": "Feature", "properties": { "ROW_ID": "756", "NAME": null, "NAME_CFU": null, "MAP_SHEET": "Nyamandlovu", "PROVINCE": null, "DISTRICT": "Lupane", "STATUS": "Commercial", "AREA_KM2": 0.203, "AREA_HA": 20.334, "AREA_ACRE": 50.246 }, "geometry": { "type": "MultiPolygon", "coordinates": [ [ [ [ 27.756287, -19.097867 ], [ 27.753904, -19.095484 ], [ 27.75607, -19.092019 ], [ 27.758019, -19.094402 ], [ 27.760402, -19.095701 ], [ 27.756287, -19.097867 ] ] ] ] } },
{ "type": "Feature", "properties": { "ROW_ID": "757", "NAME": null, "NAME_CFU": null, "MAP_SHEET": "Nyamandlovu", "PROVINCE": null, "DISTRICT": "Lupane", "STATUS": "Commercial", "AREA_KM2": 0.338, "AREA_HA": 33.793, "AREA_ACRE": 83.505 }, "geometry": { "type": "MultiPolygon", "coordinates": [ [ [ [ 27.746324, -19.073826 ], [ 27.748056, -19.07924 ], [ 27.745457, -19.082273 ], [ 27.741342, -19.077941 ], [ 27.746324, -19.073826 ] ] ] ] } },
{ "type": "Feature", "properties": { "ROW_ID": "758", "NAME": null, "NAME_CFU": null, "MAP_SHEET": "Nyamandlovu", "PROVINCE": null, "DISTRICT": "Lupane", "STATUS": "Commercial", "AREA_KM2": 1.649, "AREA_HA": 164.942, "AREA_ACRE": 407.58 }, "geometry": { "type": "MultiPolygon", "coordinates": [ [ [ [ 27.74589, -19.109346 ], [ 27.756287, -19.097867 ], [ 27.760402, -19.095701 ], [ 27.760835, -19.094185 ], [ 27.766033, -19.100033 ], [ 27.764517, -19.101549 ], [ 27.758669, -19.097867 ], [ 27.756287, -19.100683 ], [ 27.760618, -19.105448 ], [ 27.751088, -19.115411 ], [ 27.74589, -19.109346 ] ] ] ] } },
{ "type": "Feature", "properties": { "ROW_ID": "759", "NAME": null, "NAME_CFU": null, "MAP_SHEET": "Nyamandlovu", "PROVINCE": null, "DISTRICT": "Lupane", "STATUS": "Commercial", "AREA_KM2": 0.355, "AREA_HA": 35.462, "AREA_ACRE": 87.628 }, "geometry": { "type": "MultiPolygon", "coordinates": [ [ [ [ 27.760618, -19.105448 ], [ 27.756287, -19.100683 ], [ 27.758669, -19.097867 ], [ 27.764517, -19.101549 ], [ 27.760618, -19.105448 ] ] ] ] } },
{ "type": "Feature", "properties": { "ROW_ID": "760", "NAME": null, "NAME_CFU": null, "MAP_SHEET": "Nyamandlovu", "PROVINCE": null, "DISTRICT": "Lupane", "STATUS": "Commercial", "AREA_KM2": 4.074, "AREA_HA": 407.406, "AREA_ACRE": 1006.722 }, "geometry": { "type": "MultiPolygon", "coordinates": [ [ [ [ 27.751088, -19.115411 ], [ 27.766033, -19.100033 ], [ 27.772747, -19.094835 ], [ 27.773886, -19.096055 ], [ 27.772008, -19.098873 ], [ 27.773886, -19.101691 ], [ 27.782277, -19.103498 ], [ 27.762135, -19.122342 ], [ 27.751088, -19.115411 ] ] ] ] } },
{ "type": "Feature", "properties": { "ROW_ID": "761", "NAME": null, "NAME_CFU": null, "MAP_SHEET": "Nyamandlovu", "PROVINCE": null, "DISTRICT": "Lupane", "STATUS": "Commercial", "AREA_KM2": 8.893, "AREA_HA": 889.276, "AREA_ACRE": 2197.449 }, "geometry": { "type": "MultiPolygon", "coordinates": [ [ [ [ 27.763217, -19.122125 ], [ 27.782277, -19.103498 ], [ 27.787037, -19.10357 ], [ 27.786568, -19.111085 ], [ 27.789386, -19.114842 ], [ 27.791807, -19.115627 ], [ 27.798779, -19.114373 ], [ 27.804803, -19.120609 ], [ 27.809581, -19.123766 ], [ 27.790291, -19.137936 ], [ 27.763217, -19.122125 ] ] ] ] } },
{ "type": "Feature", "properties": { "ROW_ID": "762", "NAME": null, "NAME_CFU": null, "MAP_SHEET": "Nyamandlovu", "PROVINCE": null, "DISTRICT": "Lupane", "STATUS": "Commercial", "AREA_KM2": 0.897, "AREA_HA": 89.673, "AREA_ACRE": 221.587 }, "geometry": { "type": "MultiPolygon", "coordinates": [ [ [ [ 27.790291, -19.137936 ], [ 27.801987, -19.130139 ], [ 27.807835, -19.133388 ], [ 27.799821, -19.139452 ], [ 27.790291, -19.137936 ] ] ] ] } },
{ "type": "Feature", "properties": { "ROW_ID": "763", "NAME": null, "NAME_CFU": null, "MAP_SHEET": "Nyamandlovu", "PROVINCE": null, "DISTRICT": "Lupane", "STATUS": "Commercial", "AREA_KM2": 0.587, "AREA_HA": 58.685, "AREA_ACRE": 145.015 }, "geometry": { "type": "MultiPolygon", "coordinates": [ [ [ [ 27.790291, -19.137936 ], [ 27.798522, -19.139452 ], [ 27.790724, -19.145733 ], [ 27.785743, -19.141401 ], [ 27.790291, -19.137936 ] ] ] ] } },
{ "type": "Feature", "properties": { "ROW_ID": "764", "NAME": null, "NAME_CFU": null, "MAP_SHEET": "Nyamandlovu", "PROVINCE": null, "DISTRICT": "Lupane", "STATUS": "Commercial", "AREA_KM2": 0.756, "AREA_HA": 75.591, "AREA_ACRE": 186.791 }, "geometry": { "type": "MultiPolygon", "coordinates": [ [ [ [ 27.785743, -19.141401 ], [ 27.780978, -19.145517 ], [ 27.775346, -19.142918 ], [ 27.785093, -19.135337 ], [ 27.790291, -19.137936 ], [ 27.785743, -19.141401 ] ] ] ] } },
{ "type": "Feature", "properties": { "ROW_ID": "765", "NAME": null, "NAME_CFU": null, "MAP_SHEET": "Nyamandlovu", "PROVINCE": null, "DISTRICT": "Lupane", "STATUS": "Commercial", "AREA_KM2": 0.766, "AREA_HA": 76.556, "AREA_ACRE": 189.174 }, "geometry": { "type": "MultiPolygon", "coordinates": [ [ [ [ 27.775346, -19.142918 ], [ 27.772531, -19.141401 ], [ 27.777512, -19.131438 ], [ 27.785093, -19.135337 ], [ 27.775346, -19.142918 ] ] ] ] } },
{ "type": "Feature", "properties": { "ROW_ID": "766", "NAME": null, "NAME_CFU": null, "MAP_SHEET": "Nyamandlovu", "PROVINCE": null, "DISTRICT": "Lupane", "STATUS": "Commercial", "AREA_KM2": 1.808, "AREA_HA": 180.771, "AREA_ACRE": 446.694 }, "geometry": { "type": "MultiPolygon", "coordinates": [ [ [ [ 27.772531, -19.141401 ], [ 27.755853, -19.134471 ], [ 27.765817, -19.124291 ], [ 27.766899, -19.124724 ], [ 27.766899, -19.137936 ], [ 27.77383, -19.128406 ], [ 27.777512, -19.131438 ], [ 27.772531, -19.141401 ] ] ] ] } },
{ "type": "Feature", "properties": { "ROW_ID": "767", "NAME": null, "NAME_CFU": null, "MAP_SHEET": "Nyamandlovu", "PROVINCE": null, "DISTRICT": "Lupane", "STATUS": "Commercial", "AREA_KM2": 0.535, "AREA_HA": 53.486, "AREA_ACRE": 132.166 }, "geometry": { "type": "MultiPolygon", "coordinates": [ [ [ [ 27.77383, -19.128406 ], [ 27.766899, -19.137936 ], [ 27.766899, -19.124724 ], [ 27.77383, -19.128406 ] ] ] ] } },
{ "type": "Feature", "properties": { "ROW_ID": "768", "NAME": null, "NAME_CFU": null, "MAP_SHEET": "Nyamandlovu", "PROVINCE": null, "DISTRICT": "Lupane", "STATUS": "Commercial", "AREA_KM2": 0.783, "AREA_HA": 78.288, "AREA_ACRE": 193.454 }, "geometry": { "type": "MultiPolygon", "coordinates": [ [ [ [ 27.763217, -19.122125 ], [ 27.765817, -19.124291 ], [ 27.755853, -19.134471 ], [ 27.750439, -19.131871 ], [ 27.763217, -19.122125 ] ] ] ] } },
{ "type": "Feature", "properties": { "ROW_ID": "769", "NAME": null, "NAME_CFU": null, "MAP_SHEET": "Nyamandlovu", "PROVINCE": null, "DISTRICT": "Lupane", "STATUS": "Commercial", "AREA_KM2": 1.056, "AREA_HA": 105.568, "AREA_ACRE": 260.864 }, "geometry": { "type": "MultiPolygon", "coordinates": [ [ [ [ 27.762135, -19.122342 ], [ 27.750439, -19.131871 ], [ 27.746324, -19.127756 ], [ 27.755637, -19.11866 ], [ 27.762135, -19.122342 ] ] ] ] } },
{ "type": "Feature", "properties": { "ROW_ID": "770", "NAME": null, "NAME_CFU": null, "MAP_SHEET": "Nyamandlovu", "PROVINCE": null, "DISTRICT": "Lupane", "STATUS": "Commercial", "AREA_KM2": 0.818, "AREA_HA": 81.768, "AREA_ACRE": 202.054 }, "geometry": { "type": "MultiPolygon", "coordinates": [ [ [ [ 27.755637, -19.11866 ], [ 27.746324, -19.127756 ], [ 27.742208, -19.124074 ], [ 27.751088, -19.115411 ], [ 27.755637, -19.11866 ] ] ] ] } },
{ "type": "Feature", "properties": { "ROW_ID": "771", "NAME": null, "NAME_CFU": null, "MAP_SHEET": "Nyamandlovu", "PROVINCE": null, "DISTRICT": "Lupane", "STATUS": "Commercial", "AREA_KM2": 0.616, "AREA_HA": 61.589, "AREA_ACRE": 152.189 }, "geometry": { "type": "MultiPolygon", "coordinates": [ [ [ [ 27.792457, -19.147033 ], [ 27.799821, -19.139452 ], [ 27.80372, -19.145083 ], [ 27.796356, -19.149415 ], [ 27.792457, -19.147033 ] ] ] ] } },
{ "type": "Feature", "properties": { "ROW_ID": "772", "NAME": null, "NAME_CFU": null, "MAP_SHEET": "Nyamandlovu", "PROVINCE": null, "DISTRICT": "Lupane", "STATUS": "Commercial", "AREA_KM2": 0.422, "AREA_HA": 42.186, "AREA_ACRE": 104.243 }, "geometry": { "type": "MultiPolygon", "coordinates": [ [ [ [ 27.80372, -19.145083 ], [ 27.799821, -19.139452 ], [ 27.806102, -19.135987 ], [ 27.806968, -19.142484 ], [ 27.80372, -19.145083 ] ] ] ] } },
{ "type": "Feature", "properties": { "ROW_ID": "773", "NAME": null, "NAME_CFU": null, "MAP_SHEET": "Nyamandlovu", "PROVINCE": null, "DISTRICT": "Lupane", "STATUS": "Commercial", "AREA_KM2": 0.902, "AREA_HA": 90.246, "AREA_ACRE": 223.002 }, "geometry": { "type": "MultiPolygon", "coordinates": [ [ [ [ 27.80372, -19.145083 ], [ 27.806968, -19.142484 ], [ 27.816065, -19.13642 ], [ 27.82148, -19.138369 ], [ 27.808701, -19.147682 ], [ 27.80372, -19.145083 ] ] ] ] } },
{ "type": "Feature", "properties": { "ROW_ID": "774", "NAME": null, "NAME_CFU": null, "MAP_SHEET": "Nyamandlovu", "PROVINCE": null, "DISTRICT": "Lupane", "STATUS": "Commercial", "AREA_KM2": 0.844, "AREA_HA": 84.414, "AREA_ACRE": 208.591 }, "geometry": { "type": "MultiPolygon", "coordinates": [ [ [ [ 27.808701, -19.147682 ], [ 27.82148, -19.138369 ], [ 27.827111, -19.140535 ], [ 27.81325, -19.149415 ], [ 27.808701, -19.147682 ] ] ] ] } },
{ "type": "Feature", "properties": { "ROW_ID": "775", "NAME": null, "NAME_CFU": null, "MAP_SHEET": "Nyamandlovu", "PROVINCE": null, "DISTRICT": "Lupane", "STATUS": "Commercial", "AREA_KM2": 1.065, "AREA_HA": 106.546, "AREA_ACRE": 263.28 }, "geometry": { "type": "MultiPolygon", "coordinates": [ [ [ [ 27.816065, -19.13642 ], [ 27.829277, -19.127323 ], [ 27.831656, -19.126584 ], [ 27.834944, -19.126584 ], [ 27.824296, -19.139452 ], [ 27.816065, -19.13642 ] ] ] ] } },
{ "type": "Feature", "properties": { "ROW_ID": "776", "NAME": null, "NAME_CFU": null, "MAP_SHEET": "Nyamandlovu", "PROVINCE": null, "DISTRICT": "Lupane", "STATUS": "Commercial", "AREA_KM2": 0.696, "AREA_HA": 69.649, "AREA_ACRE": 172.106 }, "geometry": { "type": "MultiPolygon", "coordinates": [ [ [ [ 27.816065, -19.13642 ], [ 27.816932, -19.126457 ], [ 27.824079, -19.127323 ], [ 27.829277, -19.127323 ], [ 27.816065, -19.13642 ] ] ] ] } },
{ "type": "Feature", "properties": { "ROW_ID": "777", "NAME": null, "NAME_CFU": null, "MAP_SHEET": "Nyamandlovu", "PROVINCE": null, "DISTRICT": "Lupane", "STATUS": "Commercial", "AREA_KM2": 0.422, "AREA_HA": 42.196, "AREA_ACRE": 104.269 }, "geometry": { "type": "MultiPolygon", "coordinates": [ [ [ [ 27.816932, -19.126457 ], [ 27.816065, -19.13642 ], [ 27.809134, -19.132738 ], [ 27.816932, -19.126457 ] ] ] ] } },
{ "type": "Feature", "properties": { "ROW_ID": "778", "NAME": null, "NAME_CFU": null, "MAP_SHEET": "Nyamandlovu", "PROVINCE": null, "DISTRICT": "Lupane", "STATUS": "Commercial", "AREA_KM2": 0.703, "AREA_HA": 70.276, "AREA_ACRE": 173.655 }, "geometry": { "type": "MultiPolygon", "coordinates": [ [ [ [ 27.815199, -19.12624 ], [ 27.807835, -19.133388 ], [ 27.801987, -19.130139 ], [ 27.809581, -19.123766 ], [ 27.815199, -19.12624 ] ] ] ] } },
{ "type": "Feature", "properties": { "ROW_ID": "779", "NAME": null, "NAME_CFU": null, "MAP_SHEET": "Nyamandlovu", "PROVINCE": null, "DISTRICT": "Lupane", "STATUS": "Commercial", "AREA_KM2": 0.926, "AREA_HA": 92.632, "AREA_ACRE": 228.898 }, "geometry": { "type": "MultiPolygon", "coordinates": [ [ [ [ 27.824296, -19.139452 ], [ 27.834944, -19.126584 ], [ 27.835991, -19.127107 ], [ 27.833535, -19.13269 ], [ 27.836353, -19.135038 ], [ 27.83166, -19.142051 ], [ 27.824296, -19.139452 ] ] ] ] } },
{ "type": "Feature", "properties": { "ROW_ID": "780", "NAME": null, "NAME_CFU": null, "MAP_SHEET": "Nyamandlovu", "PROVINCE": null, "DISTRICT": "Lupane", "STATUS": "Commercial", "AREA_KM2": 1.304, "AREA_HA": 130.358, "AREA_ACRE": 322.121 }, "geometry": { "type": "MultiPolygon", "coordinates": [ [ [ [ 27.7656, -19.140535 ], [ 27.762135, -19.152014 ], [ 27.758019, -19.156563 ], [ 27.752605, -19.151148 ], [ 27.761701, -19.138802 ], [ 27.7656, -19.140535 ] ] ] ] } },
{ "type": "Feature", "properties": { "ROW_ID": "781", "NAME": null, "NAME_CFU": null, "MAP_SHEET": "Nyamandlovu", "PROVINCE": null, "DISTRICT": "Lupane", "STATUS": "Commercial", "AREA_KM2": 1.095, "AREA_HA": 109.51, "AREA_ACRE": 270.605 }, "geometry": { "type": "MultiPolygon", "coordinates": [ [ [ [ 27.761701, -19.138802 ], [ 27.752605, -19.151148 ], [ 27.74654, -19.14595 ], [ 27.757153, -19.136636 ], [ 27.761701, -19.138802 ] ] ] ] } },
{ "type": "Feature", "properties": { "ROW_ID": "782", "NAME": null, "NAME_CFU": null, "MAP_SHEET": "Nyamandlovu", "PROVINCE": null, "DISTRICT": "Lupane", "STATUS": "Commercial", "AREA_KM2": 0.658, "AREA_HA": 65.786, "AREA_ACRE": 162.561 }, "geometry": { "type": "MultiPolygon", "coordinates": [ [ [ [ 27.75607, -19.13707 ], [ 27.74654, -19.14595 ], [ 27.742642, -19.142051 ], [ 27.751955, -19.135553 ], [ 27.75607, -19.13707 ] ] ] ] } },
{ "type": "Feature", "properties": { "ROW_ID": "783", "NAME": null, "NAME_CFU": null, "MAP_SHEET": "Nyamandlovu", "PROVINCE": null, "DISTRICT": "Lupane", "STATUS": "Commercial", "AREA_KM2": 0.46, "AREA_HA": 46.028, "AREA_ACRE": 113.737 }, "geometry": { "type": "MultiPolygon", "coordinates": [ [ [ [ 27.751955, -19.135553 ], [ 27.742642, -19.142051 ], [ 27.739609, -19.139885 ], [ 27.749139, -19.133388 ], [ 27.751955, -19.135553 ] ] ] ] } },
{ "type": "Feature", "properties": { "ROW_ID": "784", "NAME": null, "NAME_CFU": null, "MAP_SHEET": "Nyamandlovu", "PROVINCE": null, "DISTRICT": "Lupane", "STATUS": "Commercial", "AREA_KM2": 0.604, "AREA_HA": 60.387, "AREA_ACRE": 149.219 }, "geometry": { "type": "MultiPolygon", "coordinates": [ [ [ [ 27.749139, -19.133388 ], [ 27.739609, -19.139885 ], [ 27.736577, -19.136853 ], [ 27.74589, -19.129922 ], [ 27.749139, -19.133388 ] ] ] ] } },
{ "type": "Feature", "properties": { "ROW_ID": "785", "NAME": null, "NAME_CFU": null, "MAP_SHEET": "Nyamandlovu", "PROVINCE": null, "DISTRICT": "Lupane", "STATUS": "Commercial", "AREA_KM2": 0.46, "AREA_HA": 46.029, "AREA_ACRE": 113.74 }, "geometry": { "type": "MultiPolygon", "coordinates": [ [ [ [ 27.742208, -19.124074 ], [ 27.732462, -19.133171 ], [ 27.730729, -19.130789 ], [ 27.739609, -19.122125 ], [ 27.742208, -19.124074 ] ] ] ] } },
{ "type": "Feature", "properties": { "ROW_ID": "786", "NAME": null, "NAME_CFU": null, "MAP_SHEET": "Nyamandlovu", "PROVINCE": null, "DISTRICT": "Lupane", "STATUS": "Commercial", "AREA_KM2": 0.572, "AREA_HA": 57.239, "AREA_ACRE": 141.441 }, "geometry": { "type": "MultiPolygon", "coordinates": [ [ [ [ 27.739609, -19.122125 ], [ 27.730729, -19.130789 ], [ 27.72813, -19.128406 ], [ 27.735711, -19.119526 ], [ 27.739609, -19.122125 ] ] ] ] } },
{ "type": "Feature", "properties": { "ROW_ID": "787", "NAME": null, "NAME_CFU": null, "MAP_SHEET": "Nyamandlovu", "PROVINCE": null, "DISTRICT": "Lupane", "STATUS": "Commercial", "AREA_KM2": 0.453, "AREA_HA": 45.272, "AREA_ACRE": 111.869 }, "geometry": { "type": "MultiPolygon", "coordinates": [ [ [ [ 27.735711, -19.119526 ], [ 27.72813, -19.128406 ], [ 27.725314, -19.12559 ], [ 27.733545, -19.117793 ], [ 27.735711, -19.119526 ] ] ] ] } },
{ "type": "Feature", "properties": { "ROW_ID": "788", "NAME": null, "NAME_CFU": null, "MAP_SHEET": "Nyamandlovu", "PROVINCE": null, "DISTRICT": "Lupane", "STATUS": "Commercial", "AREA_KM2": 0.446, "AREA_HA": 44.638, "AREA_ACRE": 110.302 }, "geometry": { "type": "MultiPolygon", "coordinates": [ [ [ [ 27.733545, -19.117793 ], [ 27.725314, -19.12559 ], [ 27.723148, -19.123208 ], [ 27.731162, -19.115194 ], [ 27.733545, -19.117793 ] ] ] ] } },
{ "type": "Feature", "properties": { "ROW_ID": "789", "NAME": null, "NAME_CFU": null, "MAP_SHEET": "Nyamandlovu", "PROVINCE": null, "DISTRICT": "Lupane", "STATUS": "Commercial", "AREA_KM2": 0.501, "AREA_HA": 50.086, "AREA_ACRE": 123.766 }, "geometry": { "type": "MultiPolygon", "coordinates": [ [ [ [ 27.731162, -19.115194 ], [ 27.723148, -19.123208 ], [ 27.720333, -19.120825 ], [ 27.727913, -19.112812 ], [ 27.731162, -19.115194 ] ] ] ] } },
{ "type": "Feature", "properties": { "ROW_ID": "790", "NAME": null, "NAME_CFU": null, "MAP_SHEET": "Nyamandlovu", "PROVINCE": null, "DISTRICT": "Lupane", "STATUS": "Commercial", "AREA_KM2": 0.448, "AREA_HA": 44.774, "AREA_ACRE": 110.639 }, "geometry": { "type": "MultiPolygon", "coordinates": [ [ [ [ 27.727913, -19.112812 ], [ 27.720333, -19.120825 ], [ 27.716434, -19.120392 ], [ 27.725964, -19.110429 ], [ 27.727913, -19.112812 ] ] ] ] } },
{ "type": "Feature", "properties": { "ROW_ID": "791", "NAME": null, "NAME_CFU": null, "MAP_SHEET": "Nyamandlovu", "PROVINCE": null, "DISTRICT": "Lupane", "STATUS": "Commercial", "AREA_KM2": 0.147, "AREA_HA": 14.689, "AREA_ACRE": 36.297 }, "geometry": { "type": "MultiPolygon", "coordinates": [ [ [ [ 27.725964, -19.110429 ], [ 27.731379, -19.104148 ], [ 27.727913, -19.112812 ], [ 27.725964, -19.110429 ] ] ] ] } },
{ "type": "Feature", "properties": { "ROW_ID": "792", "NAME": null, "NAME_CFU": null, "MAP_SHEET": "Nyamandlovu", "PROVINCE": null, "DISTRICT": "Lupane", "STATUS": "Commercial", "AREA_KM2": 1.008, "AREA_HA": 100.813, "AREA_ACRE": 249.114 }, "geometry": { "type": "MultiPolygon", "coordinates": [ [ [ [ 27.716434, -19.120392 ], [ 27.714485, -19.119959 ], [ 27.71795, -19.109346 ], [ 27.720983, -19.110213 ], [ 27.728563, -19.102199 ], [ 27.731379, -19.104148 ], [ 27.716434, -19.120392 ] ] ] ] } },
{ "type": "Feature", "properties": { "ROW_ID": "793", "NAME": null, "NAME_CFU": null, "MAP_SHEET": "Nyamandlovu", "PROVINCE": null, "DISTRICT": "Lupane", "STATUS": "Commercial", "AREA_KM2": 0.657, "AREA_HA": 65.709, "AREA_ACRE": 162.37 }, "geometry": { "type": "MultiPolygon", "coordinates": [ [ [ [ 27.714485, -19.119959 ], [ 27.710153, -19.119526 ], [ 27.714052, -19.106097 ], [ 27.71795, -19.109346 ], [ 27.714485, -19.119959 ] ] ] ] } },
{ "type": "Feature", "properties": { "ROW_ID": "794", "NAME": null, "NAME_CFU": null, "MAP_SHEET": "Nyamandlovu", "PROVINCE": null, "DISTRICT": "Lupane", "STATUS": "Commercial", "AREA_KM2": 0.572, "AREA_HA": 57.161, "AREA_ACRE": 141.248 }, "geometry": { "type": "MultiPolygon", "coordinates": [ [ [ [ 27.710153, -19.119526 ], [ 27.697591, -19.11801 ], [ 27.70019, -19.112595 ], [ 27.710153, -19.116927 ], [ 27.710153, -19.119526 ] ] ] ] } },
{ "type": "Feature", "properties": { "ROW_ID": "795", "NAME": null, "NAME_CFU": null, "MAP_SHEET": "Nyamandlovu", "PROVINCE": null, "DISTRICT": "Lupane", "STATUS": "Commercial", "AREA_KM2": 0.63, "AREA_HA": 63.025, "AREA_ACRE": 155.738 }, "geometry": { "type": "MultiPolygon", "coordinates": [ [ [ [ 27.70019, -19.112595 ], [ 27.702139, -19.106531 ], [ 27.711236, -19.113461 ], [ 27.710153, -19.116927 ], [ 27.70019, -19.112595 ] ] ] ] } },
{ "type": "Feature", "properties": { "ROW_ID": "796", "NAME": null, "NAME_CFU": null, "MAP_SHEET": "Nyamandlovu", "PROVINCE": null, "DISTRICT": "Lupane", "STATUS": "Commercial", "AREA_KM2": 0.561, "AREA_HA": 56.095, "AREA_ACRE": 138.614 }, "geometry": { "type": "MultiPolygon", "coordinates": [ [ [ [ 27.702139, -19.106531 ], [ 27.703222, -19.101982 ], [ 27.712319, -19.10913 ], [ 27.711236, -19.113461 ], [ 27.702139, -19.106531 ] ] ] ] } },
{ "type": "Feature", "properties": { "ROW_ID": "797", "NAME": null, "NAME_CFU": null, "MAP_SHEET": "Nyamandlovu", "PROVINCE": null, "DISTRICT": "Lupane", "STATUS": "Commercial", "AREA_KM2": 0.483, "AREA_HA": 48.265, "AREA_ACRE": 119.265 }, "geometry": { "type": "MultiPolygon", "coordinates": [ [ [ [ 27.703222, -19.101982 ], [ 27.705605, -19.09895 ], [ 27.714052, -19.106097 ], [ 27.712319, -19.10913 ], [ 27.703222, -19.101982 ] ] ] ] } },
{ "type": "Feature", "properties": { "ROW_ID": "798", "NAME": null, "NAME_CFU": null, "MAP_SHEET": "Nyamandlovu", "PROVINCE": null, "DISTRICT": "Lupane", "STATUS": "Commercial", "AREA_KM2": 0.468, "AREA_HA": 46.809, "AREA_ACRE": 115.669 }, "geometry": { "type": "MultiPolygon", "coordinates": [ [ [ [ 27.71795, -19.109346 ], [ 27.725531, -19.0996 ], [ 27.728563, -19.102199 ], [ 27.720983, -19.110213 ], [ 27.71795, -19.109346 ] ] ] ] } },
{ "type": "Feature", "properties": { "ROW_ID": "799", "NAME": null, "NAME_CFU": null, "MAP_SHEET": "Nyamandlovu", "PROVINCE": null, "DISTRICT": "Lupane", "STATUS": "Commercial", "AREA_KM2": 0.533, "AREA_HA": 53.299, "AREA_ACRE": 131.704 }, "geometry": { "type": "MultiPolygon", "coordinates": [ [ [ [ 27.71795, -19.109346 ], [ 27.716218, -19.107613 ], [ 27.721416, -19.096567 ], [ 27.725531, -19.0996 ], [ 27.71795, -19.109346 ] ] ] ] } },
{ "type": "Feature", "properties": { "ROW_ID": "800", "NAME": null, "NAME_CFU": null, "MAP_SHEET": "Nyamandlovu", "PROVINCE": null, "DISTRICT": "Lupane", "STATUS": "Commercial", "AREA_KM2": 0.457, "AREA_HA": 45.707, "AREA_ACRE": 112.945 }, "geometry": { "type": "MultiPolygon", "coordinates": [ [ [ [ 27.716218, -19.107613 ], [ 27.714052, -19.106097 ], [ 27.718384, -19.094185 ], [ 27.721416, -19.096567 ], [ 27.716218, -19.107613 ] ] ] ] } },
{ "type": "Feature", "properties": { "ROW_ID": "801", "NAME": null, "NAME_CFU": null, "MAP_SHEET": "Nyamandlovu", "PROVINCE": null, "DISTRICT": "Lupane", "STATUS": "Commercial", "AREA_KM2": 0.636, "AREA_HA": 63.583, "AREA_ACRE": 157.116 }, "geometry": { "type": "MultiPolygon", "coordinates": [ [ [ [ 27.718384, -19.094185 ], [ 27.714052, -19.106097 ], [ 27.711453, -19.08812 ], [ 27.718384, -19.094185 ] ] ] ] } },
{ "type": "Feature", "properties": { "ROW_ID": "802", "NAME": null, "NAME_CFU": null, "MAP_SHEET": "Nyamandlovu", "PROVINCE": null, "DISTRICT": "Lupane", "STATUS": "Commercial", "AREA_KM2": 0.308, "AREA_HA": 30.805, "AREA_ACRE": 76.12 }, "geometry": { "type": "MultiPolygon", "coordinates": [ [ [ [ 27.703872, -19.07924 ], [ 27.708637, -19.08054 ], [ 27.709503, -19.084438 ], [ 27.706471, -19.087904 ], [ 27.703872, -19.07924 ] ] ] ] } },
{ "type": "Feature", "properties": { "ROW_ID": "803", "NAME": null, "NAME_CFU": null, "MAP_SHEET": "Nyamandlovu", "PROVINCE": null, "DISTRICT": "Lupane", "STATUS": "Commercial", "AREA_KM2": 0.968, "AREA_HA": 96.828, "AREA_ACRE": 239.267 }, "geometry": { "type": "MultiPolygon", "coordinates": [ [ [ [ 27.693692, -19.11736 ], [ 27.710153, -19.119526 ], [ 27.710153, -19.12559 ], [ 27.694775, -19.121908 ], [ 27.693692, -19.11736 ] ] ] ] } },
{ "type": "Feature", "properties": { "ROW_ID": "804", "NAME": null, "NAME_CFU": null, "MAP_SHEET": "Nyamandlovu", "PROVINCE": null, "DISTRICT": "Lupane", "STATUS": "Commercial", "AREA_KM2": 1.128, "AREA_HA": 112.783, "AREA_ACRE": 278.693 }, "geometry": { "type": "MultiPolygon", "coordinates": [ [ [ [ 27.710153, -19.12559 ], [ 27.710803, -19.132954 ], [ 27.701923, -19.130789 ], [ 27.696291, -19.12689 ], [ 27.695858, -19.124724 ], [ 27.695858, -19.122125 ], [ 27.710153, -19.12559 ] ] ] ] } },
{ "type": "Feature", "properties": { "ROW_ID": "805", "NAME": null, "NAME_CFU": null, "MAP_SHEET": "Nyamandlovu", "PROVINCE": null, "DISTRICT": "Lupane", "STATUS": "Commercial", "AREA_KM2": 1.187, "AREA_HA": 118.663, "AREA_ACRE": 293.223 }, "geometry": { "type": "MultiPolygon", "coordinates": [ [ [ [ 27.710803, -19.132954 ], [ 27.711236, -19.142268 ], [ 27.703872, -19.145517 ], [ 27.701923, -19.142484 ], [ 27.702789, -19.136636 ], [ 27.703439, -19.134037 ], [ 27.701923, -19.130789 ], [ 27.710803, -19.132954 ] ] ] ] } },
{ "type": "Feature", "properties": { "ROW_ID": "806", "NAME": null, "NAME_CFU": null, "MAP_SHEET": "Nyamandlovu", "PROVINCE": null, "DISTRICT": "Lupane", "STATUS": "Commercial", "AREA_KM2": 1.063, "AREA_HA": 106.321, "AREA_ACRE": 262.726 }, "geometry": { "type": "MultiPolygon", "coordinates": [ [ [ [ 27.711236, -19.142268 ], [ 27.712752, -19.151148 ], [ 27.708637, -19.152014 ], [ 27.706688, -19.154397 ], [ 27.697591, -19.155913 ], [ 27.702789, -19.151798 ], [ 27.703872, -19.145517 ], [ 27.711236, -19.142268 ] ] ] ] } },
{ "type": "Feature", "properties": { "ROW_ID": "807", "NAME": null, "NAME_CFU": null, "MAP_SHEET": "Nyamandlovu", "PROVINCE": null, "DISTRICT": "Lupane", "STATUS": "Commercial", "AREA_KM2": 1.098, "AREA_HA": 109.82, "AREA_ACRE": 271.372 }, "geometry": { "type": "MultiPolygon", "coordinates": [ [ [ [ 27.697591, -19.155913 ], [ 27.718817, -19.152881 ], [ 27.719033, -19.157429 ], [ 27.695858, -19.160028 ], [ 27.697591, -19.155913 ] ] ] ] } },
{ "type": "Feature", "properties": { "ROW_ID": "808", "NAME": null, "NAME_CFU": null, "MAP_SHEET": "Nyamandlovu", "PROVINCE": null, "DISTRICT": "Lupane", "STATUS": "Commercial", "AREA_KM2": 1.359, "AREA_HA": 135.901, "AREA_ACRE": 335.818 }, "geometry": { "type": "MultiPolygon", "coordinates": [ [ [ [ 27.719033, -19.157429 ], [ 27.720333, -19.163277 ], [ 27.701056, -19.164793 ], [ 27.700407, -19.16306 ], [ 27.695858, -19.160028 ], [ 27.719033, -19.157429 ] ] ] ] } },
{ "type": "Feature", "properties": { "ROW_ID": "809", "NAME": null, "NAME_CFU": null, "MAP_SHEET": "Nyamandlovu", "PROVINCE": null, "DISTRICT": "Lupane", "STATUS": "Commercial", "AREA_KM2": 0.786, "AREA_HA": 78.619, "AREA_ACRE": 194.273 }, "geometry": { "type": "MultiPolygon", "coordinates": [ [ [ [ 27.720333, -19.163277 ], [ 27.720766, -19.166309 ], [ 27.699107, -19.168475 ], [ 27.701056, -19.164793 ], [ 27.720333, -19.163277 ] ] ] ] } },
{ "type": "Feature", "properties": { "ROW_ID": "810", "NAME": null, "NAME_CFU": null, "MAP_SHEET": "Nyamandlovu", "PROVINCE": null, "DISTRICT": "Lupane", "STATUS": "Commercial", "AREA_KM2": 1.058, "AREA_HA": 105.787, "AREA_ACRE": 261.405 }, "geometry": { "type": "MultiPolygon", "coordinates": [ [ [ [ 27.720766, -19.166309 ], [ 27.721199, -19.169991 ], [ 27.699107, -19.173023 ], [ 27.699107, -19.168475 ], [ 27.720766, -19.166309 ] ] ] ] } },
{ "type": "Feature", "properties": { "ROW_ID": "811", "NAME": null, "NAME_CFU": null, "MAP_SHEET": "Nyamandlovu", "PROVINCE": null, "DISTRICT": "Lupane", "STATUS": "Commercial", "AREA_KM2": 1.095, "AREA_HA": 109.498, "AREA_ACRE": 270.574 }, "geometry": { "type": "MultiPolygon", "coordinates": [ [ [ [ 27.721199, -19.169991 ], [ 27.721849, -19.17454 ], [ 27.70149, -19.176922 ], [ 27.699107, -19.173023 ], [ 27.721199, -19.169991 ] ] ] ] } },
{ "type": "Feature", "properties": { "ROW_ID": "812", "NAME": null, "NAME_CFU": null, "MAP_SHEET": "Nyamandlovu", "PROVINCE": null, "DISTRICT": "Lupane", "STATUS": "Commercial", "AREA_KM2": 1.242, "AREA_HA": 124.181, "AREA_ACRE": 306.858 }, "geometry": { "type": "MultiPolygon", "coordinates": [ [ [ [ 27.721849, -19.17454 ], [ 27.722715, -19.179521 ], [ 27.701923, -19.18212 ], [ 27.70149, -19.176922 ], [ 27.721849, -19.17454 ] ] ] ] } },
{ "type": "Feature", "properties": { "ROW_ID": "813", "NAME": null, "NAME_CFU": null, "MAP_SHEET": "Nyamandlovu", "PROVINCE": null, "DISTRICT": "Lupane", "STATUS": "Commercial", "AREA_KM2": 1.132, "AREA_HA": 113.191, "AREA_ACRE": 279.701 }, "geometry": { "type": "MultiPolygon", "coordinates": [ [ [ [ 27.722715, -19.179521 ], [ 27.723582, -19.183853 ], [ 27.70019, -19.186669 ], [ 27.701923, -19.18212 ], [ 27.722715, -19.179521 ] ] ] ] } },
{ "type": "Feature", "properties": { "ROW_ID": "814", "NAME": null, "NAME_CFU": null, "MAP_SHEET": "Nyamandlovu", "PROVINCE": null, "DISTRICT": "Lupane", "STATUS": "Commercial", "AREA_KM2": 1.108, "AREA_HA": 110.835, "AREA_ACRE": 273.88 }, "geometry": { "type": "MultiPolygon", "coordinates": [ [ [ [ 27.723582, -19.183853 ], [ 27.724231, -19.187751 ], [ 27.702139, -19.190784 ], [ 27.70019, -19.186669 ], [ 27.723582, -19.183853 ] ] ] ] } },
{ "type": "Feature", "properties": { "ROW_ID": "815", "NAME": null, "NAME_CFU": null, "MAP_SHEET": "Nyamandlovu", "PROVINCE": null, "DISTRICT": "Lupane", "STATUS": "Commercial", "AREA_KM2": 1.28, "AREA_HA": 128.044, "AREA_ACRE": 316.403 }, "geometry": { "type": "MultiPolygon", "coordinates": [ [ [ [ 27.724231, -19.187751 ], [ 27.724448, -19.192733 ], [ 27.703439, -19.195765 ], [ 27.702139, -19.190784 ], [ 27.724231, -19.187751 ] ] ] ] } },
{ "type": "Feature", "properties": { "ROW_ID": "816", "NAME": null, "NAME_CFU": null, "MAP_SHEET": "Nyamandlovu", "PROVINCE": null, "DISTRICT": "Lupane", "STATUS": "Commercial", "AREA_KM2": 1.111, "AREA_HA": 111.109, "AREA_ACRE": 274.557 }, "geometry": { "type": "MultiPolygon", "coordinates": [ [ [ [ 27.724448, -19.192733 ], [ 27.725748, -19.197281 ], [ 27.704089, -19.19988 ], [ 27.703439, -19.195765 ], [ 27.724448, -19.192733 ] ] ] ] } },
{ "type": "Feature", "properties": { "ROW_ID": "817", "NAME": null, "NAME_CFU": null, "MAP_SHEET": "Nyamandlovu", "PROVINCE": null, "DISTRICT": "Lupane", "STATUS": "Commercial", "AREA_KM2": 1.42, "AREA_HA": 141.99, "AREA_ACRE": 350.866 }, "geometry": { "type": "MultiPolygon", "coordinates": [ [ [ [ 27.725748, -19.197281 ], [ 27.726397, -19.203563 ], [ 27.710803, -19.205512 ], [ 27.705605, -19.20183 ], [ 27.704089, -19.19988 ], [ 27.725748, -19.197281 ] ] ] ] } },
{ "type": "Feature", "properties": { "ROW_ID": "818", "NAME": null, "NAME_CFU": null, "MAP_SHEET": "Nyamandlovu", "PROVINCE": null, "DISTRICT": "Lupane", "STATUS": "Commercial", "AREA_KM2": 0.922, "AREA_HA": 92.177, "AREA_ACRE": 227.774 }, "geometry": { "type": "MultiPolygon", "coordinates": [ [ [ [ 27.726397, -19.203563 ], [ 27.72683, -19.209627 ], [ 27.713835, -19.211143 ], [ 27.712102, -19.205945 ], [ 27.726397, -19.203563 ] ] ] ] } },
{ "type": "Feature", "properties": { "ROW_ID": "819", "NAME": null, "NAME_CFU": null, "MAP_SHEET": "Nyamandlovu", "PROVINCE": null, "DISTRICT": "Lupane", "STATUS": "Commercial", "AREA_KM2": 1.07, "AREA_HA": 107.023, "AREA_ACRE": 264.459 }, "geometry": { "type": "MultiPolygon", "coordinates": [ [ [ [ 27.72683, -19.209627 ], [ 27.724665, -19.211143 ], [ 27.716867, -19.221756 ], [ 27.711669, -19.21894 ], [ 27.711886, -19.215692 ], [ 27.713835, -19.211143 ], [ 27.72683, -19.209627 ] ] ] ] } },
{ "type": "Feature", "properties": { "ROW_ID": "820", "NAME": null, "NAME_CFU": null, "MAP_SHEET": "Nyamandlovu", "PROVINCE": null, "DISTRICT": "Lupane", "STATUS": "Commercial", "AREA_KM2": 0.913, "AREA_HA": 91.342, "AREA_ACRE": 225.712 }, "geometry": { "type": "MultiPolygon", "coordinates": [ [ [ [ 27.727047, -19.208327 ], [ 27.731379, -19.213742 ], [ 27.7199, -19.223056 ], [ 27.716867, -19.221756 ], [ 27.727047, -19.208327 ] ] ] ] } },
{ "type": "Feature", "properties": { "ROW_ID": "821", "NAME": null, "NAME_CFU": null, "MAP_SHEET": "Nyamandlovu", "PROVINCE": null, "DISTRICT": "Lupane", "STATUS": "Commercial", "AREA_KM2": 0.654, "AREA_HA": 65.401, "AREA_ACRE": 161.61 }, "geometry": { "type": "MultiPolygon", "coordinates": [ [ [ [ 27.731379, -19.213742 ], [ 27.73766, -19.219374 ], [ 27.721632, -19.222839 ], [ 27.731379, -19.213742 ] ] ] ] } },
{ "type": "Feature", "properties": { "ROW_ID": "822", "NAME": null, "NAME_CFU": null, "MAP_SHEET": "Nyamandlovu", "PROVINCE": null, "DISTRICT": "Lupane", "STATUS": "Commercial", "AREA_KM2": 0.983, "AREA_HA": 98.338, "AREA_ACRE": 242.998 }, "geometry": { "type": "MultiPolygon", "coordinates": [ [ [ [ 27.73766, -19.219374 ], [ 27.739176, -19.228687 ], [ 27.7199, -19.223056 ], [ 27.721632, -19.222839 ], [ 27.73766, -19.219374 ] ] ] ] } },
{ "type": "Feature", "properties": { "ROW_ID": "823", "NAME": null, "NAME_CFU": null, "MAP_SHEET": "Nyamandlovu", "PROVINCE": null, "DISTRICT": "Lupane", "STATUS": "Commercial", "AREA_KM2": 1.707, "AREA_HA": 170.706, "AREA_ACRE": 421.824 }, "geometry": { "type": "MultiPolygon", "coordinates": [ [ [ [ 27.739176, -19.228687 ], [ 27.72943, -19.239083 ], [ 27.723148, -19.232802 ], [ 27.721632, -19.222839 ], [ 27.739176, -19.228687 ] ] ] ] } },
{ "type": "Feature", "properties": { "ROW_ID": "824", "NAME": null, "NAME_CFU": null, "MAP_SHEET": "Nyamandlovu", "PROVINCE": null, "DISTRICT": "Lupane", "STATUS": "Commercial", "AREA_KM2": 1.202, "AREA_HA": 120.248, "AREA_ACRE": 297.14 }, "geometry": { "type": "MultiPolygon", "coordinates": [ [ [ [ 27.739176, -19.228687 ], [ 27.740692, -19.239949 ], [ 27.732245, -19.246447 ], [ 27.72943, -19.239083 ], [ 27.739176, -19.228687 ] ] ] ] } },
{ "type": "Feature", "properties": { "ROW_ID": "825", "NAME": null, "NAME_CFU": null, "MAP_SHEET": "Nyamandlovu", "PROVINCE": null, "DISTRICT": "Lupane", "STATUS": "Commercial", "AREA_KM2": 1.982, "AREA_HA": 198.207, "AREA_ACRE": 489.779 }, "geometry": { "type": "MultiPolygon", "coordinates": [ [ [ [ 27.740692, -19.239949 ], [ 27.750872, -19.253161 ], [ 27.73766, -19.261392 ], [ 27.73831, -19.257493 ], [ 27.739609, -19.250346 ], [ 27.734195, -19.248613 ], [ 27.732245, -19.246447 ], [ 27.740692, -19.239949 ] ] ] ] } },
{ "type": "Feature", "properties": { "ROW_ID": "826", "NAME": null, "NAME_CFU": null, "MAP_SHEET": "Nyamandlovu", "PROVINCE": null, "DISTRICT": "Lupane", "STATUS": "Commercial", "AREA_KM2": 1.528, "AREA_HA": 152.775, "AREA_ACRE": 377.515 }, "geometry": { "type": "MultiPolygon", "coordinates": [ [ [ [ 27.799388, -19.185369 ], [ 27.80307, -19.182987 ], [ 27.805886, -19.181037 ], [ 27.816065, -19.187535 ], [ 27.815415, -19.1923 ], [ 27.80372, -19.193166 ], [ 27.799388, -19.185369 ] ] ] ] } },
{ "type": "Feature", "properties": { "ROW_ID": "827", "NAME": null, "NAME_CFU": null, "MAP_SHEET": "Nyamandlovu", "PROVINCE": null, "DISTRICT": "Lupane", "STATUS": "Commercial", "AREA_KM2": 2.412, "AREA_HA": 241.179, "AREA_ACRE": 595.967 }, "geometry": { "type": "MultiPolygon", "coordinates": [ [ [ [ 27.80372, -19.193166 ], [ 27.815415, -19.1923 ], [ 27.824945, -19.199231 ], [ 27.825812, -19.203996 ], [ 27.817581, -19.210277 ], [ 27.80372, -19.193166 ] ] ] ] } },
{ "type": "Feature", "properties": { "ROW_ID": "828", "NAME": null, "NAME_CFU": null, "MAP_SHEET": "Nyamandlovu", "PROVINCE": null, "DISTRICT": "Lupane", "STATUS": "Commercial", "AREA_KM2": 0.89, "AREA_HA": 89.009, "AREA_ACRE": 219.947 }, "geometry": { "type": "MultiPolygon", "coordinates": [ [ [ [ 27.83166, -19.142051 ], [ 27.836353, -19.135038 ], [ 27.844807, -19.130811 ], [ 27.844005, -19.134254 ], [ 27.837724, -19.144434 ], [ 27.83166, -19.142051 ] ] ] ] } },
{ "type": "Feature", "properties": { "ROW_ID": "829", "NAME": null, "NAME_CFU": null, "MAP_SHEET": "Nyamandlovu", "PROVINCE": null, "DISTRICT": "Lupane", "STATUS": "Commercial", "AREA_KM2": 1.005, "AREA_HA": 100.538, "AREA_ACRE": 248.435 }, "geometry": { "type": "MultiPolygon", "coordinates": [ [ [ [ 27.845738, -19.132305 ], [ 27.849034, -19.136447 ], [ 27.849853, -19.137286 ], [ 27.843355, -19.148116 ], [ 27.842706, -19.146383 ], [ 27.837724, -19.144434 ], [ 27.844005, -19.134254 ], [ 27.845738, -19.132305 ] ] ] ] } },
{ "type": "Feature", "properties": { "ROW_ID": "830", "NAME": null, "NAME_CFU": null, "MAP_SHEET": "Nyamandlovu", "PROVINCE": null, "DISTRICT": "Lupane", "STATUS": "Commercial", "AREA_KM2": 0.916, "AREA_HA": 91.55, "AREA_ACRE": 226.226 }, "geometry": { "type": "MultiPolygon", "coordinates": [ [ [ [ 27.849853, -19.137286 ], [ 27.855609, -19.140205 ], [ 27.849203, -19.150498 ], [ 27.843355, -19.148116 ], [ 27.849853, -19.137286 ] ] ] ] } },
{ "type": "Feature", "properties": { "ROW_ID": "831", "NAME": null, "NAME_CFU": null, "MAP_SHEET": "Nyamandlovu", "PROVINCE": null, "DISTRICT": "Lupane", "STATUS": "Commercial", "AREA_KM2": 0.742, "AREA_HA": 74.201, "AREA_ACRE": 183.355 }, "geometry": { "type": "MultiPolygon", "coordinates": [ [ [ [ 27.855609, -19.140205 ], [ 27.857434, -19.144217 ], [ 27.860683, -19.144434 ], [ 27.85765, -19.150715 ], [ 27.853319, -19.150715 ], [ 27.851586, -19.152014 ], [ 27.849203, -19.150498 ], [ 27.855609, -19.140205 ] ] ] ] } },
{ "type": "Feature", "properties": { "ROW_ID": "832", "NAME": null, "NAME_CFU": null, "MAP_SHEET": "Nyamandlovu", "PROVINCE": null, "DISTRICT": "Lupane", "STATUS": "Commercial", "AREA_KM2": 0.819, "AREA_HA": 81.878, "AREA_ACRE": 202.326 }, "geometry": { "type": "MultiPolygon", "coordinates": [ [ [ [ 27.860683, -19.144434 ], [ 27.866747, -19.143567 ], [ 27.869699, -19.138326 ], [ 27.866097, -19.151581 ], [ 27.860033, -19.152881 ], [ 27.85765, -19.150715 ], [ 27.860683, -19.144434 ] ] ] ] } },
{ "type": "Feature", "properties": { "ROW_ID": "833", "NAME": null, "NAME_CFU": null, "MAP_SHEET": "Nyamandlovu", "PROVINCE": null, "DISTRICT": "Lupane", "STATUS": "Commercial", "AREA_KM2": 1.118, "AREA_HA": 111.81, "AREA_ACRE": 276.288 }, "geometry": { "type": "MultiPolygon", "coordinates": [ [ [ [ 27.869699, -19.138326 ], [ 27.875844, -19.138586 ], [ 27.874977, -19.150931 ], [ 27.866097, -19.151581 ], [ 27.869699, -19.138326 ] ] ] ] } },
{ "type": "Feature", "properties": { "ROW_ID": "834", "NAME": null, "NAME_CFU": null, "MAP_SHEET": "Nyamandlovu", "PROVINCE": null, "DISTRICT": "Lupane", "STATUS": "Commercial", "AREA_KM2": 1.087, "AREA_HA": 108.72, "AREA_ACRE": 268.652 }, "geometry": { "type": "MultiPolygon", "coordinates": [ [ [ [ 27.875844, -19.138586 ], [ 27.88238, -19.139265 ], [ 27.881911, -19.142553 ], [ 27.88285, -19.14631 ], [ 27.884507, -19.147033 ], [ 27.883858, -19.151364 ], [ 27.874977, -19.150931 ], [ 27.875844, -19.138586 ] ] ] ] } },
{ "type": "Feature", "properties": { "ROW_ID": "835", "NAME": null, "NAME_CFU": null, "MAP_SHEET": "Nyamandlovu", "PROVINCE": null, "DISTRICT": "Lupane", "STATUS": "Commercial", "AREA_KM2": 0.984, "AREA_HA": 98.355, "AREA_ACRE": 243.042 }, "geometry": { "type": "MultiPolygon", "coordinates": [ [ [ [ 27.883858, -19.151364 ], [ 27.884507, -19.147033 ], [ 27.886024, -19.1466 ], [ 27.888956, -19.143492 ], [ 27.893183, -19.154764 ], [ 27.898819, -19.158522 ], [ 27.893388, -19.160028 ], [ 27.885374, -19.151364 ], [ 27.883858, -19.151364 ] ] ] ] } },
{ "type": "Feature", "properties": { "ROW_ID": "836", "NAME": null, "NAME_CFU": null, "MAP_SHEET": "Nyamandlovu", "PROVINCE": null, "DISTRICT": "Lupane", "STATUS": "Commercial", "AREA_KM2": 1.632, "AREA_HA": 163.174, "AREA_ACRE": 403.212 }, "geometry": { "type": "MultiPolygon", "coordinates": [ [ [ [ 27.849203, -19.150498 ], [ 27.853319, -19.150715 ], [ 27.85765, -19.150715 ], [ 27.860033, -19.152881 ], [ 27.866097, -19.151581 ], [ 27.874977, -19.150931 ], [ 27.874328, -19.157862 ], [ 27.845955, -19.15483 ], [ 27.849203, -19.150498 ] ] ] ] } }
]
}
