{
"type": "FeatureCollection",
"name": "LUPANE BOUNDARY DISTRICT",
"crs": { "type": "name", "properties": { "name": "urn:ogc:def:crs:OGC:1.3:CRS84" } },
"features": [
{ "type": "Feature", "properties": { "AREA": 0.661, "DISTRICT": "Lupane", "PROVINCE": "Matabeland North" }, "geometry": { "type": "MultiPolygon", "coordinates": [ [ [ [ 28.005743026733398, -18.23109245300293 ], [ 28.006906509399414, -18.234308242797852 ], [ 28.006830215454102, -18.235479354858398 ], [ 28.006261825561523, -18.235794067382813 ], [ 28.005865097045898, -18.237432479858398 ], [ 28.005222320556641, -18.238990783691406 ], [ 28.004903793334961, -18.240316390991211 ], [ 28.003772735595703, -18.241800308227539 ], [ 28.003780364990234, -18.243200302124023 ], [ 28.002985000610352, -18.246553421020508 ], [ 28.002666473388672, -18.247955322265625 ], [ 28.000959396362305, -18.248741149902344 ], [ 27.999126434326172, -18.249483108520508 ], [ 27.999242782592773, -18.37952995300293 ], [ 27.999855041503906, -18.49986457824707 ], [ 27.999629974365234, -18.526409149169922 ], [ 27.999515533447266, -18.528474807739258 ], [ 27.999225616455078, -18.532150268554688 ], [ 27.998626708984375, -18.53727912902832 ], [ 27.998104095458984, -18.539211273193359 ], [ 27.997333526611328, -18.541162490844727 ], [ 27.997039794921875, -18.545642852783203 ], [ 27.997133255004883, -18.547779083251953 ], [ 27.997400283813477, -18.547727584838867 ], [ 27.997774124145508, -18.547639846801758 ], [ 27.998291015625, -18.54765510559082 ], [ 27.998573303222656, -18.547613143920898 ], [ 27.998996734619141, -18.547878265380859 ], [ 27.999513626098633, -18.548055648803711 ], [ 27.999914169311523, -18.548206329345703 ], [ 28.000358581542969, -18.548181533813477 ], [ 28.00120735168457, -18.548805236816406 ], [ 28.002168655395508, -18.548732757568359 ], [ 28.002779006958008, -18.548751831054688 ], [ 28.003416061401367, -18.54924201965332 ], [ 28.003887176513672, -18.549732208251953 ], [ 28.004405975341797, -18.549909591674805 ], [ 28.00529670715332, -18.549989700317383 ], [ 28.006235122680664, -18.550008773803711 ], [ 28.006692886352539, -18.549983978271484 ], [ 28.007164001464844, -18.55018424987793 ], [ 28.007352828979492, -18.550653457641602 ], [ 28.007753372192383, -18.551008224487305 ], [ 28.008108139038086, -18.55120849609375 ], [ 28.008811950683594, -18.551183700561523 ], [ 28.009702682495117, -18.551155090332031 ], [ 28.009864807128906, -18.550973892211914 ], [ 28.009769439697266, -18.550617218017578 ], [ 28.009790420532227, -18.550056457519531 ], [ 28.010093688964844, -18.549856185913086 ], [ 28.010446548461914, -18.549854278564453 ], [ 28.010612487792969, -18.550233840942383 ], [ 28.010637283325195, -18.550613403320313 ], [ 28.010757446289063, -18.550838470458984 ], [ 28.011062622070313, -18.551103591918945 ], [ 28.011604309082031, -18.551303863525391 ], [ 28.011978149414063, -18.55125617980957 ], [ 28.012540817260742, -18.551162719726563 ], [ 28.012962341308594, -18.550848007202148 ], [ 28.013288497924805, -18.550554275512695 ], [ 28.013721466064453, -18.550193786621094 ], [ 28.014188766479492, -18.55012321472168 ], [ 28.014965057373047, -18.550188064575195 ], [ 28.015670776367188, -18.550586700439453 ], [ 28.016071319580078, -18.551054000854492 ], [ 28.016567230224609, -18.55131721496582 ], [ 28.016942977905273, -18.551473617553711 ], [ 28.017398834228516, -18.551616668701172 ], [ 28.017803192138672, -18.551929473876953 ], [ 28.018135070800781, -18.552240371704102 ], [ 28.018247604370117, -18.552379608154297 ], [ 28.018760681152344, -18.552484512329102 ], [ 28.019199371337891, -18.552270889282227 ], [ 28.019050598144531, -18.551851272583008 ], [ 28.018682479858398, -18.551572799682617 ], [ 28.018386840820313, -18.551366806030273 ], [ 28.01812744140625, -18.550983428955078 ], [ 28.01823616027832, -18.550739288330078 ], [ 28.0186767578125, -18.550701141357422 ], [ 28.019153594970703, -18.550697326660156 ], [ 28.020252227783203, -18.550655364990234 ], [ 28.022087097167969, -18.550994873046875 ], [ 28.023189544677734, -18.551237106323242 ], [ 28.02421760559082, -18.55168342590332 ], [ 28.025833129882813, -18.55195426940918 ], [ 28.026859283447266, -18.552087783813477 ], [ 28.028326034545898, -18.552221298217773 ], [ 28.029941558837891, -18.552423477172852 ], [ 28.030967712402344, -18.552591323852539 ], [ 28.03192138671875, -18.552621841430664 ], [ 28.032672882080078, -18.552410125732422 ], [ 28.033329010009766, -18.551845550537109 ], [ 28.033908843994141, -18.550897598266602 ], [ 28.034564971923828, -18.550230026245117 ], [ 28.035003662109375, -18.549842834472656 ], [ 28.035480499267578, -18.549909591674805 ], [ 28.035812377929688, -18.550291061401367 ], [ 28.036252975463867, -18.550464630126953 ], [ 28.036619186401367, -18.55046272277832 ], [ 28.037166595458984, -18.550039291381836 ], [ 28.037714004516602, -18.549549102783203 ], [ 28.038078308105469, -18.54930305480957 ], [ 28.038333892822266, -18.549089431762695 ], [ 28.039360046386719, -18.549047470092773 ], [ 28.040166854858398, -18.548974990844727 ], [ 28.040971755981445, -18.548690795898438 ], [ 28.041555404663086, -18.54833984375 ], [ 28.041940689086914, -18.548196792602539 ], [ 28.042413711547852, -18.547700881958008 ], [ 28.043586730957031, -18.547662734985352 ], [ 28.043844223022461, -18.5477294921875 ], [ 28.044322967529297, -18.548183441162109 ], [ 28.044984817504883, -18.548667907714844 ], [ 28.045572280883789, -18.548732757568359 ], [ 28.046485900878906, -18.548202514648438 ], [ 28.047510147094727, -18.547885894775391 ], [ 28.047950744628906, -18.547914505004883 ], [ 28.048208236694336, -18.548192977905273 ], [ 28.048467636108398, -18.548751831054688 ], [ 28.048435211181641, -18.549312591552734 ], [ 28.048547744750977, -18.549659729003906 ], [ 28.048805236816406, -18.550010681152344 ], [ 28.049430847167969, -18.550111770629883 ], [ 28.049942016601563, -18.549932479858398 ], [ 28.051372528076172, -18.549924850463867 ], [ 28.055198669433594, -18.549379348754883 ], [ 28.056591033935547, -18.549091339111328 ], [ 28.058570861816406, -18.549116134643555 ], [ 28.059633255004883, -18.549007415771484 ], [ 28.061063766479492, -18.549139022827148 ], [ 28.062276840209961, -18.549692153930664 ], [ 28.06275749206543, -18.550525665283203 ], [ 28.063129425048828, -18.551326751708984 ], [ 28.063352584838867, -18.55181884765625 ], [ 28.063722610473633, -18.552236557006836 ], [ 28.063835144042969, -18.552932739257813 ], [ 28.064096450805664, -18.553491592407227 ], [ 28.064720153808594, -18.553768157958984 ], [ 28.065069198608398, -18.553730010986328 ], [ 28.065584182739258, -18.554006576538086 ], [ 28.066099166870117, -18.554216384887695 ], [ 28.066501617431641, -18.554141998291016 ], [ 28.066791534423828, -18.553792953491211 ], [ 28.067049026489258, -18.553718566894531 ], [ 28.067451477050781, -18.553647994995117 ], [ 28.067707061767578, -18.553470611572266 ], [ 28.067998886108398, -18.553152084350586 ], [ 28.068254470825195, -18.552980422973633 ], [ 28.068510055541992, -18.553117752075195 ], [ 28.068733215332031, -18.553361892700195 ], [ 28.069065093994141, -18.553779602050781 ], [ 28.069652557373047, -18.553983688354492 ], [ 28.07038688659668, -18.55401611328125 ], [ 28.071083068847656, -18.554079055786133 ], [ 28.071596145629883, -18.553972244262695 ], [ 28.07206916809082, -18.553550720214844 ], [ 28.07243537902832, -18.553199768066406 ], [ 28.072908401489258, -18.552740097045898 ], [ 28.073162078857422, -18.552427291870117 ], [ 28.073596954345703, -18.551445007324219 ], [ 28.073886871337891, -18.550918579101563 ], [ 28.074361801147461, -18.550600051879883 ], [ 28.075130462646484, -18.550388336181641 ], [ 28.075752258300781, -18.55027961730957 ], [ 28.076168060302734, -18.549541473388672 ], [ 28.077045440673828, -18.548944473266602 ], [ 28.077737808227539, -18.548343658447266 ], [ 28.077550888061523, -18.547887802124023 ], [ 28.077404022216797, -18.547613143920898 ], [ 28.077438354492188, -18.547224044799805 ], [ 28.078205108642578, -18.546836853027344 ], [ 28.080545425415039, -18.546054840087891 ], [ 28.082992553710938, -18.544609069824219 ], [ 28.084236145019531, -18.543968200683594 ], [ 28.084911346435547, -18.543548583984375 ], [ 28.085716247558594, -18.543294906616211 ], [ 28.086704254150391, -18.543258666992188 ], [ 28.086921691894531, -18.542764663696289 ], [ 28.087324142456055, -18.542518615722656 ], [ 28.088460922241211, -18.542724609375 ], [ 28.088680267333984, -18.542722702026367 ], [ 28.089597702026367, -18.542821884155273 ], [ 28.09040641784668, -18.542993545532227 ], [ 28.091030120849609, -18.543161392211914 ], [ 28.091361999511719, -18.543439865112305 ], [ 28.091730117797852, -18.543785095214844 ], [ 28.092061996459961, -18.54395866394043 ], [ 28.092390060424805, -18.543853759765625 ], [ 28.092756271362305, -18.543815612792969 ], [ 28.093271255493164, -18.543916702270508 ], [ 28.093637466430664, -18.543914794921875 ], [ 28.094112396240234, -18.543739318847656 ], [ 28.094736099243164, -18.543767929077148 ], [ 28.095066070556641, -18.543838500976563 ], [ 28.095830917358398, -18.544235229492188 ], [ 28.0968017578125, -18.543905258178711 ], [ 28.097944259643555, -18.543188095092773 ], [ 28.097993850708008, -18.542148590087891 ], [ 28.098388671875, -18.541162490844727 ], [ 28.0992431640625, -18.540555953979492 ], [ 28.100099563598633, -18.539949417114258 ], [ 28.100728988647461, -18.539838790893555 ], [ 28.102218627929688, -18.540050506591797 ], [ 28.103078842163086, -18.540262222290039 ], [ 28.103826522827148, -18.540529251098633 ], [ 28.104684829711914, -18.540523529052734 ], [ 28.105146408081055, -18.541069030761719 ], [ 28.106122970581055, -18.541500091552734 ], [ 28.106813430786133, -18.541826248168945 ], [ 28.107961654663086, -18.542530059814453 ], [ 28.108478546142578, -18.542526245117188 ], [ 28.109334945678711, -18.542137145996094 ], [ 28.10978889465332, -18.541425704956055 ], [ 28.110469818115234, -18.540435791015625 ], [ 28.110752105712891, -18.540054321289063 ], [ 28.111209869384766, -18.539884567260742 ], [ 28.111671447753906, -18.540266036987305 ], [ 28.1123046875, -18.540971755981445 ], [ 28.112768173217773, -18.541624069213867 ], [ 28.113456726074219, -18.541841506958008 ], [ 28.114057540893555, -18.541837692260742 ], [ 28.114286422729492, -18.541723251342773 ], [ 28.114625930786133, -18.541233062744141 ], [ 28.115255355834961, -18.541116714477539 ], [ 28.115541458129883, -18.541114807128906 ], [ 28.11583137512207, -18.541606903076172 ], [ 28.116409301757813, -18.542312622070313 ], [ 28.116582870483398, -18.542695999145508 ], [ 28.116931915283203, -18.543239593505859 ], [ 28.117563247680664, -18.543453216552734 ], [ 28.118255615234375, -18.544326782226563 ], [ 28.119064331054688, -18.545413970947266 ], [ 28.119239807128906, -18.546123504638672 ], [ 28.119586944580078, -18.546667098999023 ], [ 28.120561599731445, -18.546770095825195 ], [ 28.122222900390625, -18.54681396484375 ], [ 28.124113082885742, -18.546804428100586 ], [ 28.125259399414063, -18.546743392944336 ], [ 28.125774383544922, -18.546792984008789 ], [ 28.126062393188477, -18.547063827514648 ], [ 28.126522064208984, -18.547281265258789 ], [ 28.127323150634766, -18.547222137451172 ], [ 28.127836227416992, -18.546834945678711 ], [ 28.128007888793945, -18.546564102172852 ], [ 28.128292083740234, -18.546285629272461 ], [ 28.128576278686523, -18.546121597290039 ], [ 28.129035949707031, -18.546335220336914 ], [ 28.12921142578125, -18.546665191650391 ], [ 28.129552841186523, -18.546554565429688 ], [ 28.130239486694336, -18.54649543762207 ], [ 28.130756378173828, -18.546546936035156 ], [ 28.13153076171875, -18.54670524597168 ], [ 28.131698608398438, -18.546102523803711 ], [ 28.132097244262695, -18.545770645141602 ], [ 28.132440567016602, -18.54571533203125 ], [ 28.133071899414063, -18.54609489440918 ], [ 28.133533477783203, -18.546529769897461 ], [ 28.133935928344727, -18.546798706054688 ], [ 28.13416862487793, -18.547126770019531 ], [ 28.134511947631836, -18.547342300415039 ], [ 28.135028839111328, -18.547338485717773 ], [ 28.135601043701172, -18.547443389892578 ], [ 28.136062622070313, -18.547880172729492 ], [ 28.136350631713867, -18.548149108886719 ], [ 28.136867523193359, -18.548259735107422 ], [ 28.137496948242188, -18.548309326171875 ], [ 28.137899398803711, -18.548524856567383 ], [ 28.13847541809082, -18.548736572265625 ], [ 28.139505386352539, -18.548730850219727 ], [ 28.140251159667969, -18.548892974853516 ], [ 28.140768051147461, -18.549108505249023 ], [ 28.141170501708984, -18.54926872253418 ], [ 28.141515731811523, -18.549488067626953 ], [ 28.142374038696289, -18.549482345581055 ], [ 28.143119812011719, -18.549585342407227 ], [ 28.143234252929688, -18.549747467041016 ], [ 28.143238067626953, -18.550077438354492 ], [ 28.143697738647461, -18.550346374511719 ], [ 28.144271850585938, -18.550559997558594 ], [ 28.14478874206543, -18.550886154174805 ], [ 28.145366668701172, -18.551647186279297 ], [ 28.145660400390625, -18.552629470825195 ], [ 28.145952224731445, -18.553337097167969 ], [ 28.146869659423828, -18.553607940673828 ], [ 28.147499084472656, -18.553712844848633 ], [ 28.148077011108398, -18.554147720336914 ], [ 28.148653030395508, -18.554798126220703 ], [ 28.149433135986328, -18.555719375610352 ], [ 28.150012969970703, -18.556972503662109 ], [ 28.150476455688477, -18.557571411132813 ], [ 28.151113510131836, -18.558769226074219 ], [ 28.151922225952148, -18.559640884399414 ], [ 28.152547836303711, -18.558980941772461 ], [ 28.153347015380859, -18.558755874633789 ], [ 28.154603958129883, -18.55809211730957 ], [ 28.155002593994141, -18.557651519775391 ], [ 28.155513763427734, -18.557268142700195 ], [ 28.155971527099609, -18.557104110717773 ], [ 28.156257629394531, -18.556989669799805 ], [ 28.156599044799805, -18.556661605834961 ], [ 28.156997680664063, -18.55638313293457 ], [ 28.157283782958984, -18.556327819824219 ], [ 28.157629013061523, -18.556547164916992 ], [ 28.157802581787109, -18.556816101074219 ], [ 28.158031463623047, -18.556816101074219 ], [ 28.158315658569336, -18.556375503540039 ], [ 28.158597946166992, -18.555885314941406 ], [ 28.158596038818359, -18.55555534362793 ], [ 28.158479690551758, -18.555171966552734 ], [ 28.158533096313477, -18.554738998413086 ], [ 28.159101486206055, -18.554019927978516 ], [ 28.159269332885742, -18.553478240966797 ], [ 28.159896850585938, -18.553035736083984 ], [ 28.160638809204102, -18.552593231201172 ], [ 28.161724090576172, -18.552314758300781 ], [ 28.162755966186523, -18.552253723144531 ], [ 28.163728713989258, -18.552248001098633 ], [ 28.164676666259766, -18.552568435668945 ], [ 28.165307998657227, -18.552780151367188 ], [ 28.166109085083008, -18.552558898925781 ], [ 28.166452407836914, -18.552772521972656 ], [ 28.166572570800781, -18.55354118347168 ], [ 28.166976928710938, -18.553972244262695 ], [ 28.167434692382813, -18.554082870483398 ], [ 28.167892456054688, -18.553804397583008 ], [ 28.168292999267578, -18.553800582885742 ], [ 28.168411254882813, -18.554239273071289 ], [ 28.168643951416016, -18.554729461669922 ], [ 28.169387817382813, -18.554779052734375 ], [ 28.16978645324707, -18.554338455200195 ], [ 28.170469284057617, -18.553895950317383 ], [ 28.171041488647461, -18.553730010986328 ], [ 28.172075271606445, -18.554054260253906 ], [ 28.172878265380859, -18.554157257080078 ], [ 28.17396354675293, -18.55381965637207 ], [ 28.175107955932617, -18.55364990234375 ], [ 28.176080703735352, -18.553426742553711 ], [ 28.177167892456055, -18.553308486938477 ], [ 28.178142547607422, -18.553524017333984 ], [ 28.179059982299805, -18.553518295288086 ], [ 28.180377960205078, -18.553617477416992 ], [ 28.181924819946289, -18.553661346435547 ], [ 28.183330535888672, -18.554201126098633 ], [ 28.18476676940918, -18.554630279541016 ], [ 28.18597412109375, -18.555168151855469 ], [ 28.186891555786133, -18.555488586425781 ], [ 28.187639236450195, -18.555812835693359 ], [ 28.18792724609375, -18.556190490722656 ], [ 28.187990188598633, -18.557012557983398 ], [ 28.187936782836914, -18.55744743347168 ], [ 28.188283920288086, -18.557991027832031 ], [ 28.189090728759766, -18.558753967285156 ], [ 28.189895629882813, -18.559295654296875 ], [ 28.190242767333984, -18.559511184692383 ], [ 28.191043853759766, -18.559505462646484 ], [ 28.192876815795898, -18.559602737426758 ], [ 28.19390869140625, -18.559812545776367 ], [ 28.194940567016602, -18.559806823730469 ], [ 28.195344924926758, -18.560188293457031 ], [ 28.19586181640625, -18.560348510742188 ], [ 28.196949005126953, -18.560394287109375 ], [ 28.198755264282227, -18.560550689697266 ], [ 28.199554443359375, -18.560270309448242 ], [ 28.201099395751953, -18.559934616088867 ], [ 28.20161247253418, -18.559438705444336 ], [ 28.203153610229492, -18.558719635009766 ], [ 28.203952789306641, -18.558385848999023 ], [ 28.204866409301758, -18.558162689208984 ], [ 28.205379486083984, -18.557611465454102 ], [ 28.206178665161133, -18.557277679443359 ], [ 28.206869125366211, -18.557710647583008 ], [ 28.206932067871094, -18.55864143371582 ], [ 28.207223892211914, -18.559186935424805 ], [ 28.207855224609375, -18.559562683105469 ], [ 28.208086013793945, -18.559669494628906 ], [ 28.209114074707031, -18.559391021728516 ], [ 28.209287643432617, -18.559553146362305 ], [ 28.209579467773438, -18.560260772705078 ], [ 28.209985733032227, -18.561080932617188 ], [ 28.210788726806641, -18.561183929443359 ], [ 28.2113037109375, -18.561071395874023 ], [ 28.211528778076172, -18.560523986816406 ], [ 28.211870193481445, -18.560136795043945 ], [ 28.212387084960938, -18.560518264770508 ], [ 28.212677001953125, -18.561063766479492 ], [ 28.21302604675293, -18.561716079711914 ], [ 28.213432312011719, -18.562421798706055 ], [ 28.213891983032227, -18.562690734863281 ], [ 28.214349746704102, -18.562633514404297 ], [ 28.214780807495117, -18.562744140625 ], [ 28.214958190917969, -18.563613891601563 ], [ 28.215309143066406, -18.564485549926758 ], [ 28.2159423828125, -18.565139770507813 ], [ 28.217203140258789, -18.565185546875 ], [ 28.219669342041016, -18.565662384033203 ], [ 28.220361709594727, -18.566312789916992 ], [ 28.222654342651367, -18.566408157348633 ], [ 28.223396301269531, -18.566072463989258 ], [ 28.224546432495117, -18.566665649414063 ], [ 28.225116729736328, -18.566228866577148 ], [ 28.225393295288086, -18.565019607543945 ], [ 28.226308822631836, -18.564689636230469 ], [ 28.227167129516602, -18.564628601074219 ], [ 28.228309631347656, -18.564346313476563 ], [ 28.229284286499023, -18.564340591430664 ], [ 28.230060577392578, -18.564664840698242 ], [ 28.231033325195313, -18.564603805541992 ], [ 28.231777191162109, -18.564435958862305 ], [ 28.232351303100586, -18.564811706542969 ], [ 28.233154296875, -18.564807891845703 ], [ 28.234470367431641, -18.56463623046875 ], [ 28.235273361206055, -18.564739227294922 ], [ 28.236652374267578, -18.565277099609375 ], [ 28.237859725952148, -18.566085815429688 ], [ 28.23872184753418, -18.566356658935547 ], [ 28.239294052124023, -18.566244125366211 ], [ 28.239978790283203, -18.565910339355469 ], [ 28.240837097167969, -18.5657958984375 ], [ 28.240900039672852, -18.566558837890625 ], [ 28.240903854370117, -18.567106246948242 ], [ 28.241193771362305, -18.567596435546875 ], [ 28.24171257019043, -18.567977905273438 ], [ 28.242572784423828, -18.568080902099609 ], [ 28.243373870849609, -18.56812858581543 ], [ 28.244117736816406, -18.567907333374023 ], [ 28.244400024414063, -18.567522048950195 ], [ 28.244684219360352, -18.567026138305664 ], [ 28.244449615478516, -18.566318511962891 ], [ 28.244100570678711, -18.565557479858398 ], [ 28.244327545166016, -18.565389633178711 ], [ 28.244787216186523, -18.565498352050781 ], [ 28.245477676391602, -18.565927505493164 ], [ 28.246137619018555, -18.566253662109375 ], [ 28.247228622436523, -18.566572189331055 ], [ 28.247861862182617, -18.566843032836914 ], [ 28.249006271362305, -18.566614151000977 ], [ 28.24980354309082, -18.56617546081543 ], [ 28.250770568847656, -18.565183639526367 ], [ 28.251224517822266, -18.564579010009766 ], [ 28.251794815063477, -18.564304351806641 ], [ 28.252710342407227, -18.564023971557617 ], [ 28.253683090209961, -18.563854217529297 ], [ 28.25425910949707, -18.564289093017578 ], [ 28.254829406738281, -18.564170837402344 ], [ 28.255170822143555, -18.563735961914063 ], [ 28.255569458007813, -18.563348770141602 ], [ 28.256025314331055, -18.563129425048828 ], [ 28.256309509277344, -18.562906265258789 ], [ 28.257505416870117, -18.562803268432617 ], [ 28.258504867553711, -18.562385559082031 ], [ 28.259796142578125, -18.562719345092773 ], [ 28.260871887207031, -18.562849044799805 ], [ 28.261734008789063, -18.56352424621582 ], [ 28.262596130371094, -18.563726425170898 ], [ 28.263601303100586, -18.564126968383789 ], [ 28.265033721923828, -18.56425666809082 ], [ 28.26661491394043, -18.564996719360352 ], [ 28.267616271972656, -18.56498908996582 ], [ 28.268405914306641, -18.565256118774414 ], [ 28.268772125244141, -18.566278457641602 ], [ 28.270992279052734, -18.56646728515625 ], [ 28.272642135620117, -18.56666374206543 ], [ 28.274288177490234, -18.566652297973633 ], [ 28.275074005126953, -18.566511154174805 ], [ 28.275789260864258, -18.566434860229492 ], [ 28.276437759399414, -18.566841125488281 ], [ 28.277225494384766, -18.566837310791016 ], [ 28.277870178222656, -18.566764831542969 ], [ 28.278081893920898, -18.56641960144043 ], [ 28.277933120727539, -18.565805435180664 ], [ 28.279150009155273, -18.565729141235352 ], [ 28.280006408691406, -18.565385818481445 ], [ 28.281362533569336, -18.564897537231445 ], [ 28.282115936279297, -18.564891815185547 ], [ 28.282907485961914, -18.565500259399414 ], [ 28.282983779907227, -18.56611442565918 ], [ 28.28355598449707, -18.566179275512695 ], [ 28.285058975219727, -18.565896987915039 ], [ 28.286705017089844, -18.565954208374023 ], [ 28.287637710571289, -18.566150665283203 ], [ 28.288002014160156, -18.566967010498047 ], [ 28.288631439208984, -18.567184448242188 ], [ 28.288612365722656, -18.572017669677734 ], [ 28.288785934448242, -18.575906753540039 ], [ 28.290138244628906, -18.582098007202148 ], [ 28.290885925292969, -18.586191177368164 ], [ 28.291786193847656, -18.590057373046875 ], [ 28.292390823364258, -18.593193054199219 ], [ 28.293212890625, -18.599464416503906 ], [ 28.294439315795898, -18.608135223388672 ], [ 28.295646667480469, -18.614217758178711 ], [ 28.297061920166016, -18.62196159362793 ], [ 28.299928665161133, -18.638168334960938 ], [ 28.300958633422852, -18.643075942993164 ], [ 28.303888320922852, -18.656665802001953 ], [ 28.31193733215332, -18.658786773681641 ], [ 28.317237854003906, -18.664705276489258 ], [ 28.31610107421875, -18.671613693237305 ], [ 28.315805435180664, -18.678230285644531 ], [ 28.313360214233398, -18.682788848876953 ], [ 28.307096481323242, -18.687084197998047 ], [ 28.312719345092773, -18.696022033691406 ], [ 28.314455032348633, -18.698585510253906 ], [ 28.317344665527344, -18.702877044677734 ], [ 28.319112777709961, -18.705886840820313 ], [ 28.320196151733398, -18.707464218139648 ], [ 28.321157455444336, -18.708597183227539 ], [ 28.325023651123047, -18.715978622436523 ], [ 28.324716567993164, -18.717264175415039 ], [ 28.323390960693359, -18.720373153686523 ], [ 28.324474334716797, -18.721879959106445 ], [ 28.325145721435547, -18.726411819458008 ], [ 28.327253341674805, -18.732070922851563 ], [ 28.327350616455078, -18.734565734863281 ], [ 28.326738357543945, -18.737443923950195 ], [ 28.326000213623047, -18.739337921142578 ], [ 28.326972961425781, -18.742053985595703 ], [ 28.326671600341797, -18.744022369384766 ], [ 28.327558517456055, -18.745904922485352 ], [ 28.32710075378418, -18.748104095458984 ], [ 28.326883316040039, -18.750753402709961 ], [ 28.325946807861328, -18.752874374389648 ], [ 28.324993133544922, -18.752655029296875 ], [ 28.323766708374023, -18.753246307373047 ], [ 28.322872161865234, -18.760505676269531 ], [ 28.321353912353516, -18.761116027832031 ], [ 28.320234298706055, -18.76390266418457 ], [ 28.321636199951172, -18.764743804931641 ], [ 28.321014404296875, -18.766437530517578 ], [ 28.321975708007813, -18.767637252807617 ], [ 28.321863174438477, -18.769332885742188 ], [ 28.322786331176758, -18.774038314819336 ], [ 28.32293701171875, -18.776937484741211 ], [ 28.323204040527344, -18.77874755859375 ], [ 28.321954727172852, -18.781173706054688 ], [ 28.320825576782227, -18.782871246337891 ], [ 28.320472717285156, -18.786497116088867 ], [ 28.318220138549805, -18.790382385253906 ], [ 28.309700012207031, -18.803974151611328 ], [ 28.308595657348633, -18.808938980102539 ], [ 28.309183120727539, -18.827419281005859 ], [ 28.310317993164063, -18.85931396484375 ], [ 28.311420440673828, -18.902925491333008 ], [ 28.31263542175293, -18.936750411987305 ], [ 28.313455581665039, -18.976739883422852 ], [ 28.314516067504883, -19.006576538085938 ], [ 28.314815521240234, -19.020471572875977 ], [ 28.314916610717773, -19.033275604248047 ], [ 28.316688537597656, -19.048488616943359 ], [ 28.322263717651367, -19.049217224121094 ], [ 28.326971054077148, -19.048789978027344 ], [ 28.331686019897461, -19.049800872802734 ], [ 28.337305068969727, -19.050975799560547 ], [ 28.343770980834961, -19.051858901977539 ], [ 28.349691390991211, -19.052516937255859 ], [ 28.351865768432617, -19.052907943725586 ], [ 28.354528427124023, -19.053981781005859 ], [ 28.357494354248047, -19.055110931396484 ], [ 28.360578536987305, -19.056358337402344 ], [ 28.36439323425293, -19.058059692382813 ], [ 28.367780685424805, -19.059186935424805 ], [ 28.377267837524414, -19.06074333190918 ], [ 28.38409423828125, -19.061338424682617 ], [ 28.388212203979492, -19.063665390014648 ], [ 28.392318725585938, -19.063816070556641 ], [ 28.394914627075195, -19.063688278198242 ], [ 28.397945404052734, -19.065963745117188 ], [ 28.404668807983398, -19.069427490234375 ], [ 28.410171508789063, -19.070718765258789 ], [ 28.413309097290039, -19.070356369018555 ], [ 28.420381546020508, -19.071805953979492 ], [ 28.424732208251953, -19.072414398193359 ], [ 28.425411224365234, -19.074626922607422 ], [ 28.424674987792969, -19.107376098632813 ], [ 28.424760818481445, -19.124650955200195 ], [ 28.426198959350586, -19.157604217529297 ], [ 28.425041198730469, -19.157390594482422 ], [ 28.394918441772461, -19.150859832763672 ], [ 28.377483367919922, -19.14845085144043 ], [ 28.371330261230469, -19.147760391235352 ], [ 28.34376335144043, -19.144454956054688 ], [ 28.29212760925293, -19.135738372802734 ], [ 28.284168243408203, -19.179788589477539 ], [ 28.28386116027832, -19.22197151184082 ], [ 28.250810623168945, -19.219533920288086 ], [ 28.258262634277344, -19.203588485717773 ], [ 28.218128204345703, -19.191186904907227 ], [ 28.17772102355957, -19.21851921081543 ], [ 28.157188415527344, -19.235404968261719 ], [ 28.113262176513672, -19.271421432495117 ], [ 28.09022331237793, -19.28901481628418 ], [ 28.047218322753906, -19.324316024780273 ], [ 28.017440795898438, -19.348640441894531 ], [ 28.004850387573242, -19.358484268188477 ], [ 27.996053695678711, -19.36328125 ], [ 27.976943969726563, -19.378322601318359 ], [ 27.940412521362305, -19.408214569091797 ], [ 27.881328582763672, -19.449188232421875 ], [ 27.818035125732422, -19.49249267578125 ], [ 27.816082000732422, -19.495368957519531 ], [ 27.815055847167969, -19.494918823242188 ], [ 27.813058853149414, -19.493783950805664 ], [ 27.811788558959961, -19.492759704589844 ], [ 27.811000823974609, -19.491962432861328 ], [ 27.810634613037109, -19.491218566894531 ], [ 27.810026168823242, -19.489965438842773 ], [ 27.809240341186523, -19.489679336547852 ], [ 27.80833625793457, -19.489742279052734 ], [ 27.806230545043945, -19.490724563598633 ], [ 27.804788589477539, -19.49176025390625 ], [ 27.80406379699707, -19.491764068603516 ], [ 27.803041458129883, -19.492395401000977 ], [ 27.800479888916016, -19.493265151977539 ], [ 27.798324584960938, -19.492910385131836 ], [ 27.797515869140625, -19.49382209777832 ], [ 27.796184539794922, -19.495689392089844 ], [ 27.795322418212891, -19.495782852172852 ], [ 27.790195465087891, -19.494400024414063 ], [ 27.789501190185547, -19.494403839111328 ], [ 27.787595748901367, -19.496042251586914 ], [ 27.786642074584961, -19.497045516967773 ], [ 27.784931182861328, -19.499326705932617 ], [ 27.78411865234375, -19.499555587768555 ], [ 27.78154182434082, -19.501197814941406 ], [ 27.778772354125977, -19.502574920654297 ], [ 27.777671813964844, -19.502668380737305 ], [ 27.77556037902832, -19.501588821411133 ], [ 27.771738052368164, -19.497552871704102 ], [ 27.77171516418457, -19.497461318969727 ], [ 27.771675109863281, -19.497308731079102 ], [ 27.770963668823242, -19.496417999267578 ], [ 27.769691467285156, -19.495906829833984 ], [ 27.767875671386719, -19.495738983154297 ], [ 27.766786575317383, -19.495742797851563 ], [ 27.765790939331055, -19.496267318725586 ], [ 27.763889312744141, -19.497133255004883 ], [ 27.762348175048828, -19.497570037841797 ], [ 27.760808944702148, -19.49818229675293 ], [ 27.759632110595703, -19.498443603515625 ], [ 27.757905960083008, -19.49836540222168 ], [ 27.756454467773438, -19.498285293579102 ], [ 27.755088806152344, -19.497257232666016 ], [ 27.754266738891602, -19.49622917175293 ], [ 27.752895355224609, -19.493993759155273 ], [ 27.751979827880859, -19.492195129394531 ], [ 27.750883102416992, -19.490392684936523 ], [ 27.749971389770508, -19.489274978637695 ], [ 27.749151229858398, -19.488849639892578 ], [ 27.746789932250977, -19.488344192504883 ], [ 27.744611740112305, -19.488176345825195 ], [ 27.741979598999023, -19.487930297851563 ], [ 27.740253448486328, -19.487680435180664 ], [ 27.738300323486328, -19.486743927001953 ], [ 27.736660003662109, -19.485200881958008 ], [ 27.735561370849609, -19.483053207397461 ], [ 27.734645843505859, -19.481250762939453 ], [ 27.733549118041992, -19.479360580444336 ], [ 27.732175827026367, -19.476785659790039 ], [ 27.731351852416992, -19.475326538085938 ], [ 27.730258941650391, -19.474123001098633 ], [ 27.729257583618164, -19.473611831665039 ], [ 27.728349685668945, -19.473100662231445 ], [ 27.727439880371094, -19.472757339477539 ], [ 27.725988388061523, -19.472934722900391 ], [ 27.724176406860352, -19.47337532043457 ], [ 27.722997665405273, -19.473381042480469 ], [ 27.722225189208984, -19.473125457763672 ], [ 27.7213134765625, -19.472267150878906 ], [ 27.72076416015625, -19.470975875854492 ], [ 27.721033096313477, -19.470373153686523 ], [ 27.72148323059082, -19.469512939453125 ], [ 27.721569061279297, -19.468307495117188 ], [ 27.721290588378906, -19.46710205078125 ], [ 27.720918655395508, -19.465124130249023 ], [ 27.720823287963867, -19.463750839233398 ], [ 27.720998764038086, -19.462371826171875 ], [ 27.721263885498047, -19.461078643798828 ], [ 27.721893310546875, -19.459873199462891 ], [ 27.722614288330078, -19.458749771118164 ], [ 27.723922729492188, -19.457023620605469 ], [ 27.724550247192383, -19.455471038818359 ], [ 27.724544525146484, -19.453926086425781 ], [ 27.724266052246094, -19.45280647277832 ], [ 27.723716735839844, -19.45142936706543 ], [ 27.722440719604492, -19.450233459472656 ], [ 27.719619750976563, -19.448265075683594 ], [ 27.717433929443359, -19.446033477783203 ], [ 27.716066360473633, -19.444578170776367 ], [ 27.715473175048828, -19.443632125854492 ], [ 27.715280532836914, -19.440967559814453 ], [ 27.715255737304688, -19.435373306274414 ], [ 27.715425491333008, -19.433050155639648 ], [ 27.716144561767578, -19.431497573852539 ], [ 27.717046737670898, -19.430458068847656 ], [ 27.717952728271484, -19.430025100708008 ], [ 27.718767166137695, -19.429677963256836 ], [ 27.720310211181641, -19.429843902587891 ], [ 27.721582412719727, -19.430440902709961 ], [ 27.723033905029297, -19.430696487426758 ], [ 27.724576950073242, -19.430776596069336 ], [ 27.725797653198242, -19.429908752441406 ], [ 27.726882934570313, -19.429044723510742 ], [ 27.727329254150391, -19.427751541137695 ], [ 27.726873397827148, -19.426809310913086 ], [ 27.726144790649414, -19.42637825012207 ], [ 27.724781036376953, -19.42561149597168 ], [ 27.723415374755859, -19.424495697021484 ], [ 27.721416473388672, -19.423730850219727 ], [ 27.719600677490234, -19.423309326171875 ], [ 27.717967987060547, -19.423057556152344 ], [ 27.716606140136719, -19.422800064086914 ], [ 27.715242385864258, -19.422204971313477 ], [ 27.714332580566406, -19.42152214050293 ], [ 27.713781356811523, -19.419715881347656 ], [ 27.714046478271484, -19.418422698974609 ], [ 27.715219497680664, -19.416954040527344 ], [ 27.716211318969727, -19.415576934814453 ], [ 27.716703414916992, -19.414196014404297 ], [ 27.716878890991211, -19.412731170654297 ], [ 27.716781616210938, -19.411096572875977 ], [ 27.716501235961914, -19.40937614440918 ], [ 27.716131210327148, -19.40748405456543 ], [ 27.716033935546875, -19.406196594238281 ], [ 27.716573715209961, -19.405246734619141 ], [ 27.71711540222168, -19.404642105102539 ], [ 27.717840194702148, -19.404296875 ], [ 27.719377517700195, -19.403598785400391 ], [ 27.720285415649414, -19.403509140014648 ], [ 27.721103668212891, -19.404026031494141 ], [ 27.721923828125, -19.404794692993164 ], [ 27.722923278808594, -19.405563354492188 ], [ 27.72410774230957, -19.406593322753906 ], [ 27.725196838378906, -19.406932830810547 ], [ 27.726467132568359, -19.407014846801758 ], [ 27.727462768554688, -19.40675163269043 ], [ 27.728185653686523, -19.405891418457031 ], [ 27.728721618652344, -19.404253005981445 ], [ 27.728260040283203, -19.402360916137695 ], [ 27.727346420288086, -19.400644302368164 ], [ 27.724891662597656, -19.399446487426758 ], [ 27.722122192382813, -19.398685455322266 ], [ 27.719673156738281, -19.398265838623047 ], [ 27.717676162719727, -19.39784049987793 ], [ 27.715494155883789, -19.396903991699219 ], [ 27.713766098022461, -19.395875930786133 ], [ 27.711765289306641, -19.394424438476563 ], [ 27.709856033325195, -19.393138885498047 ], [ 27.707950592041016, -19.392717361450195 ], [ 27.705863952636719, -19.392553329467773 ], [ 27.703779220581055, -19.392820358276367 ], [ 27.702238082885742, -19.393169403076172 ], [ 27.700881958007813, -19.39369010925293 ], [ 27.699798583984375, -19.395242691040039 ], [ 27.698806762695313, -19.396282196044922 ], [ 27.697309494018555, -19.39628791809082 ], [ 27.695858001708984, -19.395772933959961 ], [ 27.694581985473633, -19.394577026367188 ], [ 27.693126678466797, -19.393289566040039 ], [ 27.692394256591797, -19.391656875610352 ], [ 27.692840576171875, -19.390277862548828 ], [ 27.693925857543945, -19.389499664306641 ], [ 27.695644378662109, -19.388463973999023 ], [ 27.697362899780273, -19.387508392333984 ], [ 27.69917106628418, -19.386035919189453 ], [ 27.700525283813477, -19.384658813476563 ], [ 27.701333999633789, -19.38310432434082 ], [ 27.701690673828125, -19.381553649902344 ], [ 27.701730728149414, -19.380346298217773 ], [ 27.701181411743164, -19.378974914550781 ], [ 27.699455261230469, -19.378547668457031 ], [ 27.697097778320313, -19.378299713134766 ], [ 27.695283889770508, -19.378393173217773 ], [ 27.693021774291992, -19.379179000854492 ], [ 27.691755294799805, -19.380212783813477 ], [ 27.690948486328125, -19.382282257080078 ], [ 27.690502166748047, -19.383918762207031 ], [ 27.689603805541992, -19.386159896850586 ], [ 27.688337326049805, -19.386770248413086 ], [ 27.686614990234375, -19.387033462524414 ], [ 27.684803009033203, -19.387212753295898 ], [ 27.683168411254883, -19.386789321899414 ], [ 27.681804656982422, -19.385845184326172 ], [ 27.680891036987305, -19.384212493896484 ], [ 27.680885314941406, -19.382577896118164 ], [ 27.680606842041016, -19.381290435791016 ], [ 27.679695129394531, -19.380001068115234 ], [ 27.677963256835938, -19.37794303894043 ], [ 27.676872253417969, -19.377260208129883 ], [ 27.675148010253906, -19.376832962036133 ], [ 27.673017501831055, -19.376840591430664 ], [ 27.671115875244141, -19.377538681030273 ], [ 27.669759750366211, -19.378402709960938 ], [ 27.668674468994141, -19.379011154174805 ], [ 27.667495727539063, -19.379274368286133 ], [ 27.66595458984375, -19.379194259643555 ], [ 27.664773941040039, -19.378940582275391 ], [ 27.663320541381836, -19.377910614013672 ], [ 27.662590026855469, -19.376621246337891 ], [ 27.662492752075195, -19.375070571899414 ], [ 27.662668228149414, -19.373611450195313 ], [ 27.663387298583984, -19.372058868408203 ], [ 27.664468765258789, -19.370590209960938 ], [ 27.6649169921875, -19.369300842285156 ], [ 27.665365219116211, -19.368093490600586 ], [ 27.665088653564453, -19.366973876953125 ], [ 27.664178848266602, -19.366289138793945 ], [ 27.662456512451172, -19.366039276123047 ], [ 27.660369873046875, -19.365961074829102 ], [ 27.658920288085938, -19.36613655090332 ], [ 27.657377243041992, -19.365713119506836 ], [ 27.656557083129883, -19.364767074584961 ], [ 27.655281066894531, -19.36279296875 ], [ 27.654684066772461, -19.361246109008789 ], [ 27.65467643737793, -19.359352111816406 ], [ 27.655488967895508, -19.358404159545898 ], [ 27.656303405761719, -19.357973098754883 ], [ 27.657392501831055, -19.357969284057617 ], [ 27.65875244140625, -19.358306884765625 ], [ 27.660116195678711, -19.359075546264648 ], [ 27.661478042602539, -19.359584808349609 ], [ 27.662294387817383, -19.359758377075195 ], [ 27.664018630981445, -19.35992431640625 ], [ 27.664833068847656, -19.359659194946289 ], [ 27.665918350219727, -19.358966827392578 ], [ 27.66790771484375, -19.357667922973633 ], [ 27.669443130493164, -19.356203079223633 ], [ 27.670618057250977, -19.355249404907227 ], [ 27.67115592956543, -19.354045867919922 ], [ 27.670696258544922, -19.352239608764648 ], [ 27.669784545898438, -19.35112190246582 ], [ 27.668691635131836, -19.350181579589844 ], [ 27.667329788208008, -19.349494934082031 ], [ 27.665969848632813, -19.34950065612793 ], [ 27.664152145385742, -19.348304748535156 ], [ 27.661464691162109, -19.344871520996094 ], [ 27.659820556640625, -19.342206954956055 ], [ 27.658454895019531, -19.340404510498047 ], [ 27.658357620239258, -19.338602066040039 ], [ 27.65898323059082, -19.336620330810547 ], [ 27.659975051879883, -19.335325241088867 ], [ 27.661239624023438, -19.334371566772461 ], [ 27.662509918212891, -19.334280014038086 ], [ 27.663234710693359, -19.334449768066406 ], [ 27.663780212402344, -19.334880828857422 ], [ 27.664146423339844, -19.335739135742188 ], [ 27.664878845214844, -19.337715148925781 ], [ 27.665700912475586, -19.339090347290039 ], [ 27.666975021362305, -19.340373992919922 ], [ 27.669429779052734, -19.341829299926758 ], [ 27.671064376831055, -19.342514038085938 ], [ 27.673151016235352, -19.343278884887695 ], [ 27.675689697265625, -19.343097686767578 ], [ 27.677047729492188, -19.34283447265625 ], [ 27.677951812744141, -19.34205436706543 ], [ 27.678400039672852, -19.340850830078125 ], [ 27.678302764892578, -19.339216232299805 ], [ 27.677753448486328, -19.337924957275391 ], [ 27.677022933959961, -19.336896896362305 ], [ 27.676296234130859, -19.336208343505859 ], [ 27.675296783447266, -19.335868835449219 ], [ 27.673662185668945, -19.335273742675781 ], [ 27.672391891479492, -19.334936141967773 ], [ 27.671396255493164, -19.335283279418945 ], [ 27.670494079589844, -19.335973739624023 ], [ 27.669769287109375, -19.336404800415039 ], [ 27.668865203857422, -19.336755752563477 ], [ 27.667503356933594, -19.336589813232422 ], [ 27.667047500610352, -19.335813522338867 ], [ 27.666772842407227, -19.334957122802734 ], [ 27.66712760925293, -19.333404541015625 ], [ 27.667396545410156, -19.332368850708008 ], [ 27.667884826660156, -19.329874038696289 ], [ 27.668516159057617, -19.329097747802734 ], [ 27.669422149658203, -19.328746795654297 ], [ 27.670238494873047, -19.329092025756836 ], [ 27.670783996582031, -19.329433441162109 ], [ 27.671510696411133, -19.329946517944336 ], [ 27.672056198120117, -19.330202102661133 ], [ 27.673595428466797, -19.330024719238281 ], [ 27.675588607788086, -19.329502105712891 ], [ 27.676671981811523, -19.328720092773438 ], [ 27.677846908569336, -19.327428817749023 ], [ 27.678020477294922, -19.325878143310547 ], [ 27.678016662597656, -19.324670791625977 ], [ 27.677827835083008, -19.322864532470703 ], [ 27.676824569702148, -19.321578979492188 ], [ 27.675643920898438, -19.321149826049805 ], [ 27.674646377563477, -19.320981979370117 ], [ 27.674015045166016, -19.321418762207031 ], [ 27.673564910888672, -19.322364807128906 ], [ 27.672481536865234, -19.323404312133789 ], [ 27.671758651733398, -19.323835372924805 ], [ 27.670671463012695, -19.324010848999023 ], [ 27.669672012329102, -19.323413848876953 ], [ 27.669305801391602, -19.322551727294922 ], [ 27.669029235839844, -19.321352005004883 ], [ 27.669113159179688, -19.320058822631836 ], [ 27.669107437133789, -19.318508148193359 ], [ 27.669235229492188, -19.316614151000977 ], [ 27.670047760009766, -19.315582275390625 ], [ 27.670949935913086, -19.314714431762695 ], [ 27.672124862670898, -19.314023971557617 ], [ 27.673393249511719, -19.313932418823242 ], [ 27.674755096435547, -19.314014434814453 ], [ 27.675481796264648, -19.314613342285156 ], [ 27.676029205322266, -19.315298080444336 ], [ 27.676849365234375, -19.316673278808594 ], [ 27.67730712890625, -19.317533493041992 ], [ 27.677944183349609, -19.318475723266602 ], [ 27.678764343261719, -19.319250106811523 ], [ 27.680667877197266, -19.319585800170898 ], [ 27.681755065917969, -19.31941032409668 ], [ 27.68238639831543, -19.318458557128906 ], [ 27.682834625244141, -19.317426681518555 ], [ 27.682464599609375, -19.315620422363281 ], [ 27.682188034057617, -19.314243316650391 ], [ 27.681367874145508, -19.313297271728516 ], [ 27.680456161499023, -19.311927795410156 ], [ 27.680171966552734, -19.309000015258789 ], [ 27.680522918701172, -19.305990219116211 ], [ 27.680963516235352, -19.303060531616211 ], [ 27.681360244750977, -19.300477981567383 ], [ 27.682443618774414, -19.299354553222656 ], [ 27.684070587158203, -19.298660278320313 ], [ 27.685792922973633, -19.298654556274414 ], [ 27.687152862548828, -19.298648834228516 ], [ 27.688507080078125, -19.297695159912109 ], [ 27.688686370849609, -19.296749114990234 ], [ 27.687410354614258, -19.295289993286133 ], [ 27.686046600341797, -19.294265747070313 ], [ 27.684404373168945, -19.29168701171875 ], [ 27.684127807617188, -19.290309906005859 ], [ 27.684667587280273, -19.289363861083984 ], [ 27.685340881347656, -19.287811279296875 ], [ 27.685878753662109, -19.286344528198242 ], [ 27.68659782409668, -19.285055160522461 ], [ 27.687591552734375, -19.284530639648438 ], [ 27.689043045043945, -19.284873962402344 ], [ 27.689952850341797, -19.285470962524414 ], [ 27.690681457519531, -19.286327362060547 ], [ 27.691410064697266, -19.287101745605469 ], [ 27.692317962646484, -19.287441253662109 ], [ 27.693492889404297, -19.287179946899414 ], [ 27.694307327270508, -19.286661148071289 ], [ 27.694576263427734, -19.285711288452148 ], [ 27.69520378112793, -19.284158706665039 ], [ 27.696100234985352, -19.281917572021484 ], [ 27.696819305419922, -19.280622482299805 ], [ 27.697538375854492, -19.279247283935547 ], [ 27.698165893554688, -19.277523040771484 ], [ 27.698612213134766, -19.276227951049805 ], [ 27.699058532714844, -19.274419784545898 ], [ 27.699726104736328, -19.271665573120117 ], [ 27.699630737304688, -19.2706298828125 ], [ 27.697702407836914, -19.264614105224609 ], [ 27.696603775024414, -19.261867523193359 ], [ 27.695734024047852, -19.259805679321289 ], [ 27.695457458496094, -19.258342742919922 ], [ 27.695720672607422, -19.25636100769043 ], [ 27.696168899536133, -19.255496978759766 ], [ 27.698066711425781, -19.254030227661133 ], [ 27.700958251953125, -19.25221061706543 ], [ 27.702583312988281, -19.251171112060547 ], [ 27.703489303588867, -19.250909805297852 ], [ 27.704303741455078, -19.250734329223633 ], [ 27.705028533935547, -19.250904083251953 ], [ 27.705392837524414, -19.251331329345703 ], [ 27.70539665222168, -19.252107620239258 ], [ 27.705402374267578, -19.253396987915039 ], [ 27.705949783325195, -19.254514694213867 ], [ 27.706592559814453, -19.256061553955078 ], [ 27.70713996887207, -19.257175445556641 ], [ 27.70777702331543, -19.257951736450195 ], [ 27.708505630493164, -19.258548736572266 ], [ 27.710498809814453, -19.258541107177734 ], [ 27.711584091186523, -19.258108139038086 ], [ 27.713752746582031, -19.256721496582031 ], [ 27.715831756591797, -19.255855560302734 ], [ 27.717279434204102, -19.255157470703125 ], [ 27.718820571899414, -19.25532341003418 ], [ 27.720088958740234, -19.255403518676758 ], [ 27.72308349609375, -19.256256103515625 ], [ 27.72612190246582, -19.257102966308594 ], [ 27.726940155029297, -19.257617950439453 ], [ 27.728847503662109, -19.258983612060547 ], [ 27.730300903320313, -19.259498596191406 ], [ 27.733022689819336, -19.260259628295898 ], [ 27.735198974609375, -19.261024475097656 ], [ 27.736196517944336, -19.261020660400391 ], [ 27.737010955810547, -19.260587692260742 ], [ 27.737728118896484, -19.259206771850586 ], [ 27.738714218139648, -19.256622314453125 ], [ 27.73961067199707, -19.254552841186523 ], [ 27.739328384399414, -19.252231597900391 ], [ 27.738142013549805, -19.250600814819336 ], [ 27.736963272094727, -19.250263214111328 ], [ 27.735332489013672, -19.250011444091797 ], [ 27.732791900634766, -19.249502182006836 ], [ 27.732065200805664, -19.248989105224609 ], [ 27.731790542602539, -19.248218536376953 ], [ 27.731777191162109, -19.245204925537109 ], [ 27.731590270996094, -19.244003295898438 ], [ 27.730583190917969, -19.241508483886719 ], [ 27.729713439941406, -19.239704132080078 ], [ 27.728622436523438, -19.238763809204102 ], [ 27.725990295410156, -19.237567901611328 ], [ 27.723989486694336, -19.235595703125 ], [ 27.722892761230469, -19.233621597290039 ], [ 27.721796035766602, -19.231304168701172 ], [ 27.721426010131836, -19.229669570922852 ], [ 27.721773147583008, -19.226053237915039 ], [ 27.721540451049805, -19.224851608276367 ], [ 27.720720291137695, -19.223733901977539 ], [ 27.718906402587891, -19.222969055175781 ], [ 27.717182159423828, -19.222627639770508 ], [ 27.715642929077148, -19.222461700439453 ], [ 27.714193344116211, -19.222467422485352 ], [ 27.712469100952148, -19.221958160400391 ], [ 27.711833953857422, -19.221446990966797 ], [ 27.71101188659668, -19.220157623291016 ], [ 27.711093902587891, -19.218177795410156 ], [ 27.711360931396484, -19.216970443725586 ], [ 27.712352752685547, -19.215850830078125 ], [ 27.713163375854492, -19.214639663696289 ], [ 27.713516235351563, -19.212745666503906 ], [ 27.713466644287109, -19.211458206176758 ], [ 27.712369918823242, -19.209135055541992 ], [ 27.711545944213867, -19.207073211669922 ], [ 27.709182739257813, -19.205360412597656 ], [ 27.707002639770508, -19.204080581665039 ], [ 27.704099655151367, -19.202800750732422 ], [ 27.703643798828125, -19.202285766601563 ], [ 27.703367233276367, -19.200994491577148 ], [ 27.704177856445313, -19.20013427734375 ], [ 27.703903198242188, -19.199357986450195 ], [ 27.703218460083008, -19.198244094848633 ], [ 27.702299118041992, -19.194717407226563 ], [ 27.701648712158203, -19.190933227539063 ], [ 27.700725555419922, -19.186807632446289 ], [ 27.701171875, -19.185340881347656 ], [ 27.701530456542969, -19.184219360351563 ], [ 27.70147705078125, -19.182497024536133 ], [ 27.701467514038086, -19.180089950561523 ], [ 27.701189041137695, -19.178716659545898 ], [ 27.700366973876953, -19.176912307739258 ], [ 27.699184417724609, -19.175710678100586 ], [ 27.697546005249023, -19.173736572265625 ], [ 27.697269439697266, -19.172788619995117 ], [ 27.697265625, -19.171586990356445 ], [ 27.697713851928711, -19.170551300048828 ], [ 27.698524475097656, -19.16960334777832 ], [ 27.69911003112793, -19.1688232421875 ], [ 27.700464248657227, -19.167959213256836 ], [ 27.701728820800781, -19.167182922363281 ], [ 27.701723098754883, -19.165803909301758 ], [ 27.701267242431641, -19.164772033691406 ], [ 27.700357437133789, -19.163829803466797 ], [ 27.698543548583984, -19.163408279418945 ], [ 27.696821212768555, -19.162981033325195 ], [ 27.695642471313477, -19.162469863891602 ], [ 27.694822311401367, -19.161352157592773 ], [ 27.694908142089844, -19.160236358642578 ], [ 27.695899963378906, -19.158939361572266 ], [ 27.697160720825195, -19.157470703125 ], [ 27.699235916137695, -19.155918121337891 ], [ 27.700139999389648, -19.155136108398438 ], [ 27.701896667480469, -19.153236389160156 ], [ 27.702798843383789, -19.152288436889648 ], [ 27.703062057495117, -19.150480270385742 ], [ 27.703144073486328, -19.148500442504883 ], [ 27.703680038452148, -19.146690368652344 ], [ 27.703948974609375, -19.146003723144531 ], [ 27.703039169311523, -19.144886016845703 ], [ 27.702400207519531, -19.143682479858398 ], [ 27.702211380004883, -19.142133712768555 ], [ 27.701793670654297, -19.139554977416992 ], [ 27.702230453491211, -19.136022567749023 ], [ 27.702678680419922, -19.134733200073242 ], [ 27.702489852905273, -19.133012771606445 ], [ 27.702213287353516, -19.131721496582031 ], [ 27.700485229492188, -19.129920959472656 ], [ 27.698127746582031, -19.128898620605469 ], [ 27.696403503417969, -19.128299713134766 ], [ 27.6956787109375, -19.127702713012695 ], [ 27.694950103759766, -19.126668930053711 ], [ 27.695171356201172, -19.125810623168945 ], [ 27.69525146484375, -19.123315811157227 ], [ 27.694789886474609, -19.12108039855957 ], [ 27.694601058959961, -19.119102478027344 ], [ 27.693685531616211, -19.116949081420898 ], [ 27.692138671875, -19.115062713623047 ], [ 27.690774917602539, -19.113521575927734 ], [ 27.689140319824219, -19.112064361572266 ], [ 27.684825897216797, -19.108722686767578 ], [ 27.682100296020508, -19.106239318847656 ], [ 27.681097030639648, -19.104349136352539 ], [ 27.681272506713867, -19.103313446044922 ], [ 27.681449890136719, -19.102024078369141 ], [ 27.681989669799805, -19.10133171081543 ], [ 27.68280029296875, -19.100555419921875 ], [ 27.683794021606445, -19.100122451782227 ], [ 27.685153961181641, -19.100374221801758 ], [ 27.686603546142578, -19.100627899169922 ], [ 27.688777923583984, -19.101306915283203 ], [ 27.689775466918945, -19.10173225402832 ], [ 27.691045761108398, -19.102504730224609 ], [ 27.691501617431641, -19.103189468383789 ], [ 27.691961288452148, -19.104738235473633 ], [ 27.691692352294922, -19.105424880981445 ], [ 27.691333770751953, -19.106460571289063 ], [ 27.691246032714844, -19.107234954833984 ], [ 27.691520690917969, -19.107753753662109 ], [ 27.69233512878418, -19.10783576965332 ], [ 27.6932373046875, -19.107141494750977 ], [ 27.694503784179688, -19.106792449951172 ], [ 27.695131301879883, -19.105411529541016 ], [ 27.695306777954102, -19.103866577148438 ], [ 27.695480346679688, -19.102230072021484 ], [ 27.695655822753906, -19.100936889648438 ], [ 27.6959228515625, -19.099557876586914 ], [ 27.696643829345703, -19.098953247070313 ], [ 27.697641372680664, -19.099206924438477 ], [ 27.698911666870117, -19.099979400634766 ], [ 27.699819564819336, -19.100749969482422 ], [ 27.700634002685547, -19.10066032409668 ], [ 27.701534271240234, -19.099365234375 ], [ 27.701980590820313, -19.098073959350586 ], [ 27.701885223388672, -19.096868515014648 ], [ 27.701452255249023, -19.09503173828125 ], [ 27.701543807983398, -19.094930648803711 ], [ 27.701887130737305, -19.093940734863281 ], [ 27.706350326538086, -19.09356689453125 ], [ 27.706846237182617, -19.091892242431641 ], [ 27.704690933227539, -19.087711334228516 ], [ 27.699871063232422, -19.084020614624023 ], [ 27.696239471435547, -19.081769943237305 ], [ 27.695356369018555, -19.080694198608398 ], [ 27.698118209838867, -19.079729080200195 ], [ 27.700502395629883, -19.078884124755859 ], [ 27.700942993164063, -19.07615852355957 ], [ 27.698945999145508, -19.073694229125977 ], [ 27.698455810546875, -19.070478439331055 ], [ 27.696746826171875, -19.067537307739258 ], [ 27.69660758972168, -19.064311981201172 ], [ 27.694952011108398, -19.059415817260742 ], [ 27.694061279296875, -19.056549072265625 ], [ 27.694175720214844, -19.053918838500977 ], [ 27.697441101074219, -19.053070068359375 ], [ 27.699810028076172, -19.051887512207031 ], [ 27.70081901550293, -19.049468994140625 ], [ 27.699804306030273, -19.048040390014648 ], [ 27.697601318359375, -19.046611785888672 ], [ 27.694562911987305, -19.041242599487305 ], [ 27.693466186523438, -19.034788131713867 ], [ 27.693328857421875, -19.031919479370117 ], [ 27.70161247253418, -19.028421401977539 ], [ 27.704000473022461, -19.028535842895508 ], [ 27.706743240356445, -19.023019790649414 ], [ 27.711132049560547, -19.020612716674805 ], [ 27.715978622436523, -19.022150039672852 ], [ 27.72175407409668, -19.020694732666016 ], [ 27.726400375366211, -19.019718170166016 ], [ 27.729425430297852, -19.021499633789063 ], [ 27.732694625854492, -19.022083282470703 ], [ 27.735076904296875, -19.020519256591797 ], [ 27.734308242797852, -19.017057418823242 ], [ 27.736684799194336, -19.014656066894531 ], [ 27.737613677978516, -19.011661529541016 ], [ 27.739238739013672, -19.009626388549805 ], [ 27.742874145507813, -19.007455825805664 ], [ 27.745126724243164, -19.00529670715332 ], [ 27.746431350708008, -19.001825332641602 ], [ 27.746797561645508, -18.999311447143555 ], [ 27.745658874511719, -18.997760772705078 ], [ 27.746025085449219, -18.995128631591797 ], [ 27.749164581298828, -18.994638442993164 ], [ 27.750087738037109, -18.99249267578125 ], [ 27.751585006713867, -18.986064910888672 ], [ 27.754514694213867, -18.982658386230469 ], [ 27.756679534912109, -18.979822158813477 ], [ 27.756742477416992, -18.975122451782227 ], [ 27.755788803100586, -18.972513198852539 ], [ 27.755420684814453, -18.969244003295898 ], [ 27.755197525024414, -18.966636657714844 ], [ 27.754926681518555, -18.963619232177734 ], [ 27.753774642944336, -18.961093902587891 ], [ 27.752202987670898, -18.959604263305664 ], [ 27.748455047607422, -18.956447601318359 ], [ 27.742744445800781, -18.951702117919922 ], [ 27.740718841552734, -18.944128036499023 ], [ 27.742803573608398, -18.934354782104492 ], [ 27.743463516235352, -18.931713104248047 ], [ 27.744487762451172, -18.927316665649414 ], [ 27.741632461547852, -18.925430297851563 ], [ 27.736225128173828, -18.925722122192383 ], [ 27.731439590454102, -18.925004959106445 ], [ 27.729103088378906, -18.925067901611328 ], [ 27.727094650268555, -18.925125122070313 ], [ 27.721979141235352, -18.922525405883789 ], [ 27.716548919677734, -18.917398452758789 ], [ 27.711137771606445, -18.910614013671875 ], [ 27.708709716796875, -18.901834487915039 ], [ 27.708063125610352, -18.89630126953125 ], [ 27.703500747680664, -18.894147872924805 ], [ 27.700649261474609, -18.89307975769043 ], [ 27.696325302124023, -18.892480850219727 ], [ 27.690591812133789, -18.892772674560547 ], [ 27.687393188476563, -18.893001556396484 ], [ 27.685220718383789, -18.892717361450195 ], [ 27.682079315185547, -18.890653610229492 ], [ 27.676464080810547, -18.887899398803711 ], [ 27.666501998901367, -18.884632110595703 ], [ 27.661190032958984, -18.882509231567383 ], [ 27.658050537109375, -18.880962371826172 ], [ 27.655210494995117, -18.877922058105469 ], [ 27.653902053833008, -18.874553680419922 ], [ 27.652004241943359, -18.871547698974609 ], [ 27.650915145874023, -18.868047714233398 ], [ 27.648075103759766, -18.865524291992188 ], [ 27.644453048706055, -18.862882614135742 ], [ 27.640890121459961, -18.860876083374023 ], [ 27.638900756835938, -18.862369537353516 ], [ 27.636367797851563, -18.86414909362793 ], [ 27.633533477783203, -18.864665985107422 ], [ 27.63232421875, -18.863056182861328 ], [ 27.63292121887207, -18.857559204101563 ], [ 27.631772994995117, -18.855365753173828 ], [ 27.631889343261719, -18.849224090576172 ], [ 27.632062911987305, -18.843254089355469 ], [ 27.631093978881836, -18.838779449462891 ], [ 27.630548477172852, -18.831827163696289 ], [ 27.626558303833008, -18.829946517944336 ], [ 27.619594573974609, -18.831321716308594 ], [ 27.615327835083008, -18.831876754760742 ], [ 27.609006881713867, -18.832006454467773 ], [ 27.60394287109375, -18.830829620361328 ], [ 27.601221084594727, -18.826839447021484 ], [ 27.602546691894531, -18.824945449829102 ], [ 27.604654312133789, -18.82196044921875 ], [ 27.605556488037109, -18.818632125854492 ], [ 27.600969314575195, -18.814155578613281 ], [ 27.597650527954102, -18.81254768371582 ], [ 27.592159271240234, -18.810535430908203 ], [ 27.587574005126953, -18.809389114379883 ], [ 27.581480026245117, -18.808242797851563 ], [ 27.57731819152832, -18.806804656982422 ], [ 27.575384140014648, -18.803073883056641 ], [ 27.572366714477539, -18.799860000610352 ], [ 27.567901611328125, -18.79853630065918 ], [ 27.562294006347656, -18.80186653137207 ], [ 27.560184478759766, -18.803070068359375 ], [ 27.556022644042969, -18.802324295043945 ], [ 27.552883148193359, -18.798360824584961 ], [ 27.548479080200195, -18.798358917236328 ], [ 27.542268753051758, -18.799678802490234 ], [ 27.538124084472656, -18.799877166748047 ], [ 27.533159255981445, -18.798526763916016 ], [ 27.528814315795898, -18.793821334838867 ], [ 27.526100158691406, -18.791753768920898 ], [ 27.522420883178711, -18.791118621826172 ], [ 27.518680572509766, -18.791233062744141 ], [ 27.509754180908203, -18.791112899780273 ], [ 27.506134033203125, -18.788125991821289 ], [ 27.504325866699219, -18.786174774169922 ], [ 27.500650405883789, -18.782003402709961 ], [ 27.498764038085938, -18.781290054321289 ], [ 27.496757507324219, -18.781892776489258 ], [ 27.489990234375, -18.785497665405273 ], [ 27.488105773925781, -18.785146713256836 ], [ 27.483831405639648, -18.782527923583984 ], [ 27.480436325073242, -18.780502319335938 ], [ 27.475543975830078, -18.781351089477539 ], [ 27.473594665527344, -18.780099868774414 ], [ 27.470952987670898, -18.778434753417969 ], [ 27.467811584472656, -18.777126312255859 ], [ 27.464040756225586, -18.774980545043945 ], [ 27.461023330688477, -18.773199081420898 ], [ 27.455364227294922, -18.769502639770508 ], [ 27.448070526123047, -18.764499664306641 ], [ 27.442039489746094, -18.76164436340332 ], [ 27.438398361206055, -18.761173248291016 ], [ 27.435150146484375, -18.762414932250977 ], [ 27.431501388549805, -18.763702392578125 ], [ 27.427984237670898, -18.762395858764648 ], [ 27.427389144897461, -18.760610580444336 ], [ 27.427610397338867, -18.757732391357422 ], [ 27.42628288269043, -18.753694534301758 ], [ 27.422882080078125, -18.74920654296875 ], [ 27.424896240234375, -18.726827621459961 ], [ 27.427190780639648, -18.719671249389648 ], [ 27.429721832275391, -18.70977783203125 ], [ 27.412603378295898, -18.704799652099609 ], [ 27.412363052368164, -18.697126388549805 ], [ 27.412296295166016, -18.670209884643555 ], [ 27.412347793579102, -18.629690170288086 ], [ 27.420982360839844, -18.626485824584961 ], [ 27.429988861083984, -18.623067855834961 ], [ 27.437286376953125, -18.620473861694336 ], [ 27.456705093383789, -18.613178253173828 ], [ 27.460372924804688, -18.604412078857422 ], [ 27.467258453369141, -18.587392807006836 ], [ 27.473604202270508, -18.572031021118164 ], [ 27.493192672729492, -18.566032409667969 ], [ 27.495565414428711, -18.56446647644043 ], [ 27.5, -18.557559967041016 ], [ 27.533590316772461, -18.506237030029297 ], [ 27.518957138061523, -18.502553939819336 ], [ 27.510215759277344, -18.454387664794922 ], [ 27.469928741455078, -18.434295654296875 ], [ 27.419841766357422, -18.437870025634766 ], [ 27.340719223022461, -18.436008453369141 ], [ 27.331907272338867, -18.411895751953125 ], [ 27.515491485595703, -18.368230819702148 ], [ 27.573587417602539, -18.428867340087891 ], [ 27.684965133666992, -18.411262512207031 ], [ 27.780824661254883, -18.396648406982422 ], [ 27.855836868286133, -18.385013580322266 ], [ 27.856817245483398, -18.373445510864258 ], [ 27.857675552368164, -18.370626449584961 ], [ 27.859983444213867, -18.361112594604492 ], [ 27.861763000488281, -18.352273941040039 ], [ 27.862798690795898, -18.346073150634766 ], [ 27.862697601318359, -18.343610763549805 ], [ 27.860279083251953, -18.339803695678711 ], [ 27.858671188354492, -18.338369369506836 ], [ 27.858119964599609, -18.334548950195313 ], [ 27.858373641967773, -18.331916809082031 ], [ 27.85930061340332, -18.330810546875 ], [ 27.861024856567383, -18.328849792480469 ], [ 27.861459732055664, -18.327062606811523 ], [ 27.862611770629883, -18.326213836669922 ], [ 27.864301681518555, -18.326711654663086 ], [ 27.865451812744141, -18.325857162475586 ], [ 27.867372512817383, -18.322982788085938 ], [ 27.870594024658203, -18.321643829345703 ], [ 27.87129020690918, -18.320230484008789 ], [ 27.873947143554688, -18.318519592285156 ], [ 27.874116897583008, -18.316652297973633 ], [ 27.875877380371094, -18.315446853637695 ], [ 27.876710891723633, -18.31182861328125 ], [ 27.876794815063477, -18.310272216796875 ], [ 27.875453948974609, -18.30858039855957 ], [ 27.875356674194336, -18.307138442993164 ], [ 27.874370574951172, -18.305362701416016 ], [ 27.875869750976563, -18.302978515625 ], [ 27.877811431884766, -18.300506591796875 ], [ 27.878602981567383, -18.29888916015625 ], [ 27.881130218505859, -18.297943115234375 ], [ 27.884063720703125, -18.298101425170898 ], [ 27.886196136474609, -18.297920227050781 ], [ 27.887607574462891, -18.295961380004883 ], [ 27.889379501342773, -18.29493522644043 ], [ 27.889657974243164, -18.293787002563477 ], [ 27.892831802368164, -18.292289733886719 ], [ 27.892646789550781, -18.290929794311523 ], [ 27.893617630004883, -18.289936065673828 ], [ 27.89494514465332, -18.288627624511719 ], [ 27.895660400390625, -18.289388656616211 ], [ 27.897253036499023, -18.288192749023438 ], [ 27.896400451660156, -18.286582946777344 ], [ 27.896928787231445, -18.285564422607422 ], [ 27.898782730102539, -18.283432006835938 ], [ 27.897975921630859, -18.282079696655273 ], [ 27.898166656494141, -18.280691146850586 ], [ 27.89796257019043, -18.279443740844727 ], [ 27.89918327331543, -18.278219223022461 ], [ 27.900320053100586, -18.276094436645508 ], [ 27.901483535766602, -18.273231506347656 ], [ 27.903564453125, -18.272132873535156 ], [ 27.90458869934082, -18.272300720214844 ], [ 27.905387878417969, -18.272844314575195 ], [ 27.90594482421875, -18.273220062255859 ], [ 27.906829833984375, -18.272493362426758 ], [ 27.908058166503906, -18.272487640380859 ], [ 27.909397125244141, -18.272588729858398 ], [ 27.910116195678711, -18.271356582641602 ], [ 27.91151237487793, -18.271780014038086 ], [ 27.911563873291016, -18.270767211914063 ], [ 27.914241790771484, -18.271017074584961 ], [ 27.915254592895508, -18.272344589233398 ], [ 27.914922714233398, -18.273092269897461 ], [ 27.916261672973633, -18.273035049438477 ], [ 27.917888641357422, -18.274839401245117 ], [ 27.919052124023438, -18.273393630981445 ], [ 27.920051574707031, -18.272539138793945 ], [ 27.921394348144531, -18.273168563842773 ], [ 27.922784805297852, -18.272361755371094 ], [ 27.922830581665039, -18.27044677734375 ], [ 27.923215866088867, -18.269590377807617 ], [ 27.924655914306641, -18.269628524780273 ], [ 27.926122665405273, -18.27064323425293 ], [ 27.927341461181641, -18.268825531005859 ], [ 27.929454803466797, -18.26774787902832 ], [ 27.930673599243164, -18.266088485717773 ], [ 27.932010650634766, -18.265815734863281 ], [ 27.932844161987305, -18.265010833740234 ], [ 27.934627532958984, -18.264680862426758 ], [ 27.93690299987793, -18.262893676757813 ], [ 27.939617156982422, -18.259117126464844 ], [ 27.943899154663086, -18.256320953369141 ], [ 27.947795867919922, -18.254972457885742 ], [ 27.950197219848633, -18.255544662475586 ], [ 27.950649261474609, -18.253973007202148 ], [ 27.951427459716797, -18.25090217590332 ], [ 27.952695846557617, -18.248228073120117 ], [ 27.954351425170898, -18.244840621948242 ], [ 27.956657409667969, -18.24336051940918 ], [ 27.959712982177734, -18.242622375488281 ], [ 27.960391998291016, -18.242965698242188 ], [ 27.962224960327148, -18.241308212280273 ], [ 27.963787078857422, -18.241458892822266 ], [ 27.967191696166992, -18.241815567016602 ], [ 27.969141006469727, -18.241376876831055 ], [ 27.97003173828125, -18.241422653198242 ], [ 27.973485946655273, -18.240451812744141 ], [ 27.975978851318359, -18.242303848266602 ], [ 27.978935241699219, -18.242181777954102 ], [ 27.981723785400391, -18.242221832275391 ], [ 27.983556747436523, -18.240987777709961 ], [ 27.985660552978516, -18.23809814453125 ], [ 27.988180160522461, -18.23921012878418 ], [ 27.991008758544922, -18.239950180053711 ], [ 27.993955612182617, -18.240400314331055 ], [ 27.996959686279297, -18.238996505737305 ], [ 27.998119354248047, -18.236858367919922 ], [ 27.999622344970703, -18.236316680908203 ], [ 28.001731872558594, -18.234601974487305 ], [ 28.003732681274414, -18.233417510986328 ], [ 28.005062103271484, -18.231706619262695 ], [ 28.005743026733398, -18.23109245300293 ] ] ] ] } }
]
}
