{
"type": "FeatureCollection",
"name": "PROTECTED AREAS WITHIN LUPANE",
"crs": { "type": "name", "properties": { "name": "urn:ogc:def:crs:OGC:1.3:CRS84" } },
"features": [
{ "type": "Feature", "properties": { "SITE_ID": 20343, "SITE_PID": "20343", "SITE_TYPE": "PA", "NAME_ENG": "Gwayi", "NAME": "Gwayi", "DESIG": "State Forest", "DESIG_ENG": "State Forest", "DESIG_TYPE": "National", "IUCN_CAT": "Not Reported", "INT_CRIT": "Not Applicable", "REALM": "Terrestrial", "REP_M_AREA": 0.0, "GIS_M_AREA": 0.0, "REP_AREA": 1442.3, "GIS_AREA": 1428.50841558101, "NO_TAKE": "Not Applicable", "NO_TK_AREA": 0.0, "STATUS": "Designated", "STATUS_YR": 1930, "GOV_TYPE": "Not Reported", "GOVSUBTYPE": "Not Applicable", "OWN_TYPE": "Not Reported", "OWNSUBTYPE": "Not Applicable", "MANG_AUTH": "Not Reported", "MANG_PLAN": "Not Reported", "VERIF": "State Verified", "METADATAID": 1829, "PRNT_ISO3": "ZWE", "ISO3": "ZWE", "SUPP_INFO": "Not Applicable", "CONS_OBJ": "Not Applicable", "INLND_WTRS": "Not Reported", "OECM_ASMT": "Not Applicable" }, "geometry": { "type": "MultiPolygon", "coordinates": [ [ [ [ 27.753196820521229, -19.494720744447214 ], [ 27.753108631312291, -19.494578025919541 ], [ 27.752999235100326, -19.494400987164404 ], [ 27.752926166993461, -19.49429470624024 ], [ 27.752853923618481, -19.494117955546287 ], [ 27.752781268072241, -19.493976439683813 ], [ 27.752708612655788, -19.493834923785737 ], [ 27.75263554500204, -19.493728642722747 ], [ 27.752600042149894, -19.493587415000572 ], [ 27.752527387074405, -19.493445899012592 ], [ 27.752455144537254, -19.493269148115786 ], [ 27.752382902163003, -19.493092397181435 ], [ 27.752347812121098, -19.492915934512695 ], [ 27.752275570032715, -19.492739183519451 ], [ 27.752240480196676, -19.492562720816533 ], [ 27.752168238394148, -19.492385969764403 ], [ 27.752132736279894, -19.492244741906191 ], [ 27.751987428341906, -19.491961709410162 ], [ 27.75191477456756, -19.491820193108758 ], [ 27.751879272812854, -19.491678965180512 ], [ 27.751806206707705, -19.491572683706963 ], [ 27.751733965849237, -19.491395932431683 ], [ 27.751660899970602, -19.491289650888735 ], [ 27.751551507642276, -19.491112611067699 ], [ 27.751478854646496, -19.490971094552712 ], [ 27.751260071073744, -19.490617014573143 ], [ 27.751187418563973, -19.490475497917569 ], [ 27.751078027319537, -19.490298457759039 ], [ 27.750968223570009, -19.490156652415589 ], [ 27.75085883278598, -19.489979612103259 ], [ 27.750749029447679, -19.489837806608335 ], [ 27.75063922630271, -19.489696001038208 ], [ 27.750346143603487, -19.489341342416061 ], [ 27.750162451410983, -19.489163724133125 ], [ 27.750015497945668, -19.489021629360447 ], [ 27.749795068228845, -19.488808486957581 ], [ 27.749684440553697, -19.48873715055079 ], [ 27.74922358393005, -19.488394940070389 ], [ 27.749086223904371, -19.488395066462669 ], [ 27.748744238407181, -19.488314314258425 ], [ 27.748402347988616, -19.488314627746263 ], [ 27.748060362953208, -19.488233874232659 ], [ 27.747632905698534, -19.488153198006479 ], [ 27.74700221304413, -19.488153771668454 ], [ 27.74633, -19.48635 ], [ 27.74003, -19.48357 ], [ 27.73569, -19.47919 ], [ 27.73159, -19.47413 ], [ 27.72435, -19.46768 ], [ 27.72291, -19.46446 ], [ 27.7251, -19.46056 ], [ 27.72633, -19.4569 ], [ 27.72466, -19.4523 ], [ 27.72153, -19.44701 ], [ 27.71985, -19.44379 ], [ 27.71986, -19.43989 ], [ 27.722300001, -19.4353 ], [ 27.72766, -19.42937 ], [ 27.7296, -19.42662 ], [ 27.72914, -19.42432 ], [ 27.72624, -19.42179 ], [ 27.7231, -19.41948 ], [ 27.72045, -19.41511 ], [ 27.72047, -19.41052 ], [ 27.72387, -19.40685 ], [ 27.725034758043165, -19.40607463320881 ], [ 27.725241118997623, -19.406221236708173 ], [ 27.725497572838151, -19.406383173559327 ], [ 27.725668596975716, -19.406545176227183 ], [ 27.725925051736962, -19.406707112439019 ], [ 27.726181424790006, -19.406787980812343 ], [ 27.726437715749306, -19.406787781362024 ], [ 27.726779437007167, -19.406787514865954 ], [ 27.727206505830342, -19.406706113401093 ], [ 27.72754814398148, -19.406624778028586 ], [ 27.727804351605752, -19.406543509226186 ], [ 27.727975045753933, -19.406381239919959 ], [ 27.728487292837883, -19.406056565941036 ], [ 27.728828678413514, -19.40573202595262 ], [ 27.728999287112565, -19.405488688307745 ], [ 27.729084465845961, -19.405245418294673 ], [ 27.729169644337695, -19.405002148243359 ], [ 27.729169477029544, -19.404840013393528 ], [ 27.729169393377767, -19.404758945967501 ], [ 27.729169226078817, -19.404596811113297 ], [ 27.729083546141986, -19.404353676592962 ], [ 27.728912354084375, -19.404029542262474 ], [ 27.728740995886483, -19.403543272849618 ], [ 27.728705489190141, -19.40345927056773 ], [ 27.72873, -19.40344 ], [ 27.72753, -19.40091 ], [ 27.72149, -19.39744 ], [ 27.71642, -19.39466 ], [ 27.711593355378504, -19.394172529490582 ], [ 27.711561140621956, -19.394152182462815 ], [ 27.711219295568338, -19.393990283867744 ], [ 27.710877376781625, -19.393747316781305 ], [ 27.710621031178643, -19.393666425806366 ], [ 27.710450035342479, -19.39350440783986 ], [ 27.71027911393336, -19.39342345753635 ], [ 27.710022695148666, -19.393261497847117 ], [ 27.709851774194494, -19.393180547124906 ], [ 27.70626312087316, -19.392210154678821 ], [ 27.706177697819065, -19.39221021147689 ], [ 27.706092274763506, -19.392210268234823 ], [ 27.705665159463752, -19.392210551422469 ], [ 27.705408890266344, -19.392210720853452 ], [ 27.705152621055767, -19.392210889923195 ], [ 27.704810928754533, -19.392211114787656 ], [ 27.704554659513271, -19.392211283014579 ], [ 27.704213038236315, -19.392292574700175 ], [ 27.704086182847696, -19.39233279797168 ], [ 27.70238, -19.39071 ], [ 27.70168, -19.38657 ], [ 27.701691253073335, -19.383087173807638 ], [ 27.701813163292861, -19.382971300108625 ], [ 27.702069138866342, -19.382646863942981 ], [ 27.702239765386032, -19.382403550288664 ], [ 27.702495809281814, -19.382160181620005 ], [ 27.702666434672206, -19.381916867588089 ], [ 27.702751641946335, -19.381673608421384 ], [ 27.702836848978638, -19.381430349216139 ], [ 27.702836708596525, -19.381268213086265 ], [ 27.702836568220285, -19.381106076953468 ], [ 27.702836427849913, -19.380943940817772 ], [ 27.701211211347264, -19.378269731516188 ], [ 27.700974426522972, -19.378120140941331 ], [ 27.70074, -19.37739 ], [ 27.69736, -19.37485 ], [ 27.69567, -19.37484 ], [ 27.69227, -19.37736 ], [ 27.69129, -19.37987 ], [ 27.68788, -19.38514 ], [ 27.68545, -19.3849 ], [ 27.68304, -19.38374 ], [ 27.68159, -19.38144 ], [ 27.67991, -19.37822 ], [ 27.6758, -19.37683 ], [ 27.675457019772082, -19.376769398253174 ], [ 27.675423042507308, -19.376743969958227 ], [ 27.675313411658447, -19.376744023896769 ], [ 27.673139999, -19.37636 ], [ 27.67193, -19.37498 ], [ 27.66905, -19.36969 ], [ 27.66544, -19.36508 ], [ 27.66399, -19.3637 ], [ 27.66327, -19.36232 ], [ 27.663972141825933, -19.359274222620002 ], [ 27.664735108991032, -19.359326890489879 ], [ 27.664905922170561, -19.3593268168154 ], [ 27.665076684203889, -19.35924567413371 ], [ 27.665247446064321, -19.359164531296173 ], [ 27.66541825905869, -19.359164457146061 ], [ 27.665503614204791, -19.359083351168891 ], [ 27.665589020656363, -19.359083313994965 ], [ 27.665674375674499, -19.359002207940776 ], [ 27.665845188486415, -19.359002133395197 ], [ 27.66601594969336, -19.358920989853551 ], [ 27.666272065318079, -19.35875873983208 ], [ 27.668833246299968, -19.357217289284165 ], [ 27.669003951062692, -19.357055074216206 ], [ 27.669089303317467, -19.356973966624924 ], [ 27.669260060741163, -19.356892820133641 ], [ 27.669260050498554, -19.356877202334605 ], [ 27.67081, -19.35615 ], [ 27.67227, -19.35478 ], [ 27.67156, -19.35157 ], [ 27.66818, -19.34834 ], [ 27.66722, -19.3465 ], [ 27.66699, -19.3426 ], [ 27.66748, -19.34168 ], [ 27.669792119477425, -19.340869566368749 ], [ 27.669847392077237, -19.340921979913851 ], [ 27.67001823921764, -19.341002970954861 ], [ 27.670018292494451, -19.341084039891332 ], [ 27.671983562982113, -19.342785579393027 ], [ 27.672069015169765, -19.342866608324066 ], [ 27.672239810986856, -19.342866528284599 ], [ 27.672581511753009, -19.343028505486512 ], [ 27.672837760407557, -19.343109453514636 ], [ 27.673179407365378, -19.343190360688812 ], [ 27.673521109684113, -19.343352336074478 ], [ 27.673777359268399, -19.343433282748986 ], [ 27.674033609094622, -19.343514229054744 ], [ 27.674375201945381, -19.343514065091806 ], [ 27.67463139656892, -19.343513941699314 ], [ 27.674887591179985, -19.343513817946604 ], [ 27.675058331774363, -19.343432666406482 ], [ 27.675314470306976, -19.343351473222253 ], [ 27.675570608575519, -19.343270279684862 ], [ 27.676082771711723, -19.342945753897531 ], [ 27.676338852510547, -19.342783490482596 ], [ 27.676594989347532, -19.342702295542185 ], [ 27.676765614947403, -19.34245900480483 ], [ 27.676936353475078, -19.342377851556634 ], [ 27.677106921443276, -19.342053491697158 ], [ 27.677277602500919, -19.341891269325266 ], [ 27.677362942903279, -19.341810158082115 ], [ 27.677448226265557, -19.341647977983097 ], [ 27.677533452469699, -19.341404729027786 ], [ 27.677618735463806, -19.341242548853199 ], [ 27.677958493646827, -19.338648175894814 ], [ 27.677958379337586, -19.338486038218949 ], [ 27.677958265033972, -19.338323900540178 ], [ 27.677872755366078, -19.338161805504129 ], [ 27.677872698261339, -19.338080736660867 ], [ 27.677787188811234, -19.337918641573896 ], [ 27.677701679533957, -19.337756546438765 ], [ 27.677616227399358, -19.33767552010703 ], [ 27.677530718422766, -19.337513424878349 ], [ 27.67744515273905, -19.33727026074444 ], [ 27.676333836091803, -19.335568362185896 ], [ 27.676248329527475, -19.335406266246085 ], [ 27.675997240639198, -19.335287242070038 ], [ 27.67623, -19.33507 ], [ 27.67914, -19.3337 ], [ 27.68496, -19.33235 ], [ 27.76169, -19.33861 ], [ 27.7593, -19.33011 ], [ 27.74724, -19.31997 ], [ 27.75331, -19.31357 ], [ 27.71762, -19.28016 ], [ 27.89881, -19.15821 ], [ 27.89786, -19.15477 ], [ 27.89713, -19.15385 ], [ 27.89617, -19.15224 ], [ 27.89545, -19.14926 ], [ 27.89328, -19.14856 ], [ 27.89013, -19.14855 ], [ 27.8865, -19.14808 ], [ 27.88313, -19.14486 ], [ 27.88024, -19.14049 ], [ 27.87711, -19.13818 ], [ 27.87323, -19.13818 ], [ 27.86863, -19.14022 ], [ 27.86475, -19.14343 ], [ 27.85991, -19.14456 ], [ 27.85556, -19.14271 ], [ 27.85026, -19.13718 ], [ 27.84712, -19.13465 ], [ 27.84156, -19.13463 ], [ 27.83697, -19.13347 ], [ 27.82805, -19.12403 ], [ 27.82297, -19.12287 ], [ 27.81765, -19.12445 ], [ 27.81184, -19.12398 ], [ 27.80726, -19.12006 ], [ 27.80172, -19.11476 ], [ 27.79568, -19.11382 ], [ 27.79085, -19.11128 ], [ 27.788210000999982, -19.10599 ], [ 27.78484, -19.10254 ], [ 27.78097, -19.10229 ], [ 27.77809, -19.0993 ], [ 27.7781, -19.09264 ], [ 27.77208, -19.08849 ], [ 27.768230001, -19.08321 ], [ 27.7651, -19.07768 ], [ 27.76562, -19.07103 ], [ 27.763470000999973, -19.06253 ], [ 27.76011, -19.05655 ], [ 27.75553, -19.05194 ], [ 27.75337, -19.04712 ], [ 27.75194, -19.04298 ], [ 27.75318, -19.03564 ], [ 27.76025, -19.01661 ], [ 27.7654, -18.99874 ], [ 27.77394, -18.97857 ], [ 27.78075, -18.96344 ], [ 27.78534, -18.96255 ], [ 27.79669, -18.96602 ], [ 27.8049, -18.96835 ], [ 27.81214, -18.96952 ], [ 27.81746, -18.97023 ], [ 27.8218, -18.97254 ], [ 27.82806, -18.97944 ], [ 27.83626, -18.98176 ], [ 27.84398, -18.98362 ], [ 27.85123, -18.98594 ], [ 27.8534, -18.98686 ], [ 27.85582, -18.98802 ], [ 27.85773, -18.99307 ], [ 27.85796, -18.99766 ], [ 27.85625, -19.00409 ], [ 27.85502, -19.01143 ], [ 27.85523, -19.01877 ], [ 27.86077, -19.02866 ], [ 27.87137, -19.03443 ], [ 27.88442, -19.03951 ], [ 27.89116, -19.04527 ], [ 27.89913, -19.04965 ], [ 27.90928, -19.05244 ], [ 27.91797, -19.05751 ], [ 27.92761, -19.06695 ], [ 27.93677, -19.07524 ], [ 27.93869, -19.08029 ], [ 27.94062, -19.08373 ], [ 27.94303, -19.08673 ], [ 27.95075, -19.09226 ], [ 27.95824, -19.09434 ], [ 27.96766, -19.09735 ], [ 27.97298, -19.09737 ], [ 27.97637, -19.09691 ], [ 27.97927, -19.09692 ], [ 27.98072, -19.10036 ], [ 27.98046, -19.1061 ], [ 27.98093, -19.10932 ], [ 27.98142, -19.11047 ], [ 27.98214, -19.11322 ], [ 27.98454, -19.11736 ], [ 28.2106, -19.18754 ], [ 28.065588012251368, -19.307735503247326 ], [ 28.036152432030232, -19.331377076828776 ], [ 27.998608598010424, -19.361900957860293 ], [ 27.997794790149719, -19.362832158087691 ], [ 27.939691859262243, -19.408403634128767 ], [ 27.936053042187222, -19.411256211903542 ], [ 27.859794351960623, -19.464136244032801 ], [ 27.859720062134684, -19.464135711035993 ], [ 27.859720840902376, -19.464065242251447 ], [ 27.821935597610981, -19.490260630304938 ], [ 27.81806, -19.49005 ], [ 27.81249, -19.48843 ], [ 27.80497, -19.48886 ], [ 27.79892, -19.48861 ], [ 27.79163, -19.49202 ], [ 27.7841, -19.49682 ], [ 27.77852, -19.49909 ], [ 27.77585, -19.49885 ], [ 27.77246, -19.49677 ], [ 27.76859, -19.4947 ], [ 27.76399, -19.49399 ], [ 27.753196820521229, -19.494720744447214 ] ] ] ] } },
{ "type": "Feature", "properties": { "SITE_ID": 20349, "SITE_PID": "20349", "SITE_TYPE": "PA", "NAME_ENG": "Lake Alice", "NAME": "Lake Alice", "DESIG": "State Forest", "DESIG_ENG": "State Forest", "DESIG_TYPE": "National", "IUCN_CAT": "Not Reported", "INT_CRIT": "Not Applicable", "REALM": "Terrestrial", "REP_M_AREA": 0.0, "GIS_M_AREA": 0.0, "REP_AREA": 390.0, "GIS_AREA": 397.729619859374, "NO_TAKE": "Not Applicable", "NO_TK_AREA": 0.0, "STATUS": "Designated", "STATUS_YR": 1961, "GOV_TYPE": "Not Reported", "GOVSUBTYPE": "Not Applicable", "OWN_TYPE": "Not Reported", "OWNSUBTYPE": "Not Applicable", "MANG_AUTH": "Not Reported", "MANG_PLAN": "Not Reported", "VERIF": "State Verified", "METADATAID": 1829, "PRNT_ISO3": "ZWE", "ISO3": "ZWE", "SUPP_INFO": "Not Applicable", "CONS_OBJ": "Not Applicable", "INLND_WTRS": "Not Reported", "OECM_ASMT": "Not Applicable" }, "geometry": { "type": "MultiPolygon", "coordinates": [ [ [ [ 28.314838393846021, -19.044609826303525 ], [ 28.314475189387888, -19.047320912122693 ], [ 28.31447653556847, -19.047513866209609 ], [ 28.314521180340332, -19.047597432544876 ], [ 28.31457932687421, -19.047706271401676 ], [ 28.314581346381399, -19.047995702506277 ], [ 28.314684138137782, -19.048188107604926 ], [ 28.314686157888016, -19.048477538682175 ], [ 28.314788950095068, -19.048669943687408 ], [ 28.314789623421682, -19.048766420705086 ], [ 28.314892415944271, -19.048958825628858 ], [ 28.314893089342938, -19.049055302639498 ], [ 28.315097328204047, -19.049247158250225 ], [ 28.31509867526719, -19.049440112248657 ], [ 28.315202142207163, -19.049728993931652 ], [ 28.315202815817521, -19.049825470922258 ], [ 28.315304935856823, -19.04992139854156 ], [ 28.315305609534757, -19.050017875526173 ], [ 28.315407729754476, -19.050113803075952 ], [ 28.31540840349999, -19.050210280054586 ], [ 28.315510523900123, -19.050306207534852 ], [ 28.315611970545881, -19.050305657981781 ], [ 28.315816211806585, -19.050497512629324 ], [ 28.315917658556426, -19.050496962901239 ], [ 28.316019779416997, -19.050592890068504 ], [ 28.31622267301201, -19.050591790325846 ], [ 28.316629134620737, -19.05068606709829 ], [ 28.316832702873374, -19.050781443596769 ], [ 28.317035596632749, -19.050780342946627 ], [ 28.317137043505866, -19.050779792537938 ], [ 28.317239165206484, -19.050875718974748 ], [ 28.317442059048027, -19.050874617870861 ], [ 28.317949293575182, -19.050871864135615 ], [ 28.318355081117989, -19.050869660144045 ], [ 28.318659421729048, -19.050868006565057 ], [ 28.318760868590626, -19.050867455260551 ], [ 28.318861639678193, -19.050770427061469 ], [ 28.319165980047618, -19.050768772658014 ], [ 28.319368197547121, -19.050671192623263 ], [ 28.319570414799141, -19.050573612380088 ], [ 28.319874078382533, -19.050475480026464 ], [ 28.320076295072177, -19.050377899258901 ], [ 28.320379957954025, -19.050279766110002 ], [ 28.320582174081288, -19.05018218481807 ], [ 28.320785066812718, -19.050181080089775 ], [ 28.320885836261578, -19.050084050873906 ], [ 28.320987282557699, -19.05008349837431 ], [ 28.321088051826461, -19.049986469057622 ], [ 28.321290944279518, -19.049985363787545 ], [ 28.321493836714989, -19.049984258294508 ], [ 28.321594605614642, -19.049887228721527 ], [ 28.321797497906527, -19.049886122901871 ], [ 28.321999712639418, -19.049788540130979 ], [ 28.322101158711362, -19.049787987029958 ], [ 28.322303373129348, -19.049690403943139 ], [ 28.322506265125231, -19.04968929735875 ], [ 28.322607711116571, -19.049688743982941 ], [ 28.32280992508484, -19.049591160365047 ], [ 28.323012816919508, -19.049590053231103 ], [ 28.323114262830241, -19.049589499580506 ], [ 28.323215030505455, -19.049492469189719 ], [ 28.323316476348776, -19.049491915431563 ], [ 28.323417243843885, -19.049394884939993 ], [ 28.323620135391309, -19.049393777152826 ], [ 28.323823026921122, -19.049392669142712 ], [ 28.324025918433307, -19.049391560909609 ], [ 28.324228131119757, -19.049293975806179 ], [ 28.324431022479494, -19.049292867135016 ], [ 28.324532468152753, -19.049292312715831 ], [ 28.324735359486048, -19.049291203710236 ], [ 28.324837484305824, -19.049387125747732 ], [ 28.325243267136301, -19.049384906829065 ], [ 28.325446158525082, -19.049383797035293 ], [ 28.325547604212854, -19.049383242054816 ], [ 28.325954746542152, -19.04957397473386 ], [ 28.326157638103592, -19.049572864144057 ], [ 28.326564781517156, -19.049763595402744 ], [ 28.326767673260044, -19.049762484128376 ], [ 28.327174817757847, -19.049953213966624 ], [ 28.327276263722215, -19.049952658015027 ], [ 28.327378390338669, -19.050048578526194 ], [ 28.330628510366637, -19.052056818398402 ], [ 28.330729957470481, -19.052056260470799 ], [ 28.331034981615559, -19.052151062707861 ], [ 28.332050136314336, -19.052241954967911 ], [ 28.332355161409303, -19.052336754953906 ], [ 28.332558055813553, -19.052335637123935 ], [ 28.332761634070234, -19.052430995355188 ], [ 28.332964528556225, -19.052429877071337 ], [ 28.333268870251938, -19.052428199227464 ], [ 28.333675343519658, -19.052522437569511 ], [ 28.333980369880635, -19.052617234777905 ], [ 28.334284711794858, -19.052615555237928 ], [ 28.334488291262392, -19.052710911479881 ], [ 28.334793318346478, -19.052805707292954 ], [ 28.33530124061469, -19.05289938169182 ], [ 28.335809163362487, -19.052993054656429 ], [ 28.336215639085349, -19.053087287223875 ], [ 28.336621429076573, -19.053085042740843 ], [ 28.336825010296671, -19.053180396282734 ], [ 28.337027905365016, -19.053179273475816 ], [ 28.337231486905768, -19.053274626546926 ], [ 28.337535829624038, -19.053272941572057 ], [ 28.337739411535143, -19.053368294056945 ], [ 28.338145201962668, -19.053366046181452 ], [ 28.338652439896833, -19.053363235082703 ], [ 28.339160365332631, -19.053456898613934 ], [ 28.339566843597137, -19.053551123607413 ], [ 28.339972634172661, -19.053548871686196 ], [ 28.340276977057464, -19.053547182159917 ], [ 28.340582008344938, -19.053641968098006 ], [ 28.340886351325256, -19.053640277556305 ], [ 28.341292141903178, -19.053638022720197 ], [ 28.344234812012413, -19.053718124303778 ], [ 28.344539845423856, -19.053812903538216 ], [ 28.345249978582011, -19.053808942884761 ], [ 28.345452873729741, -19.053807810767726 ], [ 28.353481066882178, -19.055682758955037 ], [ 28.353786804346633, -19.055873997756372 ], [ 28.35399039760204, -19.055969331511708 ], [ 28.354091846133969, -19.055968760594773 ], [ 28.354295439660056, -19.056064093994493 ], [ 28.354397584776081, -19.056159998302075 ], [ 28.354600482033842, -19.056158855950351 ], [ 28.354804076051678, -19.056254188754341 ], [ 28.354905524723392, -19.056253617379319 ], [ 28.355109119011903, -19.056348949827655 ], [ 28.355210567728697, -19.056348378281353 ], [ 28.355414162287875, -19.05644371037403 ], [ 28.355414859431633, -19.056540185725559 ], [ 28.355516308252138, -19.056539614003945 ], [ 28.355617757068124, -19.056539042226607 ], [ 28.356024947291829, -19.056729705211346 ], [ 28.356329991695532, -19.056824464163807 ], [ 28.35653358740964, -19.056919794940331 ], [ 28.356940779501052, -19.057110455772904 ], [ 28.357143677705519, -19.057109310553006 ], [ 28.357449421680386, -19.057300542831737 ], [ 28.357855917042325, -19.057394726267312 ], [ 28.358160963520817, -19.05748948204478 ], [ 28.358567459644785, -19.057583663856651 ], [ 28.358973956170011, -19.057677844743132 ], [ 28.359177554270289, -19.057773172433869 ], [ 28.359381152591617, -19.057868499884432 ], [ 28.359483301614965, -19.057964401107071 ], [ 28.359788349897414, -19.058059154064971 ], [ 28.360093398495522, -19.058153906495782 ], [ 28.360399147513952, -19.058345133534289 ], [ 28.360704897213758, -19.058536360018419 ], [ 28.36111209751504, -19.058727011067219 ], [ 28.361214948629186, -19.058919386324021 ], [ 28.361519999482653, -19.059014136238243 ], [ 28.361622150401423, -19.059110036144411 ], [ 28.361927902826746, -19.059301260410887 ], [ 28.362131504436952, -19.059396584595824 ], [ 28.362234357153962, -19.059588959171499 ], [ 28.362437959278612, -19.059684282982424 ], [ 28.362642263093317, -19.05987608158242 ], [ 28.362948018036899, -19.060067303981739 ], [ 28.363762431687871, -19.060448594365599 ], [ 28.364170342230082, -19.060735713075299 ], [ 28.364577551509825, -19.060926355846263 ], [ 28.36508621288262, -19.061116420499317 ], [ 28.365696326632069, -19.061305906173583 ], [ 28.366102835319467, -19.061400070493242 ], [ 28.366509344407827, -19.061494233887132 ], [ 28.366915149881329, -19.061491921514392 ], [ 28.367220208130355, -19.061586661477936 ], [ 28.367727465094582, -19.061583768900274 ], [ 28.367930367848366, -19.061582611478798 ], [ 28.368234721944841, -19.061580874928271 ], [ 28.368539076000275, -19.061579137875782 ], [ 28.369046332668095, -19.061576241672828 ], [ 28.36955288368129, -19.061476869339948 ], [ 28.370465944662595, -19.06147165018756 ], [ 28.370668847052642, -19.061470489762407 ], [ 28.37087174942441, -19.061469329114175 ], [ 28.376352234966671, -19.061727330669818 ], [ 28.376656588275928, -19.061725580207284 ], [ 28.376757329656222, -19.061628522163247 ], [ 28.376858780686891, -19.061627938512473 ], [ 28.377264584763672, -19.061625603351729 ], [ 28.377771129460982, -19.061526208740581 ], [ 28.37858273674119, -19.061521533543633 ], [ 28.378987829276642, -19.061422720249233 ], [ 28.379190019789739, -19.06132507610398 ], [ 28.379493660731221, -19.061226846666383 ], [ 28.379797301284167, -19.061128616750281 ], [ 28.380203103654924, -19.061126275201513 ], [ 28.380406004812691, -19.061125104092508 ], [ 28.380913257626556, -19.061122175343975 ], [ 28.381014708175513, -19.061121589426953 ], [ 28.381217609259618, -19.061120417425595 ], [ 28.381421222712916, -19.061215719463657 ], [ 28.381624123877458, -19.061214547007967 ], [ 28.381827737650468, -19.061309848574282 ], [ 28.382132802318544, -19.061404563357332 ], [ 28.382335703653137, -19.061403390104456 ], [ 28.382539318016129, -19.061498690842878 ], [ 28.382742932599967, -19.061593991340786 ], [ 28.382845096591396, -19.061689878599424 ], [ 28.383048711567518, -19.061785178731952 ], [ 28.383252326764477, -19.061880478623976 ], [ 28.383455942182291, -19.061975778275475 ], [ 28.383660271545924, -19.062167551848439 ], [ 28.383864601379159, -19.06235932516136 ], [ 28.384068931682002, -19.062551098214218 ], [ 28.38427326245446, -19.062742871007014 ], [ 28.384478307933211, -19.063031117659513 ], [ 28.384682639771661, -19.063222889921857 ], [ 28.384887686574665, -19.063511136022239 ], [ 28.385092019479146, -19.063702907754092 ], [ 28.385194900797295, -19.063895267604117 ], [ 28.38539851971645, -19.063990564864156 ], [ 28.385501401576988, -19.064182924503658 ], [ 28.385602853795053, -19.064182335945731 ], [ 28.385806473277956, -19.06427763271537 ], [ 28.386010808169107, -19.064469403286981 ], [ 28.386214428215755, -19.064564699566198 ], [ 28.386519500952986, -19.064659406524374 ], [ 28.386926742249351, -19.064849997648533 ], [ 28.387333984429123, -19.065040587810323 ], [ 28.387841963972722, -19.065134113219106 ], [ 28.388350660570978, -19.065324111129886 ], [ 28.38896081113208, -19.065513517103433 ], [ 28.38916371689125, -19.06551233602362 ], [ 28.38916443395382, -19.065608809926257 ], [ 28.389265886885113, -19.065608219298554 ], [ 28.389570245651182, -19.065606447080761 ], [ 28.389671698563934, -19.065605856229912 ], [ 28.390381868823393, -19.065601718712081 ], [ 28.390686227436454, -19.065599944653361 ], [ 28.390990586007764, -19.065598170092596 ], [ 28.391193491698768, -19.065596986773162 ], [ 28.391396397371214, -19.065595803230586 ], [ 28.391497850200473, -19.06559521137563 ], [ 28.391700755845065, -19.065594027498339 ], [ 28.391903661471087, -19.065592843397926 ], [ 28.392309472667407, -19.065590474527678 ], [ 28.392919627802527, -19.065779867046256 ], [ 28.393325439282268, -19.06577749591164 ], [ 28.393731970404026, -19.065871597598633 ], [ 28.394037048982327, -19.065966291680894 ], [ 28.394239954863842, -19.06596510498138 ], [ 28.394342127875479, -19.066060985235271 ], [ 28.394646486824879, -19.066059204587877 ], [ 28.394850113143793, -19.066154490876315 ], [ 28.394951566166974, -19.066153897099912 ], [ 28.395155913317438, -19.066345656683087 ], [ 28.397905256633102, -19.067680229840811 ], [ 28.398007432730576, -19.067776107844278 ], [ 28.398109608945493, -19.067871985782652 ], [ 28.398211062875468, -19.06787139014661 ], [ 28.398312516800775, -19.067870794454777 ], [ 28.398313239261817, -19.067967267959911 ], [ 28.398414693241133, -19.067966672208158 ], [ 28.398516869798918, -19.068062549896403 ], [ 28.398720500556792, -19.068157831592117 ], [ 28.398924854367575, -19.068349586523162 ], [ 28.399128485689097, -19.06844486772799 ], [ 28.399332840312539, -19.068636622148425 ], [ 28.399536472197717, -19.068731902862332 ], [ 28.399740827633828, -19.06892365677211 ], [ 28.399843005528048, -19.069019533629305 ], [ 28.399945183539721, -19.069115410421379 ], [ 28.400047361668843, -19.069211287148303 ], [ 28.400250994632014, -19.069306566996072 ], [ 28.400353896760905, -19.069498916938283 ], [ 28.400557530238416, -19.069594196410819 ], [ 28.400659709008785, -19.069690072752138 ], [ 28.400761887896607, -19.069785949028308 ], [ 28.400965521937788, -19.069881228009862 ], [ 28.401169156199739, -19.069976506750599 ], [ 28.401372790682462, -19.070071785250491 ], [ 28.401474970202088, -19.070167661086256 ], [ 28.401577149839177, -19.070263536856899 ], [ 28.401780784885567, -19.07035881486577 ], [ 28.401882240172739, -19.07035821711337 ], [ 28.40208587548922, -19.070453494765665 ], [ 28.402188055640657, -19.070549370161 ], [ 28.402391691349354, -19.070644647447338 ], [ 28.402594602214915, -19.070643451192243 ], [ 28.403001874491853, -19.070834004579368 ], [ 28.403306966535155, -19.070928682353127 ], [ 28.403917151565832, -19.071118036316122 ], [ 28.404322974170697, -19.07111564015166 ], [ 28.404628067336517, -19.071210315654632 ], [ 28.404830978700051, -19.07120911689448 ], [ 28.405642623966607, -19.071204319621781 ], [ 28.40604844648729, -19.071201919646221 ], [ 28.406657180127521, -19.071198318008836 ], [ 28.406860091303368, -19.071197117016634 ], [ 28.407062274790835, -19.071099442688858 ], [ 28.407265185811767, -19.071098241258582 ], [ 28.407468096813904, -19.071097039605089 ], [ 28.407670279780408, -19.070999364640002 ], [ 28.407873190627612, -19.070998162548449 ], [ 28.408075373209282, -19.070900487160895 ], [ 28.409903027372966, -19.071082602353538 ], [ 28.410310307968615, -19.07127313897692 ], [ 28.410819045025224, -19.071463071923727 ], [ 28.411225597385496, -19.07155713345179 ], [ 28.411531424767013, -19.07174827014261 ], [ 28.411836522363608, -19.071842933368998 ], [ 28.412140889632706, -19.071841123171701 ], [ 28.412344531881189, -19.071936388981445 ], [ 28.412445987677376, -19.071935785354963 ], [ 28.412548174350349, -19.072031654550234 ], [ 28.41264963019578, -19.072031050807954 ], [ 28.412751086036497, -19.072030447009869 ], [ 28.415295537963686, -19.073076534262491 ], [ 28.415600639739743, -19.073171190949285 ], [ 28.415905741830198, -19.073265847107635 ], [ 28.416718860032397, -19.073453945820173 ], [ 28.417124686131942, -19.073451521112911 ], [ 28.417429789432461, -19.073546174656151 ], [ 28.417632702542811, -19.073544961624442 ], [ 28.417937072172833, -19.073543141658313 ], [ 28.420374234139313, -19.073817981454976 ], [ 28.420679339586446, -19.073912629451652 ], [ 28.420882252862967, -19.073911412814621 ], [ 28.42850691117437, -19.077242217310012 ], [ 28.435289377493756, -19.080175105052781 ], [ 28.435327684030497, -19.080191668610802 ], [ 28.435413152803569, -19.130638491095176 ], [ 28.436733574111742, -19.158735385176886 ], [ 28.385290250077993, -19.150583280637974 ], [ 28.343367016894621, -19.143525807228482 ], [ 28.343366322940742, -19.143429332324089 ], [ 28.293165830197395, -19.135309749672341 ], [ 28.284833578912135, -19.178480696766798 ], [ 28.285326155812953, -19.20586878026096 ], [ 28.284899855554894, -19.213559097750114 ], [ 28.275419999, -19.21355 ], [ 28.25921, -19.21055 ], [ 28.259040851747759, -19.205151964471877 ], [ 28.259616385292247, -19.203214917884761 ], [ 28.259037714543538, -19.202913521888313 ], [ 28.27015, -19.14583 ], [ 28.09246, -19.09074 ], [ 28.09077, -19.08959 ], [ 28.08884, -19.08729 ], [ 28.088110001000018, -19.08544 ], [ 28.08619, -19.07924 ], [ 28.08849, -19.01085 ], [ 28.10058, -19.01156 ], [ 28.10564, -19.01204 ], [ 28.11169, -19.01388 ], [ 28.11263, -19.02811 ], [ 28.16918, -19.03738 ], [ 28.1709, -19.02201 ], [ 28.17525, -19.02201 ], [ 28.18395, -19.02156 ], [ 28.19096, -19.02203 ], [ 28.19627, -19.02249 ], [ 28.20159, -19.02365 ], [ 28.20763, -19.02687 ], [ 28.21488, -19.03055 ], [ 28.22285, -19.03354 ], [ 28.23059, -19.03493 ], [ 28.23808, -19.03448 ], [ 28.2521, -19.03265 ], [ 28.25573, -19.03312 ], [ 28.2625, -19.03565 ], [ 28.27047, -19.03611 ], [ 28.27894, -19.03612 ], [ 28.28353, -19.03658 ], [ 28.2886, -19.03773 ], [ 28.29682, -19.04073 ], [ 28.30915, -19.04349 ], [ 28.314838393846021, -19.044609826303525 ] ] ] ] } },
{ "type": "Feature", "properties": { "SITE_ID": 20350, "SITE_PID": "20350", "SITE_TYPE": "PA", "NAME_ENG": "Mbembesi", "NAME": "Mbembesi", "DESIG": "State Forest", "DESIG_ENG": "State Forest", "DESIG_TYPE": "National", "IUCN_CAT": "Not Reported", "INT_CRIT": "Not Applicable", "REALM": "Terrestrial", "REP_M_AREA": 0.0, "GIS_M_AREA": 0.0, "REP_AREA": 551.0, "GIS_AREA": 555.02089308730694, "NO_TAKE": "Not Applicable", "NO_TK_AREA": 0.0, "STATUS": "Designated", "STATUS_YR": 1941, "GOV_TYPE": "Not Reported", "GOVSUBTYPE": "Not Applicable", "OWN_TYPE": "Not Reported", "OWNSUBTYPE": "Not Applicable", "MANG_AUTH": "Not Reported", "MANG_PLAN": "Not Reported", "VERIF": "State Verified", "METADATAID": 1829, "PRNT_ISO3": "ZWE", "ISO3": "ZWE", "SUPP_INFO": "Not Applicable", "CONS_OBJ": "Not Applicable", "INLND_WTRS": "Not Reported", "OECM_ASMT": "Not Applicable" }, "geometry": { "type": "MultiPolygon", "coordinates": [ [ [ [ 28.257794215983296, -19.216568483282405 ], [ 28.255743342918908, -19.216250237168758 ], [ 28.259040851747759, -19.205151964471877 ], [ 28.25921, -19.21055 ], [ 28.257794215983296, -19.216568483282405 ] ] ], [ [ [ 28.255770006055794, -19.202170301672069 ], [ 28.25088116211171, -19.201151726431629 ], [ 28.25038621214188, -19.20064746766473 ], [ 28.213654938035642, -19.189744649241099 ], [ 28.213593112705677, -19.189932632920282 ], [ 28.151998407700489, -19.239224103340351 ], [ 28.138815959814963, -19.249862454540406 ], [ 28.138547515694885, -19.250005556871329 ], [ 28.133923160147194, -19.254121032454734 ], [ 28.133923097283095, -19.254053520440213 ], [ 28.090210771830275, -19.288150991681622 ], [ 28.090161694152354, -19.288189260900172 ], [ 28.067001971219071, -19.306599863496896 ], [ 28.065588012251368, -19.307735503247326 ], [ 28.2106, -19.18754 ], [ 28.255770006055794, -19.202170301672069 ] ] ] ] } },
{ "type": "Feature", "properties": { "SITE_ID": 20351, "SITE_PID": "20351", "SITE_TYPE": "PA", "NAME_ENG": "Molo", "NAME": "Molo", "DESIG": "State Forest", "DESIG_ENG": "State Forest", "DESIG_TYPE": "National", "IUCN_CAT": "Not Reported", "INT_CRIT": "Not Applicable", "REALM": "Terrestrial", "REP_M_AREA": 0.0, "GIS_M_AREA": 0.0, "REP_AREA": 29.0, "GIS_AREA": 27.6045732161096, "NO_TAKE": "Not Applicable", "NO_TK_AREA": 0.0, "STATUS": "Designated", "STATUS_YR": 1961, "GOV_TYPE": "Not Reported", "GOVSUBTYPE": "Not Applicable", "OWN_TYPE": "Not Reported", "OWNSUBTYPE": "Not Applicable", "MANG_AUTH": "Not Reported", "MANG_PLAN": "Not Reported", "VERIF": "State Verified", "METADATAID": 1829, "PRNT_ISO3": "ZWE", "ISO3": "ZWE", "SUPP_INFO": "Not Applicable", "CONS_OBJ": "Not Applicable", "INLND_WTRS": "Not Reported", "OECM_ASMT": "Not Applicable" }, "geometry": { "type": "MultiPolygon", "coordinates": [ [ [ [ 28.284899855554894, -19.213559097750114 ], [ 28.284512989202899, -19.220538040447174 ], [ 28.284483438569652, -19.220710007939324 ], [ 28.275668864550763, -19.2193421983105 ], [ 28.275419999, -19.21355 ], [ 28.284899855554894, -19.213559097750114 ] ] ] ] } },
{ "type": "Feature", "properties": { "SITE_ID": 20353, "SITE_PID": "20353", "SITE_TYPE": "PA", "NAME_ENG": "Mzolo", "NAME": "Mzolo", "DESIG": "State Forest", "DESIG_ENG": "State Forest", "DESIG_TYPE": "National", "IUCN_CAT": "Not Reported", "INT_CRIT": "Not Applicable", "REALM": "Terrestrial", "REP_M_AREA": 0.0, "GIS_M_AREA": 0.0, "REP_AREA": 672.0, "GIS_AREA": 649.06648361296891, "NO_TAKE": "Not Applicable", "NO_TK_AREA": 0.0, "STATUS": "Designated", "STATUS_YR": 1954, "GOV_TYPE": "Not Reported", "GOVSUBTYPE": "Not Applicable", "OWN_TYPE": "Not Reported", "OWNSUBTYPE": "Not Applicable", "MANG_AUTH": "Not Reported", "MANG_PLAN": "Not Reported", "VERIF": "State Verified", "METADATAID": 1829, "PRNT_ISO3": "ZWE", "ISO3": "ZWE", "SUPP_INFO": "Not Applicable", "CONS_OBJ": "Not Applicable", "INLND_WTRS": "Not Reported", "OECM_ASMT": "Not Applicable" }, "geometry": { "type": "MultiPolygon", "coordinates": [ [ [ [ 27.584956659421781, -18.426048233697937 ], [ 27.594616960455962, -18.424354713116667 ], [ 27.594670410351721, -18.424354407399889 ], [ 27.594670225862703, -18.424303383970216 ], [ 27.594616775982697, -18.424303689686482 ], [ 27.612189800353086, -18.422519278750709 ], [ 27.58539, -18.42655 ], [ 27.584956659421781, -18.426048233697937 ] ] ], [ [ [ 27.628835371453306, -18.420015765431334 ], [ 27.640554714762924, -18.418116584634227 ], [ 27.695137029134674, -18.409466519642521 ], [ 27.729422342211109, -18.40470816225265 ], [ 27.72947578447436, -18.404707818809459 ], [ 27.745282771011546, -18.401952357476429 ], [ 27.750777785238959, -18.401100134861181 ], [ 27.751033794520399, -18.401235002869644 ], [ 27.770377604090271, -18.3987276484585 ], [ 27.628835371453306, -18.420015765431334 ] ] ], [ [ [ 27.780665761323128, -18.397180297604077 ], [ 27.795673023108243, -18.39410468037585 ], [ 27.79572275411595, -18.394104410079144 ], [ 27.841204585031754, -18.387204272218099 ], [ 27.841254313476476, -18.387203990095085 ], [ 27.857255259954627, -18.384648224229899 ], [ 27.857881031449836, -18.357484905796486 ], [ 27.859102834074381, -18.349310950445666 ], [ 27.859823211513483, -18.339530216646523 ], [ 27.85982284188691, -18.339387772308079 ], [ 27.859872309953239, -18.339292522989158 ], [ 27.859871940295768, -18.339150078648888 ], [ 27.85986984568131, -18.338342894013195 ], [ 27.859869229654215, -18.338105486754188 ], [ 27.859868490443294, -18.33782059803546 ], [ 27.859958062495238, -18.334021508201069 ], [ 27.859957816147237, -18.333926545256841 ], [ 27.860007282720055, -18.33383129591536 ], [ 27.860007036350154, -18.333736332970389 ], [ 27.860006420436857, -18.333498925603781 ], [ 27.860055886871478, -18.33340367625151 ], [ 27.86005539410359, -18.33321375035435 ], [ 27.860104614032267, -18.333023538041189 ], [ 27.860203423266668, -18.33278555780522 ], [ 27.860252396460261, -18.332500382505433 ], [ 27.860449767166021, -18.331929458896877 ], [ 27.86049886306694, -18.331691765012042 ], [ 27.8605976710788, -18.331453784592 ], [ 27.860647013324307, -18.331311053626134 ], [ 27.860696232155053, -18.331120841171163 ], [ 27.860795162965779, -18.330930342136686 ], [ 27.860844381543959, -18.330740129647012 ], [ 27.860943311991367, -18.330549630543711 ], [ 27.861042242229246, -18.330359131394225 ], [ 27.861091460401106, -18.330168918847203 ], [ 27.861190513734122, -18.330025901106275 ], [ 27.861487302174286, -18.329454403173671 ], [ 27.861536519643263, -18.329264190524423 ], [ 27.861635572118576, -18.329121172575181 ], [ 27.8616850365059, -18.329025922844853 ], [ 27.861734377248315, -18.328883191626577 ], [ 27.861783841518641, -18.328787941873266 ], [ 27.861833305736596, -18.328692692108412 ], [ 27.867536849678384, -18.323626591808974 ], [ 27.874629355431434, -18.317602588817202 ], [ 27.874629228470909, -18.317555107439212 ], [ 27.874678682595558, -18.317459854658175 ], [ 27.874777844682988, -18.317364311816618 ], [ 27.874827298675172, -18.317269059000846 ], [ 27.874876879638006, -18.317221287550492 ], [ 27.876758513449239, -18.314503817622025 ], [ 27.876758385949429, -18.314456336254338 ], [ 27.876807965593976, -18.314408564344202 ], [ 27.8768576727369, -18.314408273789031 ], [ 27.876857290162189, -18.314265829687468 ], [ 27.87690674219014, -18.314170576386804 ], [ 27.876906359584805, -18.314028132283436 ], [ 27.876955556432531, -18.31383791623513 ], [ 27.877004753181797, -18.313647700174879 ], [ 27.877348872407374, -18.312221224675302 ], [ 27.877348744777066, -18.312173743303354 ], [ 27.877398323631663, -18.312125971262649 ], [ 27.877398195989144, -18.312078489890823 ], [ 27.875997902093992, -18.308910105743031 ], [ 27.875997774876087, -18.308862624338005 ], [ 27.875997393226378, -18.308720180121529 ], [ 27.875947306091565, -18.308578026164 ], [ 27.875947051692854, -18.308483063349165 ], [ 27.875896964675633, -18.308340909370273 ], [ 27.875692549942322, -18.306252887888224 ], [ 27.875742127660839, -18.306205116299871 ], [ 27.875741873437182, -18.306110153456231 ], [ 27.875741619216189, -18.306015190611625 ], [ 27.875741237889706, -18.305872746342917 ], [ 27.875740729463732, -18.305682820647963 ], [ 27.875789798546663, -18.305445123354282 ], [ 27.875838994636005, -18.305254907472989 ], [ 27.876430612632504, -18.303447130248092 ], [ 27.876579470086675, -18.303351296382392 ], [ 27.876777776626884, -18.303160209158044 ], [ 27.876926506246722, -18.303016893614146 ], [ 27.877075235621991, -18.302873577962586 ], [ 27.877174006034728, -18.302635589869897 ], [ 27.877372311116179, -18.302444502075652 ], [ 27.87757061576287, -18.302253414090004 ], [ 27.877719216366273, -18.302062616556967 ], [ 27.877867816648585, -18.301871818918226 ], [ 27.87801641660981, -18.30168102117376 ], [ 27.878115440506569, -18.301537995480036 ], [ 27.878214336522191, -18.301347488323938 ], [ 27.879503935225653, -18.30034281479551 ], [ 27.879603213326227, -18.300294751203079 ], [ 27.879652788305989, -18.300246978686378 ], [ 27.879752066308551, -18.300198915020154 ], [ 27.879751938184008, -18.300151433617167 ], [ 27.879851344254575, -18.300150851304373 ], [ 27.879950622144058, -18.300102787539053 ], [ 27.880099602980998, -18.300054432497941 ], [ 27.880298158447122, -18.299958304669147 ], [ 27.880546544967132, -18.29990936669676 ], [ 27.880794931333273, -18.29986042840698 ], [ 27.880944040146009, -18.2998595541148 ], [ 27.88114272338672, -18.299810906823215 ], [ 27.881341535059864, -18.299809740714892 ], [ 27.88154021811425, -18.299761093016624 ], [ 27.881689198164818, -18.29971273676481 ], [ 27.881887880996011, -18.299664088713158 ], [ 27.882334820313083, -18.299519018826587 ], [ 27.882483928770139, -18.299518143344823 ], [ 27.882583205517648, -18.29947007825389 ], [ 27.882732184995948, -18.299421721209846 ], [ 27.882831461615297, -18.299373655994611 ], [ 27.882980440934517, -18.299325298762838 ], [ 27.883129291134072, -18.299229460051816 ], [ 27.883327972948866, -18.299180810540019 ], [ 27.883476951949923, -18.299132452932813 ], [ 27.883625930863516, -18.299084095212653 ], [ 27.883774909689649, -18.299035737379572 ], [ 27.883874185781263, -18.29898767164196 ], [ 27.884023035177187, -18.298891832264143 ], [ 27.88422171631866, -18.298843181847854 ], [ 27.884420267962824, -18.298747049876482 ], [ 27.884618948810971, -18.298698399057944 ], [ 27.884767927000748, -18.298650040474055 ], [ 27.884817629539192, -18.298649748037214 ], [ 27.885016180610375, -18.298553615467743 ], [ 27.88511532649833, -18.298458067762969 ], [ 27.885264304329986, -18.298409708805295 ], [ 27.885413152432175, -18.29831386839184 ], [ 27.885611702772007, -18.298217735230192 ], [ 27.885710977857102, -18.29816966857512 ], [ 27.885810252885648, -18.29812160187052 ], [ 27.886008672973411, -18.297977986975589 ], [ 27.886157650120523, -18.297929627346711 ], [ 27.886306497301298, -18.297833786270669 ], [ 27.886505046570484, -18.297737652219819 ], [ 27.886604191162895, -18.297642103788583 ], [ 27.886753037843715, -18.2975462623826 ], [ 27.88690188435789, -18.297450420866635 ], [ 27.887050730705408, -18.297354579240686 ], [ 27.887149874777368, -18.297259030544438 ], [ 27.887447566697933, -18.297067346817833 ], [ 27.887596282190355, -18.296924023466648 ], [ 27.88789397303254, -18.296732339082986 ], [ 27.887993246605909, -18.296684271297163 ], [ 27.888092389774254, -18.29658872214333 ], [ 27.88819166320814, -18.296540654259491 ], [ 27.888290936585481, -18.296492586326163 ], [ 27.888390079479304, -18.296397037027536 ], [ 27.888439650885473, -18.296349262360305 ], [ 27.888538924081864, -18.296301194304707 ], [ 27.888588364941018, -18.296205938286981 ], [ 27.888687638013, -18.296157870158599 ], [ 27.88873720926906, -18.296110095419362 ], [ 27.888786780497956, -18.296062320668163 ], [ 27.888836351699691, -18.296014545905035 ], [ 27.888885922874266, -18.295966771129955 ], [ 27.88893549402168, -18.295918996342948 ], [ 27.888935363453314, -18.295871515031248 ], [ 27.895423501118078, -18.289517983020477 ], [ 27.895473200905613, -18.289517687923404 ], [ 27.895522636142726, -18.289422430288816 ], [ 27.895621771058774, -18.28932687750946 ], [ 27.895671206163748, -18.289231619840354 ], [ 27.895919042778814, -18.288992737625467 ], [ 27.896018177234804, -18.288897184656047 ], [ 27.896067612007688, -18.288801926894699 ], [ 27.896166613835717, -18.288658892596246 ], [ 27.896265747968858, -18.288563339509071 ], [ 27.896365014484157, -18.288515267630903 ], [ 27.896513715355901, -18.28837193783804 ], [ 27.896612849134659, -18.288276384583156 ], [ 27.896761549599194, -18.288133054611439 ], [ 27.896910249819403, -18.28798972453238 ], [ 27.897009383163816, -18.287894171086734 ], [ 27.897108383716262, -18.287751136342354 ], [ 27.897257083327879, -18.287607806014044 ], [ 27.897405782695181, -18.287464475578442 ], [ 27.897603782516722, -18.287178405668843 ], [ 27.897801515982525, -18.28679737307947 ], [ 27.897850816348146, -18.28665463365634 ], [ 27.897949815534439, -18.286511598517709 ], [ 27.897998849895345, -18.286273896566339 ], [ 27.898097582896217, -18.286035898865549 ], [ 27.898196315640625, -18.285797901119469 ], [ 27.898295181105013, -18.285607384575332 ], [ 27.898344480770422, -18.285464645039067 ], [ 27.898393647360713, -18.285274424244022 ], [ 27.898492379312156, -18.285036426362122 ], [ 27.898591244053762, -18.284845909682293 ], [ 27.89868984244573, -18.284560430462484 ], [ 27.898838404995534, -18.284369617783216 ], [ 27.898987100370604, -18.284226286244227 ], [ 27.899036532282651, -18.284131027795585 ], [ 27.89908583097241, -18.283988288090352 ], [ 27.89913512958643, -18.283845548373744 ], [ 27.899184294932319, -18.283655327400108 ], [ 27.899282891758759, -18.283369847909928 ], [ 27.899429986946576, -18.282656741107449 ], [ 27.899479018438189, -18.282419038814531 ], [ 27.89952818307675, -18.282228817757666 ], [ 27.899526850449956, -18.281754005259288 ], [ 27.899525517891817, -18.281279192736935 ], [ 27.899914296636343, -18.27814306095593 ], [ 27.899913896693818, -18.278000617161975 ], [ 27.900012889564071, -18.277857581111082 ], [ 27.900062319264304, -18.277762322436104 ], [ 27.900111615550372, -18.277619582485407 ], [ 27.900210608052394, -18.277476546342843 ], [ 27.900359029795055, -18.27723825141047 ], [ 27.900557280768137, -18.277047141371661 ], [ 27.900649862315181, -18.276935645801963 ], [ 27.90031, -18.28649 ], [ 27.88767, -18.30205 ], [ 27.86142, -18.33436 ], [ 27.85959, -18.38531 ], [ 27.780665761323128, -18.397180297604077 ] ] ] ] } },
{ "type": "Feature", "properties": { "SITE_ID": 20354, "SITE_PID": "20354", "SITE_TYPE": "PA", "NAME_ENG": "Ngamo", "NAME": "Ngamo", "DESIG": "State Forest", "DESIG_ENG": "State Forest", "DESIG_TYPE": "National", "IUCN_CAT": "Not Reported", "INT_CRIT": "Not Applicable", "REALM": "Terrestrial", "REP_M_AREA": 0.0, "GIS_M_AREA": 0.0, "REP_AREA": 1029.0, "GIS_AREA": 1009.73222293084, "NO_TAKE": "Not Applicable", "NO_TK_AREA": 0.0, "STATUS": "Designated", "STATUS_YR": 1930, "GOV_TYPE": "Not Reported", "GOVSUBTYPE": "Not Applicable", "OWN_TYPE": "Not Reported", "OWNSUBTYPE": "Not Applicable", "MANG_AUTH": "Not Reported", "MANG_PLAN": "Not Reported", "VERIF": "State Verified", "METADATAID": 1829, "PRNT_ISO3": "ZWE", "ISO3": "ZWE", "SUPP_INFO": "Not Applicable", "CONS_OBJ": "Not Applicable", "INLND_WTRS": "Not Reported", "OECM_ASMT": "Not Applicable" }, "geometry": { "type": "MultiPolygon", "coordinates": [ [ [ [ 27.686484368720617, -19.095240508631704 ], [ 27.686595574565803, -19.09340748361608 ], [ 27.68650654308183, -19.093024838300089 ], [ 27.695245776494364, -19.091186509140588 ], [ 27.695245613967792, -19.090696224294831 ], [ 27.695764271368617, -19.09069606819968 ], [ 27.695764107366738, -19.090205783376422 ], [ 27.696282763188496, -19.090205625870006 ], [ 27.696282597711402, -19.089715341069351 ], [ 27.697319569238253, -19.088734452289604 ], [ 27.697838220322794, -19.088734290549876 ], [ 27.698356699926098, -19.088243842666504 ], [ 27.700430587801151, -19.086282037253049 ], [ 27.700430410525708, -19.085791752634474 ], [ 27.699911593165918, -19.085301636684779 ], [ 27.699911417520866, -19.084811351964355 ], [ 27.697833819696886, -19.07598687894761 ], [ 27.696277493538325, -19.074516499196257 ], [ 27.695758562004904, -19.073536083728463 ], [ 27.693681965086256, -19.066672686972048 ], [ 27.693681343893125, -19.064711541584142 ], [ 27.700417089781137, -19.048530044661128 ], [ 27.700932825064719, -19.040685289543706 ], [ 27.700932651103688, -19.04019500252938 ], [ 27.700932477194698, -19.039704715488778 ], [ 27.700932303337733, -19.039214428421925 ], [ 27.700932129532809, -19.0387241413288 ], [ 27.700931955779918, -19.038233854209423 ], [ 27.700931782079063, -19.037743567063778 ], [ 27.700931087795986, -19.035782418218609 ], [ 27.700928837125502, -19.029408681570462 ], [ 27.700928664361214, -19.028918393952225 ], [ 27.700928318988719, -19.027937818636989 ], [ 27.700928146380512, -19.027447530939998 ], [ 27.700927973824339, -19.02695724321676 ], [ 27.70092780132018, -19.026466955467264 ], [ 27.704554989440531, -19.021072601853845 ], [ 27.70507342954798, -19.021072426516536 ], [ 27.705073245506277, -19.020582138847637 ], [ 27.705591684040492, -19.020581962105513 ], [ 27.706628183902541, -19.019601029139544 ], [ 27.70818348974672, -19.019600481759092 ], [ 27.709738400033501, -19.018619346664433 ], [ 27.711293493777184, -19.0181284862045 ], [ 27.715958933250409, -19.017146114776587 ], [ 27.722171171064879, -19.016360126863901 ], [ 27.71868, -19.01761 ], [ 27.71263, -19.02148 ], [ 27.70826, -19.02491 ], [ 27.70341, -19.02903 ], [ 27.70219, -19.03384 ], [ 27.7029, -19.03706 ], [ 27.70385, -19.03959 ], [ 27.70479, -19.04533 ], [ 27.7043, -19.04831 ], [ 27.70259, -19.05221 ], [ 27.69968, -19.05517 ], [ 27.69725, -19.05837 ], [ 27.69603, -19.0625 ], [ 27.69527, -19.06778 ], [ 27.69598, -19.07261 ], [ 27.69958, -19.07858 ], [ 27.70295, -19.08319 ], [ 27.70535, -19.0871 ], [ 27.70702, -19.09193 ], [ 27.70628, -19.09697 ], [ 27.706029999, -19.09766 ], [ 27.70531, -19.09857 ], [ 27.70167, -19.10017 ], [ 27.70022, -19.09993 ], [ 27.69613, -19.09716 ], [ 27.69395, -19.09509 ], [ 27.686484368720617, -19.095240508631704 ] ] ], [ [ [ 27.741189108179032, -19.010810240610418 ], [ 27.745501934886704, -19.005365178418153 ], [ 27.7455013332915, -19.00438460935813 ], [ 27.745501032577927, -19.003894324788792 ], [ 27.750678864611345, -18.994575973762217 ], [ 27.749910658748028, -18.992416846130013 ], [ 27.749910226436995, -18.992353688656145 ], [ 27.749909361818627, -18.992227373707124 ], [ 27.749908497205187, -18.99210105875628 ], [ 27.749974019655468, -18.991974366001909 ], [ 27.749973587328036, -18.991911208525941 ], [ 27.749972290353124, -18.991721736095379 ], [ 27.750038244963086, -18.991658200797133 ], [ 27.750035650903776, -18.991279255927367 ], [ 27.750101172958271, -18.991152563131024 ], [ 27.750100308236572, -18.991026248171114 ], [ 27.750165830149577, -18.99089955535349 ], [ 27.75016453300859, -18.990710082910638 ], [ 27.750230054757555, -18.990583390071823 ], [ 27.750295143987174, -18.990393539729897 ], [ 27.75029427914491, -18.990267224765375 ], [ 27.750359368191631, -18.990077374401064 ], [ 27.750424889561277, -18.989950681498151 ], [ 27.750424024636182, -18.98982436653143 ], [ 27.750489545864351, -18.989697673607235 ], [ 27.750555066996164, -18.989570980661515 ], [ 27.750554201985775, -18.989444665693501 ], [ 27.750620155503253, -18.989381130210603 ], [ 27.750685676419799, -18.989254437221938 ], [ 27.750684811321651, -18.989128122253526 ], [ 27.750816717963822, -18.989001051180033 ], [ 27.750881805973947, -18.988811200643177 ], [ 27.750947326482525, -18.988684507568518 ], [ 27.751079232581873, -18.988557436320686 ], [ 27.751144320137712, -18.988367585698537 ], [ 27.751209407553329, -18.988177735054673 ], [ 27.751341313062312, -18.988050663633643 ], [ 27.751406832941559, -18.98792397040808 ], [ 27.751471919902912, -18.987734119678926 ], [ 27.751603824869115, -18.987607048083582 ], [ 27.75173529671984, -18.987416818919161 ], [ 27.751866768276635, -18.987226589667706 ], [ 27.751998239539507, -18.98703636032922 ], [ 27.75206375854555, -18.986909666887943 ], [ 27.75219522934438, -18.986719437419278 ], [ 27.752261181183499, -18.986655901391202 ], [ 27.75232713297261, -18.986592365340925 ], [ 27.752392651564627, -18.986465671791684 ], [ 27.75245860322995, -18.986402135697531 ], [ 27.752590506410581, -18.986275063442605 ], [ 27.752656457925884, -18.986211527281846 ], [ 27.752721976126438, -18.98608483362452 ], [ 27.752854312171788, -18.986020918666238 ], [ 27.75291983015099, -18.985894224943998 ], [ 27.753051732584012, -18.985767152379278 ], [ 27.753183634817024, -18.985640079725691 ], [ 27.753315536850025, -18.985513006983297 ], [ 27.753381487791525, -18.985449470578772 ], [ 27.753513389524517, -18.985322397703108 ], [ 27.753578906743382, -18.985195703764632 ], [ 27.753710808128819, -18.985068630756857 ], [ 27.753842709314252, -18.98494155766026 ], [ 27.753974176585636, -18.984751327010503 ], [ 27.754106077323524, -18.984624253737408 ], [ 27.754304361888284, -18.984496801122699 ], [ 27.754369878199309, -18.984370106924743 ], [ 27.754435828293261, -18.984306570166069 ], [ 27.754501344434207, -18.984179875924973 ], [ 27.754633678275127, -18.98411595975681 ], [ 27.75469919419476, -18.983989265450823 ], [ 27.754765144014954, -18.983925728581713 ], [ 27.754764710018094, -18.983862571123353 ], [ 27.754830659764512, -18.9837990342326 ], [ 27.754896609460943, -18.983735497319639 ], [ 27.754962125040429, -18.983608802927399 ], [ 27.756669842891309, -18.980946315701654 ], [ 27.756734921409926, -18.980756463278244 ], [ 27.756799999788456, -18.980566610833183 ], [ 27.756865512755841, -18.980439915816625 ], [ 27.756930590875502, -18.98025006332853 ], [ 27.756929721376327, -18.980123748427065 ], [ 27.7569952340836, -18.979997053367942 ], [ 27.756994364544344, -18.979870738464964 ], [ 27.75743816371784, -18.976836518859123 ], [ 27.75743598931447, -18.976520731522644 ], [ 27.757435119561819, -18.976394416584935 ], [ 27.757434249814139, -18.976268101645445 ], [ 27.756723076091742, -18.969387735180646 ], [ 27.756655394704762, -18.969198642501194 ], [ 27.756654525790069, -18.969072327437544 ], [ 27.756587279048418, -18.968946392253887 ], [ 27.756585106920756, -18.968630604577392 ], [ 27.756584238078378, -18.968504289503677 ], [ 27.756516991632711, -18.968378354276947 ], [ 27.756515688460858, -18.968188881657291 ], [ 27.756448442201297, -18.968062946395175 ], [ 27.7564475734812, -18.967936631309346 ], [ 27.755084886013407, -18.96282845854433 ], [ 27.755084018498387, -18.96270214334367 ], [ 27.755083150988323, -18.96257582814123 ], [ 27.755016341923586, -18.962513049770127 ], [ 27.755015474470909, -18.962386734562955 ], [ 27.750739692594728, -18.95712679054791 ], [ 27.750620603888489, -18.957092067868693 ], [ 27.750493516700065, -18.957035253343509 ], [ 27.750429200330796, -18.95697698127254 ], [ 27.750366429595111, -18.956978438727869 ], [ 27.750302113290818, -18.956920166610161 ], [ 27.750175026334311, -18.956863351857297 ], [ 27.749922398098953, -18.956809451640979 ], [ 27.749730995322391, -18.956694364292535 ], [ 27.749541138091615, -18.956639006305757 ], [ 27.749414051589447, -18.95658219101308 ], [ 27.749412506348161, -18.956522461440237 ], [ 27.749349735760401, -18.95652391854571 ], [ 27.749222649406683, -18.956467103115834 ], [ 27.748970022029191, -18.956413201567823 ], [ 27.7486530792936, -18.956301026947695 ], [ 27.748463222826363, -18.956245667826703 ], [ 27.748337681814888, -18.956248581366868 ], [ 27.748273366477683, -18.95619030850656 ], [ 27.748209051185071, -18.956132035622012 ], [ 27.748083510247572, -18.95613494898728 ], [ 27.748019195040328, -18.956076676033504 ], [ 27.747893654136028, -18.956079589268853 ], [ 27.74770379814305, -18.956024229351303 ], [ 27.747576712688549, -18.955967412757435 ], [ 27.747449627317522, -18.955910596073132 ], [ 27.747259771647062, -18.955855235688073 ], [ 27.7470683717053, -18.955740145477463 ], [ 27.746682484104525, -18.955390505158814 ], [ 27.746425226595747, -18.955157411128621 ], [ 27.746230739858863, -18.954922860702446 ], [ 27.745971939720469, -18.954630036330677 ], [ 27.74571468436698, -18.954396941221077 ], [ 27.745457429726834, -18.954163845723979 ], [ 27.74526294550807, -18.953929294171029 ], [ 27.745068461837597, -18.953694742389398 ], [ 27.744903518579605, -18.953545287524051 ], [ 27.744875522273233, -18.953519920066107 ], [ 27.744682583110105, -18.953345097524881 ], [ 27.744552413787364, -18.953168819347393 ], [ 27.744359475365513, -18.952993996437812 ], [ 27.744229306659793, -18.952817718005736 ], [ 27.744036368979199, -18.952642894727813 ], [ 27.743779119362522, -18.95240979668495 ], [ 27.743586182618092, -18.952234972898598 ], [ 27.743456015322767, -18.952058693860991 ], [ 27.743327391276051, -18.951942144448768 ], [ 27.742869507224039, -18.950403099741322 ], [ 27.742020636374722, -18.947549782639395 ], [ 27.742019093966967, -18.947490052853251 ], [ 27.742016009157144, -18.947370593279658 ], [ 27.742011381956651, -18.947191403915998 ], [ 27.742008297165818, -18.947071944338031 ], [ 27.741997500457696, -18.946653835801339 ], [ 27.741928563980977, -18.946416371094521 ], [ 27.741923936938438, -18.946237181706014 ], [ 27.741917767574961, -18.945998262515225 ], [ 27.741916225238839, -18.945938532716422 ], [ 27.741911598241856, -18.945759343317423 ], [ 27.741900801982005, -18.945341234704422 ], [ 27.741894632732421, -18.945102315487354 ], [ 27.741882294324363, -18.944624477032239 ], [ 27.741940433688576, -18.944443833179808 ], [ 27.741934264463787, -18.94420491394159 ], [ 27.741928095269365, -18.943965994696374 ], [ 27.741983149763527, -18.943665891200819 ], [ 27.74197389595215, -18.943307512314401 ], [ 27.742027407884432, -18.942947678977124 ], [ 27.742013527197543, -18.942410110605785 ], [ 27.742004273491698, -18.942051731671881 ], [ 27.741991935323529, -18.94157389306881 ], [ 27.741985766284998, -18.941334973756792 ], [ 27.741986611595653, -18.941332347254811 ], [ 27.74265, -18.94518 ], [ 27.74745, -18.95185 ], [ 27.75347, -18.95761 ], [ 27.75564, -18.95991 ], [ 27.76044, -18.96659 ], [ 27.76284, -18.97165 ], [ 27.76354, -18.97761 ], [ 27.76281, -18.98083 ], [ 27.76061, -18.9861 ], [ 27.75745, -18.99136 ], [ 27.75405, -18.9964 ], [ 27.74823, -19.00234 ], [ 27.74556, -19.00646 ], [ 27.74119, -19.01081 ], [ 27.741189108179032, -19.010810240610418 ] ] ], [ [ [ 27.742629286000973, -18.937071021265574 ], [ 27.74262634790179, -18.936957241737517 ], [ 27.742682941714172, -18.936716867773796 ], [ 27.742737992964095, -18.936416763945402 ], [ 27.74279458646259, -18.936176389945238 ], [ 27.742848094932814, -18.935816556230485 ], [ 27.743014789034834, -18.934975974364001 ], [ 27.743131059286668, -18.934614685865025 ], [ 27.743369768693299, -18.9341310280588 ], [ 27.743489122896644, -18.93388919904864 ], [ 27.743608476766685, -18.933647369967119 ], [ 27.743727830303431, -18.933405540814224 ], [ 27.743847183506887, -18.933163711589966 ], [ 27.743903774485968, -18.932923337258448 ], [ 27.743961908078042, -18.932742692755948 ], [ 27.743955737039279, -18.932503773365283 ], [ 27.744010784905697, -18.93220366914715 ], [ 27.744003071086212, -18.931905019894408 ], [ 27.743993814565524, -18.931546640776698 ], [ 27.743986100850531, -18.931247991499887 ], [ 27.743972216283233, -18.930710422774094 ], [ 27.743964502701225, -18.930411773466677 ], [ 27.743955246465511, -18.930053394283334 ], [ 27.743939819557962, -18.929456095609442 ], [ 27.743929020835704, -18.929037986511677 ], [ 27.743924364953848, -18.928857717161836 ], [ 27.743974167452404, -18.928711083387025 ], [ 27.743971556913287, -18.928439371653578 ], [ 27.743971497159276, -18.928433152268738 ], [ 27.743969716978427, -18.928247864851702 ], [ 27.743966156651705, -18.927877290005991 ], [ 27.743964376505833, -18.927692002577317 ], [ 27.743961706308877, -18.927414071427052 ], [ 27.743959926192147, -18.927228783988696 ], [ 27.743878375033219, -18.927077014402901 ], [ 27.74386080338655, -18.92704431290559 ], [ 27.743859894664109, -18.926949719703114 ], [ 27.743858133411631, -18.926766381728083 ], [ 27.743758121081207, -18.92648926683615 ], [ 27.743658998959813, -18.926304795607912 ], [ 27.743559877061632, -18.926120324315569 ], [ 27.743362523623539, -18.925844025287574 ], [ 27.743263402335554, -18.925659553807197 ], [ 27.743262975860596, -18.925615141774916 ], [ 27.745619998999985, -18.92545 ], [ 27.749, -18.92661 ], [ 27.74293, -18.93623 ], [ 27.742629286000973, -18.937071021265574 ] ] ] ] } }
]
}
