{
"type": "FeatureCollection",
"name": "RIVERS",
"crs": { "type": "name", "properties": { "name": "urn:ogc:def:crs:EPSG::32735" } },
"features": [
{ "type": "Feature", "properties": { "fid": 1, "DN": 1 }, "geometry": { "type": "Polygon", "coordinates": [ [ [ 546525.0, -2033235.0 ], [ 546525.0, -2033265.0 ], [ 546495.0, -2033265.0 ], [ 546495.0, -2033295.0 ], [ 546615.0, -2033295.0 ], [ 546615.0, -2033265.0 ], [ 546585.0, -2033265.0 ], [ 546585.0, -2033235.0 ], [ 546525.0, -2033235.0 ] ] ] } },
{ "type": "Feature", "properties": { "fid": 2, "DN": 1 }, "geometry": { "type": "Polygon", "coordinates": [ [ [ 544035.0, -2034465.0 ], [ 544035.0, -2034555.0 ], [ 544155.0, -2034555.0 ], [ 544155.0, -2034495.0 ], [ 544095.0, -2034495.0 ], [ 544095.0, -2034465.0 ], [ 544035.0, -2034465.0 ] ] ] } },
{ "type": "Feature", "properties": { "fid": 3, "DN": 1 }, "geometry": { "type": "Polygon", "coordinates": [ [ [ 580005.0, -2040165.0 ], [ 580005.0, -2040195.0 ], [ 580035.0, -2040195.0 ], [ 580035.0, -2040165.0 ], [ 580005.0, -2040165.0 ] ] ] } },
{ "type": "Feature", "properties": { "fid": 4, "DN": 1 }, "geometry": { "type": "Polygon", "coordinates": [ [ [ 555705.0, -2063955.0 ], [ 555705.0, -2063985.0 ], [ 555765.0, -2063985.0 ], [ 555765.0, -2063955.0 ], [ 555705.0, -2063955.0 ] ] ] } },
{ "type": "Feature", "properties": { "fid": 5, "DN": 1 }, "geometry": { "type": "Polygon", "coordinates": [ [ [ 555885.0, -2064075.0 ], [ 555885.0, -2064105.0 ], [ 555915.0, -2064105.0 ], [ 555915.0, -2064075.0 ], [ 555885.0, -2064075.0 ] ] ] } },
{ "type": "Feature", "properties": { "fid": 6, "DN": 1 }, "geometry": { "type": "Polygon", "coordinates": [ [ [ 556005.0, -2064165.0 ], [ 556005.0, -2064195.0 ], [ 556035.0, -2064195.0 ], [ 556035.0, -2064165.0 ], [ 556005.0, -2064165.0 ] ] ] } },
{ "type": "Feature", "properties": { "fid": 7, "DN": 1 }, "geometry": { "type": "Polygon", "coordinates": [ [ [ 556035.0, -2064195.0 ], [ 556035.0, -2064225.0 ], [ 556095.0, -2064225.0 ], [ 556095.0, -2064195.0 ], [ 556035.0, -2064195.0 ] ] ] } },
{ "type": "Feature", "properties": { "fid": 8, "DN": 1 }, "geometry": { "type": "Polygon", "coordinates": [ [ [ 556095.0, -2064225.0 ], [ 556095.0, -2064255.0 ], [ 556155.0, -2064255.0 ], [ 556155.0, -2064225.0 ], [ 556095.0, -2064225.0 ] ] ] } },
{ "type": "Feature", "properties": { "fid": 9, "DN": 1 }, "geometry": { "type": "Polygon", "coordinates": [ [ [ 556245.0, -2064285.0 ], [ 556245.0, -2064315.0 ], [ 556275.0, -2064315.0 ], [ 556275.0, -2064285.0 ], [ 556245.0, -2064285.0 ] ] ] } },
{ "type": "Feature", "properties": { "fid": 10, "DN": 1 }, "geometry": { "type": "Polygon", "coordinates": [ [ [ 556365.0, -2064345.0 ], [ 556365.0, -2064375.0 ], [ 556425.0, -2064375.0 ], [ 556425.0, -2064345.0 ], [ 556365.0, -2064345.0 ] ] ] } },
{ "type": "Feature", "properties": { "fid": 11, "DN": 1 }, "geometry": { "type": "Polygon", "coordinates": [ [ [ 556455.0, -2064375.0 ], [ 556455.0, -2064405.0 ], [ 556515.0, -2064405.0 ], [ 556515.0, -2064375.0 ], [ 556455.0, -2064375.0 ] ] ] } },
{ "type": "Feature", "properties": { "fid": 12, "DN": 1 }, "geometry": { "type": "Polygon", "coordinates": [ [ [ 556545.0, -2064405.0 ], [ 556545.0, -2064435.0 ], [ 556605.0, -2064435.0 ], [ 556605.0, -2064405.0 ], [ 556545.0, -2064405.0 ] ] ] } },
{ "type": "Feature", "properties": { "fid": 13, "DN": 1 }, "geometry": { "type": "Polygon", "coordinates": [ [ [ 556635.0, -2064435.0 ], [ 556635.0, -2064465.0 ], [ 556665.0, -2064465.0 ], [ 556665.0, -2064435.0 ], [ 556635.0, -2064435.0 ] ] ] } },
{ "type": "Feature", "properties": { "fid": 14, "DN": 1 }, "geometry": { "type": "Polygon", "coordinates": [ [ [ 557115.0, -2064585.0 ], [ 557115.0, -2064615.0 ], [ 557145.0, -2064615.0 ], [ 557145.0, -2064585.0 ], [ 557115.0, -2064585.0 ] ] ] } },
{ "type": "Feature", "properties": { "fid": 15, "DN": 1 }, "geometry": { "type": "Polygon", "coordinates": [ [ [ 557865.0, -2064855.0 ], [ 557865.0, -2064885.0 ], [ 557895.0, -2064885.0 ], [ 557895.0, -2064855.0 ], [ 557865.0, -2064855.0 ] ] ] } },
{ "type": "Feature", "properties": { "fid": 16, "DN": 1 }, "geometry": { "type": "Polygon", "coordinates": [ [ [ 558045.0, -2065035.0 ], [ 558045.0, -2065065.0 ], [ 558075.0, -2065065.0 ], [ 558075.0, -2065035.0 ], [ 558045.0, -2065035.0 ] ] ] } },
{ "type": "Feature", "properties": { "fid": 17, "DN": 1 }, "geometry": { "type": "Polygon", "coordinates": [ [ [ 561405.0, -2066565.0 ], [ 561405.0, -2066595.0 ], [ 561465.0, -2066595.0 ], [ 561465.0, -2066565.0 ], [ 561405.0, -2066565.0 ] ] ] } },
{ "type": "Feature", "properties": { "fid": 18, "DN": 1 }, "geometry": { "type": "Polygon", "coordinates": [ [ [ 562065.0, -2066745.0 ], [ 562065.0, -2066775.0 ], [ 562095.0, -2066775.0 ], [ 562095.0, -2066745.0 ], [ 562065.0, -2066745.0 ] ] ] } },
{ "type": "Feature", "properties": { "fid": 19, "DN": 1 }, "geometry": { "type": "Polygon", "coordinates": [ [ [ 562095.0, -2066775.0 ], [ 562095.0, -2066805.0 ], [ 562155.0, -2066805.0 ], [ 562155.0, -2066835.0 ], [ 562245.0, -2066835.0 ], [ 562245.0, -2066865.0 ], [ 562305.0, -2066865.0 ], [ 562305.0, -2066895.0 ], [ 562425.0, -2066895.0 ], [ 562425.0, -2066865.0 ], [ 562335.0, -2066865.0 ], [ 562335.0, -2066835.0 ], [ 562275.0, -2066835.0 ], [ 562275.0, -2066805.0 ], [ 562215.0, -2066805.0 ], [ 562215.0, -2066775.0 ], [ 562095.0, -2066775.0 ] ] ] } },
{ "type": "Feature", "properties": { "fid": 20, "DN": 1 }, "geometry": { "type": "Polygon", "coordinates": [ [ [ 562425.0, -2066895.0 ], [ 562425.0, -2066925.0 ], [ 562605.0, -2066925.0 ], [ 562605.0, -2066895.0 ], [ 562425.0, -2066895.0 ] ] ] } },
{ "type": "Feature", "properties": { "fid": 21, "DN": 1 }, "geometry": { "type": "Polygon", "coordinates": [ [ [ 562665.0, -2066925.0 ], [ 562665.0, -2066955.0 ], [ 562725.0, -2066955.0 ], [ 562725.0, -2066925.0 ], [ 562665.0, -2066925.0 ] ] ] } },
{ "type": "Feature", "properties": { "fid": 22, "DN": 1 }, "geometry": { "type": "Polygon", "coordinates": [ [ [ 562725.0, -2066955.0 ], [ 562725.0, -2066985.0 ], [ 562755.0, -2066985.0 ], [ 562755.0, -2066955.0 ], [ 562725.0, -2066955.0 ] ] ] } },
{ "type": "Feature", "properties": { "fid": 23, "DN": 1 }, "geometry": { "type": "Polygon", "coordinates": [ [ [ 562755.0, -2066985.0 ], [ 562755.0, -2067015.0 ], [ 562785.0, -2067015.0 ], [ 562785.0, -2066985.0 ], [ 562755.0, -2066985.0 ] ] ] } },
{ "type": "Feature", "properties": { "fid": 24, "DN": 1 }, "geometry": { "type": "Polygon", "coordinates": [ [ [ 562815.0, -2067075.0 ], [ 562815.0, -2067105.0 ], [ 562845.0, -2067105.0 ], [ 562845.0, -2067075.0 ], [ 562815.0, -2067075.0 ] ] ] } },
{ "type": "Feature", "properties": { "fid": 25, "DN": 1 }, "geometry": { "type": "Polygon", "coordinates": [ [ [ 562785.0, -2067465.0 ], [ 562785.0, -2067555.0 ], [ 562815.0, -2067555.0 ], [ 562815.0, -2067465.0 ], [ 562785.0, -2067465.0 ] ] ] } },
{ "type": "Feature", "properties": { "fid": 26, "DN": 1 }, "geometry": { "type": "Polygon", "coordinates": [ [ [ 562755.0, -2067615.0 ], [ 562755.0, -2067675.0 ], [ 562785.0, -2067675.0 ], [ 562785.0, -2067615.0 ], [ 562755.0, -2067615.0 ] ] ] } },
{ "type": "Feature", "properties": { "fid": 27, "DN": 1 }, "geometry": { "type": "Polygon", "coordinates": [ [ [ 562725.0, -2067795.0 ], [ 562725.0, -2067855.0 ], [ 562755.0, -2067855.0 ], [ 562755.0, -2067795.0 ], [ 562725.0, -2067795.0 ] ] ] } },
{ "type": "Feature", "properties": { "fid": 28, "DN": 1 }, "geometry": { "type": "Polygon", "coordinates": [ [ [ 562695.0, -2067885.0 ], [ 562695.0, -2068005.0 ], [ 562725.0, -2068005.0 ], [ 562725.0, -2067885.0 ], [ 562695.0, -2067885.0 ] ] ] } },
{ "type": "Feature", "properties": { "fid": 29, "DN": 1 }, "geometry": { "type": "Polygon", "coordinates": [ [ [ 562695.0, -2068035.0 ], [ 562695.0, -2068125.0 ], [ 562725.0, -2068125.0 ], [ 562725.0, -2068035.0 ], [ 562695.0, -2068035.0 ] ] ] } },
{ "type": "Feature", "properties": { "fid": 30, "DN": 1 }, "geometry": { "type": "Polygon", "coordinates": [ [ [ 562695.0, -2068185.0 ], [ 562695.0, -2068245.0 ], [ 562725.0, -2068245.0 ], [ 562725.0, -2068185.0 ], [ 562695.0, -2068185.0 ] ] ] } },
{ "type": "Feature", "properties": { "fid": 31, "DN": 1 }, "geometry": { "type": "Polygon", "coordinates": [ [ [ 562875.0, -2068845.0 ], [ 562875.0, -2068875.0 ], [ 562905.0, -2068875.0 ], [ 562905.0, -2068845.0 ], [ 562875.0, -2068845.0 ] ] ] } },
{ "type": "Feature", "properties": { "fid": 32, "DN": 1 }, "geometry": { "type": "Polygon", "coordinates": [ [ [ 562905.0, -2068905.0 ], [ 562905.0, -2068965.0 ], [ 562935.0, -2068965.0 ], [ 562935.0, -2068905.0 ], [ 562905.0, -2068905.0 ] ] ] } },
{ "type": "Feature", "properties": { "fid": 33, "DN": 1 }, "geometry": { "type": "Polygon", "coordinates": [ [ [ 562935.0, -2068995.0 ], [ 562935.0, -2069055.0 ], [ 562965.0, -2069055.0 ], [ 562965.0, -2068995.0 ], [ 562935.0, -2068995.0 ] ] ] } },
{ "type": "Feature", "properties": { "fid": 34, "DN": 1 }, "geometry": { "type": "Polygon", "coordinates": [ [ [ 562965.0, -2069085.0 ], [ 562965.0, -2069145.0 ], [ 562995.0, -2069145.0 ], [ 562995.0, -2069085.0 ], [ 562965.0, -2069085.0 ] ] ] } },
{ "type": "Feature", "properties": { "fid": 35, "DN": 1 }, "geometry": { "type": "Polygon", "coordinates": [ [ [ 562995.0, -2069145.0 ], [ 562995.0, -2069205.0 ], [ 563025.0, -2069205.0 ], [ 563025.0, -2069145.0 ], [ 562995.0, -2069145.0 ] ] ] } },
{ "type": "Feature", "properties": { "fid": 36, "DN": 1 }, "geometry": { "type": "Polygon", "coordinates": [ [ [ 564765.0, -2069205.0 ], [ 564765.0, -2069235.0 ], [ 564825.0, -2069235.0 ], [ 564825.0, -2069205.0 ], [ 564765.0, -2069205.0 ] ] ] } },
{ "type": "Feature", "properties": { "fid": 37, "DN": 1 }, "geometry": { "type": "Polygon", "coordinates": [ [ [ 564645.0, -2069235.0 ], [ 564645.0, -2069265.0 ], [ 564705.0, -2069265.0 ], [ 564705.0, -2069235.0 ], [ 564645.0, -2069235.0 ] ] ] } },
{ "type": "Feature", "properties": { "fid": 38, "DN": 1 }, "geometry": { "type": "Polygon", "coordinates": [ [ [ 563025.0, -2069205.0 ], [ 563025.0, -2069265.0 ], [ 563055.0, -2069265.0 ], [ 563055.0, -2069295.0 ], [ 563085.0, -2069295.0 ], [ 563085.0, -2069235.0 ], [ 563055.0, -2069235.0 ], [ 563055.0, -2069205.0 ], [ 563025.0, -2069205.0 ] ] ] } },
{ "type": "Feature", "properties": { "fid": 39, "DN": 1 }, "geometry": { "type": "Polygon", "coordinates": [ [ [ 564465.0, -2069265.0 ], [ 564465.0, -2069295.0 ], [ 564585.0, -2069295.0 ], [ 564585.0, -2069265.0 ], [ 564465.0, -2069265.0 ] ] ] } },
{ "type": "Feature", "properties": { "fid": 40, "DN": 1 }, "geometry": { "type": "Polygon", "coordinates": [ [ [ 563085.0, -2069295.0 ], [ 563085.0, -2069355.0 ], [ 563115.0, -2069355.0 ], [ 563115.0, -2069385.0 ], [ 563145.0, -2069385.0 ], [ 563145.0, -2069325.0 ], [ 563115.0, -2069325.0 ], [ 563115.0, -2069295.0 ], [ 563085.0, -2069295.0 ] ] ] } },
{ "type": "Feature", "properties": { "fid": 41, "DN": 1 }, "geometry": { "type": "Polygon", "coordinates": [ [ [ 563145.0, -2069385.0 ], [ 563145.0, -2069415.0 ], [ 563175.0, -2069415.0 ], [ 563175.0, -2069385.0 ], [ 563145.0, -2069385.0 ] ] ] } },
{ "type": "Feature", "properties": { "fid": 42, "DN": 1 }, "geometry": { "type": "Polygon", "coordinates": [ [ [ 563175.0, -2069415.0 ], [ 563175.0, -2069445.0 ], [ 563205.0, -2069445.0 ], [ 563205.0, -2069415.0 ], [ 563175.0, -2069415.0 ] ] ] } },
{ "type": "Feature", "properties": { "fid": 43, "DN": 1 }, "geometry": { "type": "Polygon", "coordinates": [ [ [ 563205.0, -2069445.0 ], [ 563205.0, -2069475.0 ], [ 563235.0, -2069475.0 ], [ 563235.0, -2069445.0 ], [ 563205.0, -2069445.0 ] ] ] } },
{ "type": "Feature", "properties": { "fid": 44, "DN": 1 }, "geometry": { "type": "Polygon", "coordinates": [ [ [ 563265.0, -2069535.0 ], [ 563265.0, -2069565.0 ], [ 563325.0, -2069565.0 ], [ 563325.0, -2069535.0 ], [ 563265.0, -2069535.0 ] ] ] } },
{ "type": "Feature", "properties": { "fid": 45, "DN": 1 }, "geometry": { "type": "Polygon", "coordinates": [ [ [ 563325.0, -2069565.0 ], [ 563325.0, -2069595.0 ], [ 563355.0, -2069595.0 ], [ 563355.0, -2069565.0 ], [ 563325.0, -2069565.0 ] ] ] } },
{ "type": "Feature", "properties": { "fid": 46, "DN": 1 }, "geometry": { "type": "Polygon", "coordinates": [ [ [ 563355.0, -2069595.0 ], [ 563355.0, -2069625.0 ], [ 563385.0, -2069625.0 ], [ 563385.0, -2069595.0 ], [ 563355.0, -2069595.0 ] ] ] } },
{ "type": "Feature", "properties": { "fid": 47, "DN": 1 }, "geometry": { "type": "Polygon", "coordinates": [ [ [ 563415.0, -2069625.0 ], [ 563415.0, -2069655.0 ], [ 563445.0, -2069655.0 ], [ 563445.0, -2069625.0 ], [ 563415.0, -2069625.0 ] ] ] } },
{ "type": "Feature", "properties": { "fid": 48, "DN": 1 }, "geometry": { "type": "Polygon", "coordinates": [ [ [ 614295.0, -2074425.0 ], [ 614295.0, -2074485.0 ], [ 614355.0, -2074485.0 ], [ 614355.0, -2074515.0 ], [ 614385.0, -2074515.0 ], [ 614385.0, -2074545.0 ], [ 614415.0, -2074545.0 ], [ 614415.0, -2074515.0 ], [ 614445.0, -2074515.0 ], [ 614445.0, -2074425.0 ], [ 614385.0, -2074425.0 ], [ 614385.0, -2074455.0 ], [ 614355.0, -2074455.0 ], [ 614355.0, -2074425.0 ], [ 614295.0, -2074425.0 ] ] ] } },
{ "type": "Feature", "properties": { "fid": 49, "DN": 1 }, "geometry": { "type": "Polygon", "coordinates": [ [ [ 618345.0, -2076285.0 ], [ 618345.0, -2076315.0 ], [ 618375.0, -2076315.0 ], [ 618375.0, -2076285.0 ], [ 618345.0, -2076285.0 ] ] ] } },
{ "type": "Feature", "properties": { "fid": 50, "DN": 1 }, "geometry": { "type": "Polygon", "coordinates": [ [ [ 633135.0, -2080185.0 ], [ 633135.0, -2080245.0 ], [ 633105.0, -2080245.0 ], [ 633105.0, -2080305.0 ], [ 633045.0, -2080305.0 ], [ 633045.0, -2080335.0 ], [ 632865.0, -2080335.0 ], [ 632865.0, -2080365.0 ], [ 632955.0, -2080365.0 ], [ 632955.0, -2080395.0 ], [ 632985.0, -2080395.0 ], [ 632985.0, -2080365.0 ], [ 633075.0, -2080365.0 ], [ 633075.0, -2080335.0 ], [ 633135.0, -2080335.0 ], [ 633135.0, -2080305.0 ], [ 633165.0, -2080305.0 ], [ 633165.0, -2080185.0 ], [ 633135.0, -2080185.0 ] ] ] } },
{ "type": "Feature", "properties": { "fid": 51, "DN": 1 }, "geometry": { "type": "Polygon", "coordinates": [ [ [ 629205.0, -2082735.0 ], [ 629205.0, -2082765.0 ], [ 629235.0, -2082765.0 ], [ 629235.0, -2082735.0 ], [ 629205.0, -2082735.0 ] ] ] } },
{ "type": "Feature", "properties": { "fid": 52, "DN": 1 }, "geometry": { "type": "Polygon", "coordinates": [ [ [ 599445.0, -2094195.0 ], [ 599445.0, -2094225.0 ], [ 599475.0, -2094225.0 ], [ 599475.0, -2094195.0 ], [ 599445.0, -2094195.0 ] ] ] } },
{ "type": "Feature", "properties": { "fid": 54, "DN": 1 }, "geometry": { "type": "Polygon", "coordinates": [ [ [ 596295.0, -2093805.0 ], [ 596295.0, -2093835.0 ], [ 596265.0, -2093835.0 ], [ 596265.0, -2093865.0 ], [ 596235.0, -2093865.0 ], [ 596235.0, -2093895.0 ], [ 596085.0, -2093895.0 ], [ 596085.0, -2093925.0 ], [ 596025.0, -2093925.0 ], [ 596025.0, -2093955.0 ], [ 595995.0, -2093955.0 ], [ 595995.0, -2094105.0 ], [ 596025.0, -2094105.0 ], [ 596025.0, -2094135.0 ], [ 596145.0, -2094135.0 ], [ 596145.0, -2094165.0 ], [ 596265.0, -2094165.0 ], [ 596265.0, -2094135.0 ], [ 596445.0, -2094135.0 ], [ 596445.0, -2094165.0 ], [ 596715.0, -2094165.0 ], [ 596715.0, -2094135.0 ], [ 596955.0, -2094135.0 ], [ 596955.0, -2094105.0 ], [ 596985.0, -2094105.0 ], [ 596985.0, -2094135.0 ], [ 597105.0, -2094135.0 ], [ 597105.0, -2094105.0 ], [ 597165.0, -2094105.0 ], [ 597165.0, -2094135.0 ], [ 597195.0, -2094135.0 ], [ 597195.0, -2094165.0 ], [ 597255.0, -2094165.0 ], [ 597255.0, -2094135.0 ], [ 597375.0, -2094135.0 ], [ 597375.0, -2094165.0 ], [ 597405.0, -2094165.0 ], [ 597405.0, -2094135.0 ], [ 597495.0, -2094135.0 ], [ 597495.0, -2094165.0 ], [ 597555.0, -2094165.0 ], [ 597555.0, -2094135.0 ], [ 597645.0, -2094135.0 ], [ 597645.0, -2094165.0 ], [ 597705.0, -2094165.0 ], [ 597705.0, -2094195.0 ], [ 597795.0, -2094195.0 ], [ 597795.0, -2094225.0 ], [ 598095.0, -2094225.0 ], [ 598095.0, -2094255.0 ], [ 598275.0, -2094255.0 ], [ 598275.0, -2094225.0 ], [ 598365.0, -2094225.0 ], [ 598365.0, -2094255.0 ], [ 598485.0, -2094255.0 ], [ 598485.0, -2094285.0 ], [ 598545.0, -2094285.0 ], [ 598545.0, -2094315.0 ], [ 598635.0, -2094315.0 ], [ 598635.0, -2094345.0 ], [ 598695.0, -2094345.0 ], [ 598695.0, -2094375.0 ], [ 598935.0, -2094375.0 ], [ 598935.0, -2094405.0 ], [ 599085.0, -2094405.0 ], [ 599085.0, -2094375.0 ], [ 599115.0, -2094375.0 ], [ 599115.0, -2094345.0 ], [ 599145.0, -2094345.0 ], [ 599145.0, -2094375.0 ], [ 599175.0, -2094375.0 ], [ 599175.0, -2094345.0 ], [ 599265.0, -2094345.0 ], [ 599265.0, -2094315.0 ], [ 599295.0, -2094315.0 ], [ 599295.0, -2094285.0 ], [ 599325.0, -2094285.0 ], [ 599325.0, -2094255.0 ], [ 599355.0, -2094255.0 ], [ 599355.0, -2094225.0 ], [ 599385.0, -2094225.0 ], [ 599385.0, -2094195.0 ], [ 599415.0, -2094195.0 ], [ 599415.0, -2094165.0 ], [ 599295.0, -2094165.0 ], [ 599295.0, -2094135.0 ], [ 599265.0, -2094135.0 ], [ 599265.0, -2094105.0 ], [ 599175.0, -2094105.0 ], [ 599175.0, -2094135.0 ], [ 599085.0, -2094135.0 ], [ 599085.0, -2094165.0 ], [ 599055.0, -2094165.0 ], [ 599055.0, -2094195.0 ], [ 599025.0, -2094195.0 ], [ 599025.0, -2094225.0 ], [ 598965.0, -2094225.0 ], [ 598965.0, -2094255.0 ], [ 598875.0, -2094255.0 ], [ 598875.0, -2094285.0 ], [ 598725.0, -2094285.0 ], [ 598725.0, -2094255.0 ], [ 598695.0, -2094255.0 ], [ 598695.0, -2094225.0 ], [ 598605.0, -2094225.0 ], [ 598605.0, -2094195.0 ], [ 598575.0, -2094195.0 ], [ 598575.0, -2094165.0 ], [ 598515.0, -2094165.0 ], [ 598515.0, -2094135.0 ], [ 598425.0, -2094135.0 ], [ 598425.0, -2094105.0 ], [ 598275.0, -2094105.0 ], [ 598275.0, -2094075.0 ], [ 598245.0, -2094075.0 ], [ 598245.0, -2094045.0 ], [ 598185.0, -2094045.0 ], [ 598185.0, -2094075.0 ], [ 598125.0, -2094075.0 ], [ 598125.0, -2094105.0 ], [ 598065.0, -2094105.0 ], [ 598065.0, -2094075.0 ], [ 598005.0, -2094075.0 ], [ 598005.0, -2094045.0 ], [ 597975.0, -2094045.0 ], [ 597975.0, -2094015.0 ], [ 597885.0, -2094015.0 ], [ 597885.0, -2094045.0 ], [ 597795.0, -2094045.0 ], [ 597795.0, -2094015.0 ], [ 597735.0, -2094015.0 ], [ 597735.0, -2093985.0 ], [ 597705.0, -2093985.0 ], [ 597705.0, -2094015.0 ], [ 597615.0, -2094015.0 ], [ 597615.0, -2093985.0 ], [ 597555.0, -2093985.0 ], [ 597555.0, -2093955.0 ], [ 597375.0, -2093955.0 ], [ 597375.0, -2093925.0 ], [ 597345.0, -2093925.0 ], [ 597345.0, -2093895.0 ], [ 597255.0, -2093895.0 ], [ 597255.0, -2093925.0 ], [ 597225.0, -2093925.0 ], [ 597225.0, -2093895.0 ], [ 597015.0, -2093895.0 ], [ 597015.0, -2093865.0 ], [ 596865.0, -2093865.0 ], [ 596865.0, -2093835.0 ], [ 596805.0, -2093835.0 ], [ 596805.0, -2093865.0 ], [ 596745.0, -2093865.0 ], [ 596745.0, -2093835.0 ], [ 596685.0, -2093835.0 ], [ 596685.0, -2093805.0 ], [ 596655.0, -2093805.0 ], [ 596655.0, -2093835.0 ], [ 596475.0, -2093835.0 ], [ 596475.0, -2093805.0 ], [ 596295.0, -2093805.0 ] ], [ [ 599235.0, -2094225.0 ], [ 599325.0, -2094225.0 ], [ 599325.0, -2094255.0 ], [ 599235.0, -2094255.0 ], [ 599235.0, -2094225.0 ] ] ] } },
{ "type": "Feature", "properties": { "fid": 55, "DN": 1 }, "geometry": { "type": "Polygon", "coordinates": [ [ [ 614115.0, -2095725.0 ], [ 614115.0, -2095785.0 ], [ 614085.0, -2095785.0 ], [ 614085.0, -2095815.0 ], [ 614055.0, -2095815.0 ], [ 614055.0, -2095845.0 ], [ 614085.0, -2095845.0 ], [ 614085.0, -2095905.0 ], [ 614115.0, -2095905.0 ], [ 614115.0, -2095935.0 ], [ 614145.0, -2095935.0 ], [ 614145.0, -2096025.0 ], [ 614115.0, -2096025.0 ], [ 614115.0, -2096055.0 ], [ 614145.0, -2096055.0 ], [ 614145.0, -2096085.0 ], [ 614205.0, -2096085.0 ], [ 614205.0, -2096145.0 ], [ 614265.0, -2096145.0 ], [ 614265.0, -2096175.0 ], [ 614325.0, -2096175.0 ], [ 614325.0, -2096205.0 ], [ 614505.0, -2096205.0 ], [ 614505.0, -2096235.0 ], [ 614595.0, -2096235.0 ], [ 614595.0, -2096205.0 ], [ 614625.0, -2096205.0 ], [ 614625.0, -2096175.0 ], [ 614865.0, -2096175.0 ], [ 614865.0, -2096205.0 ], [ 614895.0, -2096205.0 ], [ 614895.0, -2096265.0 ], [ 614925.0, -2096265.0 ], [ 614925.0, -2096295.0 ], [ 614955.0, -2096295.0 ], [ 614955.0, -2096325.0 ], [ 615045.0, -2096325.0 ], [ 615045.0, -2096355.0 ], [ 615075.0, -2096355.0 ], [ 615075.0, -2096325.0 ], [ 615435.0, -2096325.0 ], [ 615435.0, -2096295.0 ], [ 615555.0, -2096295.0 ], [ 615555.0, -2096265.0 ], [ 615645.0, -2096265.0 ], [ 615645.0, -2096235.0 ], [ 615525.0, -2096235.0 ], [ 615525.0, -2096145.0 ], [ 615495.0, -2096145.0 ], [ 615495.0, -2096085.0 ], [ 615465.0, -2096085.0 ], [ 615465.0, -2096055.0 ], [ 615435.0, -2096055.0 ], [ 615435.0, -2095995.0 ], [ 615255.0, -2095995.0 ], [ 615255.0, -2095965.0 ], [ 615135.0, -2095965.0 ], [ 615135.0, -2095935.0 ], [ 615075.0, -2095935.0 ], [ 615075.0, -2095905.0 ], [ 615045.0, -2095905.0 ], [ 615045.0, -2095875.0 ], [ 614985.0, -2095875.0 ], [ 614985.0, -2095845.0 ], [ 614955.0, -2095845.0 ], [ 614955.0, -2095875.0 ], [ 614865.0, -2095875.0 ], [ 614865.0, -2095845.0 ], [ 614715.0, -2095845.0 ], [ 614715.0, -2095815.0 ], [ 614625.0, -2095815.0 ], [ 614625.0, -2095785.0 ], [ 614595.0, -2095785.0 ], [ 614595.0, -2095815.0 ], [ 614475.0, -2095815.0 ], [ 614475.0, -2095845.0 ], [ 614355.0, -2095845.0 ], [ 614355.0, -2095815.0 ], [ 614265.0, -2095815.0 ], [ 614265.0, -2095785.0 ], [ 614235.0, -2095785.0 ], [ 614235.0, -2095755.0 ], [ 614175.0, -2095755.0 ], [ 614175.0, -2095725.0 ], [ 614115.0, -2095725.0 ] ] ] } },
{ "type": "Feature", "properties": { "fid": 57, "DN": 1 }, "geometry": { "type": "Polygon", "coordinates": [ [ [ 583035.0, -2097255.0 ], [ 583035.0, -2097285.0 ], [ 583125.0, -2097285.0 ], [ 583125.0, -2097255.0 ], [ 583035.0, -2097255.0 ] ] ] } },
{ "type": "Feature", "properties": { "fid": 58, "DN": 1 }, "geometry": { "type": "Polygon", "coordinates": [ [ [ 636255.0, -2097765.0 ], [ 636255.0, -2097795.0 ], [ 636225.0, -2097795.0 ], [ 636225.0, -2097855.0 ], [ 636315.0, -2097855.0 ], [ 636315.0, -2097795.0 ], [ 636285.0, -2097795.0 ], [ 636285.0, -2097765.0 ], [ 636255.0, -2097765.0 ] ] ] } },
{ "type": "Feature", "properties": { "fid": 59, "DN": 1 }, "geometry": { "type": "Polygon", "coordinates": [ [ [ 636375.0, -2097825.0 ], [ 636375.0, -2097885.0 ], [ 636435.0, -2097885.0 ], [ 636435.0, -2097825.0 ], [ 636375.0, -2097825.0 ] ] ] } },
{ "type": "Feature", "properties": { "fid": 60, "DN": 1 }, "geometry": { "type": "Polygon", "coordinates": [ [ [ 636195.0, -2098035.0 ], [ 636195.0, -2098065.0 ], [ 636225.0, -2098065.0 ], [ 636225.0, -2098035.0 ], [ 636195.0, -2098035.0 ] ] ] } },
{ "type": "Feature", "properties": { "fid": 61, "DN": 1 }, "geometry": { "type": "Polygon", "coordinates": [ [ [ 588645.0, -2099205.0 ], [ 588645.0, -2099265.0 ], [ 588675.0, -2099265.0 ], [ 588675.0, -2099235.0 ], [ 588705.0, -2099235.0 ], [ 588705.0, -2099205.0 ], [ 588645.0, -2099205.0 ] ] ] } },
{ "type": "Feature", "properties": { "fid": 62, "DN": 1 }, "geometry": { "type": "Polygon", "coordinates": [ [ [ 588795.0, -2099235.0 ], [ 588795.0, -2099265.0 ], [ 588825.0, -2099265.0 ], [ 588825.0, -2099235.0 ], [ 588795.0, -2099235.0 ] ] ] } },
{ "type": "Feature", "properties": { "fid": 63, "DN": 1 }, "geometry": { "type": "Polygon", "coordinates": [ [ [ 589035.0, -2099235.0 ], [ 589035.0, -2099265.0 ], [ 589065.0, -2099265.0 ], [ 589065.0, -2099235.0 ], [ 589035.0, -2099235.0 ] ] ] } },
{ "type": "Feature", "properties": { "fid": 64, "DN": 1 }, "geometry": { "type": "Polygon", "coordinates": [ [ [ 588915.0, -2099265.0 ], [ 588915.0, -2099295.0 ], [ 588975.0, -2099295.0 ], [ 588975.0, -2099265.0 ], [ 588915.0, -2099265.0 ] ] ] } },
{ "type": "Feature", "properties": { "fid": 65, "DN": 1 }, "geometry": { "type": "Polygon", "coordinates": [ [ [ 588825.0, -2099265.0 ], [ 588825.0, -2099295.0 ], [ 588855.0, -2099295.0 ], [ 588855.0, -2099325.0 ], [ 588915.0, -2099325.0 ], [ 588915.0, -2099295.0 ], [ 588885.0, -2099295.0 ], [ 588885.0, -2099265.0 ], [ 588825.0, -2099265.0 ] ] ] } },
{ "type": "Feature", "properties": { "fid": 66, "DN": 1 }, "geometry": { "type": "Polygon", "coordinates": [ [ [ 588675.0, -2099295.0 ], [ 588675.0, -2099325.0 ], [ 588735.0, -2099325.0 ], [ 588735.0, -2099295.0 ], [ 588675.0, -2099295.0 ] ] ] } },
{ "type": "Feature", "properties": { "fid": 67, "DN": 1 }, "geometry": { "type": "Polygon", "coordinates": [ [ [ 581835.0, -2096055.0 ], [ 581835.0, -2096085.0 ], [ 581805.0, -2096085.0 ], [ 581805.0, -2096115.0 ], [ 581775.0, -2096115.0 ], [ 581775.0, -2096145.0 ], [ 581745.0, -2096145.0 ], [ 581745.0, -2096175.0 ], [ 581715.0, -2096175.0 ], [ 581715.0, -2096205.0 ], [ 581655.0, -2096205.0 ], [ 581655.0, -2096235.0 ], [ 581625.0, -2096235.0 ], [ 581625.0, -2096265.0 ], [ 581595.0, -2096265.0 ], [ 581595.0, -2096295.0 ], [ 581565.0, -2096295.0 ], [ 581565.0, -2096355.0 ], [ 581595.0, -2096355.0 ], [ 581595.0, -2096415.0 ], [ 581625.0, -2096415.0 ], [ 581625.0, -2096445.0 ], [ 581655.0, -2096445.0 ], [ 581655.0, -2096475.0 ], [ 581685.0, -2096475.0 ], [ 581685.0, -2096535.0 ], [ 581715.0, -2096535.0 ], [ 581715.0, -2096565.0 ], [ 581745.0, -2096565.0 ], [ 581745.0, -2096775.0 ], [ 581835.0, -2096775.0 ], [ 581835.0, -2096805.0 ], [ 581865.0, -2096805.0 ], [ 581865.0, -2096835.0 ], [ 581925.0, -2096835.0 ], [ 581925.0, -2096865.0 ], [ 582015.0, -2096865.0 ], [ 582015.0, -2096895.0 ], [ 582105.0, -2096895.0 ], [ 582105.0, -2096925.0 ], [ 582195.0, -2096925.0 ], [ 582195.0, -2096955.0 ], [ 582225.0, -2096955.0 ], [ 582225.0, -2096985.0 ], [ 582315.0, -2096985.0 ], [ 582315.0, -2097015.0 ], [ 582375.0, -2097015.0 ], [ 582375.0, -2097045.0 ], [ 582465.0, -2097045.0 ], [ 582465.0, -2097075.0 ], [ 582495.0, -2097075.0 ], [ 582495.0, -2097105.0 ], [ 582645.0, -2097105.0 ], [ 582645.0, -2097135.0 ], [ 582705.0, -2097135.0 ], [ 582705.0, -2097165.0 ], [ 582795.0, -2097165.0 ], [ 582795.0, -2097195.0 ], [ 582855.0, -2097195.0 ], [ 582855.0, -2097225.0 ], [ 582975.0, -2097225.0 ], [ 582975.0, -2097255.0 ], [ 583035.0, -2097255.0 ], [ 583035.0, -2097225.0 ], [ 583155.0, -2097225.0 ], [ 583155.0, -2097285.0 ], [ 583215.0, -2097285.0 ], [ 583215.0, -2097225.0 ], [ 583275.0, -2097225.0 ], [ 583275.0, -2097255.0 ], [ 583305.0, -2097255.0 ], [ 583305.0, -2097315.0 ], [ 583335.0, -2097315.0 ], [ 583335.0, -2097435.0 ], [ 583395.0, -2097435.0 ], [ 583395.0, -2097465.0 ], [ 583545.0, -2097465.0 ], [ 583545.0, -2097495.0 ], [ 583605.0, -2097495.0 ], [ 583605.0, -2097465.0 ], [ 583575.0, -2097465.0 ], [ 583575.0, -2097405.0 ], [ 583545.0, -2097405.0 ], [ 583545.0, -2097315.0 ], [ 583695.0, -2097315.0 ], [ 583695.0, -2097345.0 ], [ 583785.0, -2097345.0 ], [ 583785.0, -2097315.0 ], [ 583875.0, -2097315.0 ], [ 583875.0, -2097345.0 ], [ 583965.0, -2097345.0 ], [ 583965.0, -2097375.0 ], [ 584025.0, -2097375.0 ], [ 584025.0, -2097405.0 ], [ 584055.0, -2097405.0 ], [ 584055.0, -2097555.0 ], [ 584115.0, -2097555.0 ], [ 584115.0, -2097585.0 ], [ 584175.0, -2097585.0 ], [ 584175.0, -2097615.0 ], [ 584235.0, -2097615.0 ], [ 584235.0, -2097675.0 ], [ 584265.0, -2097675.0 ], [ 584265.0, -2097705.0 ], [ 584415.0, -2097705.0 ], [ 584415.0, -2097735.0 ], [ 584445.0, -2097735.0 ], [ 584445.0, -2097765.0 ], [ 584535.0, -2097765.0 ], [ 584535.0, -2097795.0 ], [ 584565.0, -2097795.0 ], [ 584565.0, -2097825.0 ], [ 584595.0, -2097825.0 ], [ 584595.0, -2097855.0 ], [ 584625.0, -2097855.0 ], [ 584625.0, -2097885.0 ], [ 584655.0, -2097885.0 ], [ 584655.0, -2097915.0 ], [ 584685.0, -2097915.0 ], [ 584685.0, -2097975.0 ], [ 584775.0, -2097975.0 ], [ 584775.0, -2098005.0 ], [ 584895.0, -2098005.0 ], [ 584895.0, -2098035.0 ], [ 585075.0, -2098035.0 ], [ 585075.0, -2098065.0 ], [ 585195.0, -2098065.0 ], [ 585195.0, -2098095.0 ], [ 585315.0, -2098095.0 ], [ 585315.0, -2098065.0 ], [ 585345.0, -2098065.0 ], [ 585345.0, -2098095.0 ], [ 585795.0, -2098095.0 ], [ 585795.0, -2098065.0 ], [ 585885.0, -2098065.0 ], [ 585885.0, -2098035.0 ], [ 585945.0, -2098035.0 ], [ 585945.0, -2098065.0 ], [ 586005.0, -2098065.0 ], [ 586005.0, -2098035.0 ], [ 586065.0, -2098035.0 ], [ 586065.0, -2098005.0 ], [ 586125.0, -2098005.0 ], [ 586125.0, -2097975.0 ], [ 586155.0, -2097975.0 ], [ 586155.0, -2098005.0 ], [ 586185.0, -2098005.0 ], [ 586185.0, -2098035.0 ], [ 586215.0, -2098035.0 ], [ 586215.0, -2098095.0 ], [ 586245.0, -2098095.0 ], [ 586245.0, -2098125.0 ], [ 586275.0, -2098125.0 ], [ 586275.0, -2098095.0 ], [ 586305.0, -2098095.0 ], [ 586305.0, -2098125.0 ], [ 586395.0, -2098125.0 ], [ 586395.0, -2098095.0 ], [ 586485.0, -2098095.0 ], [ 586485.0, -2098125.0 ], [ 586575.0, -2098125.0 ], [ 586575.0, -2098155.0 ], [ 586695.0, -2098155.0 ], [ 586695.0, -2098185.0 ], [ 586725.0, -2098185.0 ], [ 586725.0, -2098215.0 ], [ 586755.0, -2098215.0 ], [ 586755.0, -2098245.0 ], [ 586785.0, -2098245.0 ], [ 586785.0, -2098305.0 ], [ 586845.0, -2098305.0 ], [ 586845.0, -2098365.0 ], [ 586875.0, -2098365.0 ], [ 586875.0, -2098395.0 ], [ 586905.0, -2098395.0 ], [ 586905.0, -2098455.0 ], [ 586935.0, -2098455.0 ], [ 586935.0, -2098485.0 ], [ 586965.0, -2098485.0 ], [ 586965.0, -2098515.0 ], [ 586995.0, -2098515.0 ], [ 586995.0, -2098545.0 ], [ 587025.0, -2098545.0 ], [ 587025.0, -2098605.0 ], [ 587055.0, -2098605.0 ], [ 587055.0, -2098635.0 ], [ 587085.0, -2098635.0 ], [ 587085.0, -2098665.0 ], [ 587115.0, -2098665.0 ], [ 587115.0, -2098725.0 ], [ 587145.0, -2098725.0 ], [ 587145.0, -2098755.0 ], [ 587175.0, -2098755.0 ], [ 587175.0, -2098785.0 ], [ 587205.0, -2098785.0 ], [ 587205.0, -2098845.0 ], [ 587235.0, -2098845.0 ], [ 587235.0, -2098905.0 ], [ 587265.0, -2098905.0 ], [ 587265.0, -2098935.0 ], [ 587295.0, -2098935.0 ], [ 587295.0, -2098995.0 ], [ 587325.0, -2098995.0 ], [ 587325.0, -2099025.0 ], [ 587355.0, -2099025.0 ], [ 587355.0, -2099085.0 ], [ 587385.0, -2099085.0 ], [ 587385.0, -2099115.0 ], [ 587415.0, -2099115.0 ], [ 587415.0, -2099145.0 ], [ 587445.0, -2099145.0 ], [ 587445.0, -2099175.0 ], [ 587475.0, -2099175.0 ], [ 587475.0, -2099205.0 ], [ 587505.0, -2099205.0 ], [ 587505.0, -2099235.0 ], [ 587535.0, -2099235.0 ], [ 587535.0, -2099265.0 ], [ 587565.0, -2099265.0 ], [ 587565.0, -2099295.0 ], [ 587595.0, -2099295.0 ], [ 587595.0, -2099325.0 ], [ 587655.0, -2099325.0 ], [ 587655.0, -2099355.0 ], [ 587685.0, -2099355.0 ], [ 587685.0, -2099325.0 ], [ 587745.0, -2099325.0 ], [ 587745.0, -2099355.0 ], [ 587775.0, -2099355.0 ], [ 587775.0, -2099325.0 ], [ 587865.0, -2099325.0 ], [ 587865.0, -2099355.0 ], [ 587895.0, -2099355.0 ], [ 587895.0, -2099325.0 ], [ 587955.0, -2099325.0 ], [ 587955.0, -2099355.0 ], [ 588285.0, -2099355.0 ], [ 588285.0, -2099295.0 ], [ 588315.0, -2099295.0 ], [ 588315.0, -2099325.0 ], [ 588405.0, -2099325.0 ], [ 588405.0, -2099295.0 ], [ 588435.0, -2099295.0 ], [ 588435.0, -2099265.0 ], [ 588405.0, -2099265.0 ], [ 588405.0, -2099235.0 ], [ 588435.0, -2099235.0 ], [ 588435.0, -2099205.0 ], [ 588465.0, -2099205.0 ], [ 588465.0, -2099235.0 ], [ 588525.0, -2099235.0 ], [ 588525.0, -2099295.0 ], [ 588555.0, -2099295.0 ], [ 588555.0, -2099325.0 ], [ 588585.0, -2099325.0 ], [ 588585.0, -2099235.0 ], [ 588615.0, -2099235.0 ], [ 588615.0, -2099205.0 ], [ 588555.0, -2099205.0 ], [ 588555.0, -2099175.0 ], [ 588525.0, -2099175.0 ], [ 588525.0, -2099145.0 ], [ 588405.0, -2099145.0 ], [ 588405.0, -2099115.0 ], [ 588375.0, -2099115.0 ], [ 588375.0, -2099145.0 ], [ 588345.0, -2099145.0 ], [ 588345.0, -2099115.0 ], [ 588255.0, -2099115.0 ], [ 588255.0, -2099085.0 ], [ 588075.0, -2099085.0 ], [ 588075.0, -2099055.0 ], [ 587895.0, -2099055.0 ], [ 587895.0, -2099025.0 ], [ 587655.0, -2099025.0 ], [ 587655.0, -2098995.0 ], [ 587625.0, -2098995.0 ], [ 587625.0, -2098965.0 ], [ 587595.0, -2098965.0 ], [ 587595.0, -2098935.0 ], [ 587565.0, -2098935.0 ], [ 587565.0, -2098875.0 ], [ 587535.0, -2098875.0 ], [ 587535.0, -2098845.0 ], [ 587505.0, -2098845.0 ], [ 587505.0, -2098785.0 ], [ 587475.0, -2098785.0 ], [ 587475.0, -2098725.0 ], [ 587445.0, -2098725.0 ], [ 587445.0, -2098695.0 ], [ 587415.0, -2098695.0 ], [ 587415.0, -2098605.0 ], [ 587385.0, -2098605.0 ], [ 587385.0, -2098515.0 ], [ 587355.0, -2098515.0 ], [ 587355.0, -2098455.0 ], [ 587325.0, -2098455.0 ], [ 587325.0, -2098395.0 ], [ 587295.0, -2098395.0 ], [ 587295.0, -2098335.0 ], [ 587235.0, -2098335.0 ], [ 587235.0, -2098275.0 ], [ 587205.0, -2098275.0 ], [ 587205.0, -2098245.0 ], [ 587175.0, -2098245.0 ], [ 587175.0, -2098185.0 ], [ 587145.0, -2098185.0 ], [ 587145.0, -2098125.0 ], [ 587115.0, -2098125.0 ], [ 587115.0, -2098065.0 ], [ 587055.0, -2098065.0 ], [ 587055.0, -2098035.0 ], [ 587025.0, -2098035.0 ], [ 587025.0, -2098005.0 ], [ 586995.0, -2098005.0 ], [ 586995.0, -2097975.0 ], [ 586965.0, -2097975.0 ], [ 586965.0, -2097945.0 ], [ 586935.0, -2097945.0 ], [ 586935.0, -2097915.0 ], [ 586875.0, -2097915.0 ], [ 586875.0, -2097885.0 ], [ 586845.0, -2097885.0 ], [ 586845.0, -2097855.0 ], [ 586785.0, -2097855.0 ], [ 586785.0, -2097825.0 ], [ 586725.0, -2097825.0 ], [ 586725.0, -2097795.0 ], [ 586665.0, -2097795.0 ], [ 586665.0, -2097765.0 ], [ 586575.0, -2097765.0 ], [ 586575.0, -2097735.0 ], [ 586545.0, -2097735.0 ], [ 586545.0, -2097705.0 ], [ 586005.0, -2097705.0 ], [ 586005.0, -2097735.0 ], [ 585945.0, -2097735.0 ], [ 585945.0, -2097705.0 ], [ 585885.0, -2097705.0 ], [ 585885.0, -2097735.0 ], [ 585795.0, -2097735.0 ], [ 585795.0, -2097705.0 ], [ 585705.0, -2097705.0 ], [ 585705.0, -2097735.0 ], [ 585675.0, -2097735.0 ], [ 585675.0, -2097705.0 ], [ 585495.0, -2097705.0 ], [ 585495.0, -2097675.0 ], [ 585405.0, -2097675.0 ], [ 585405.0, -2097705.0 ], [ 585255.0, -2097705.0 ], [ 585255.0, -2097675.0 ], [ 585225.0, -2097675.0 ], [ 585225.0, -2097645.0 ], [ 585195.0, -2097645.0 ], [ 585195.0, -2097615.0 ], [ 585135.0, -2097615.0 ], [ 585135.0, -2097585.0 ], [ 585105.0, -2097585.0 ], [ 585105.0, -2097615.0 ], [ 585075.0, -2097615.0 ], [ 585075.0, -2097645.0 ], [ 585045.0, -2097645.0 ], [ 585045.0, -2097675.0 ], [ 584985.0, -2097675.0 ], [ 584985.0, -2097645.0 ], [ 584955.0, -2097645.0 ], [ 584955.0, -2097615.0 ], [ 584925.0, -2097615.0 ], [ 584925.0, -2097585.0 ], [ 584895.0, -2097585.0 ], [ 584895.0, -2097555.0 ], [ 584865.0, -2097555.0 ], [ 584865.0, -2097525.0 ], [ 584895.0, -2097525.0 ], [ 584895.0, -2097495.0 ], [ 584865.0, -2097495.0 ], [ 584865.0, -2097465.0 ], [ 584805.0, -2097465.0 ], [ 584805.0, -2097435.0 ], [ 584715.0, -2097435.0 ], [ 584715.0, -2097405.0 ], [ 584655.0, -2097405.0 ], [ 584655.0, -2097375.0 ], [ 584595.0, -2097375.0 ], [ 584595.0, -2097345.0 ], [ 584565.0, -2097345.0 ], [ 584565.0, -2097315.0 ], [ 584535.0, -2097315.0 ], [ 584535.0, -2097285.0 ], [ 584475.0, -2097285.0 ], [ 584475.0, -2097255.0 ], [ 584415.0, -2097255.0 ], [ 584415.0, -2097225.0 ], [ 584355.0, -2097225.0 ], [ 584355.0, -2097195.0 ], [ 584295.0, -2097195.0 ], [ 584295.0, -2097165.0 ], [ 584235.0, -2097165.0 ], [ 584235.0, -2097135.0 ], [ 584205.0, -2097135.0 ], [ 584205.0, -2097105.0 ], [ 584115.0, -2097105.0 ], [ 584115.0, -2097075.0 ], [ 584025.0, -2097075.0 ], [ 584025.0, -2097045.0 ], [ 583905.0, -2097045.0 ], [ 583905.0, -2097015.0 ], [ 583785.0, -2097015.0 ], [ 583785.0, -2096985.0 ], [ 583725.0, -2096985.0 ], [ 583725.0, -2096955.0 ], [ 583575.0, -2096955.0 ], [ 583575.0, -2096925.0 ], [ 583485.0, -2096925.0 ], [ 583485.0, -2096895.0 ], [ 583395.0, -2096895.0 ], [ 583395.0, -2096865.0 ], [ 583275.0, -2096865.0 ], [ 583275.0, -2096835.0 ], [ 583215.0, -2096835.0 ], [ 583215.0, -2096805.0 ], [ 583185.0, -2096805.0 ], [ 583185.0, -2096835.0 ], [ 583155.0, -2096835.0 ], [ 583155.0, -2096805.0 ], [ 583095.0, -2096805.0 ], [ 583095.0, -2096775.0 ], [ 583035.0, -2096775.0 ], [ 583035.0, -2096745.0 ], [ 582945.0, -2096745.0 ], [ 582945.0, -2096715.0 ], [ 582915.0, -2096715.0 ], [ 582915.0, -2096685.0 ], [ 582825.0, -2096685.0 ], [ 582825.0, -2096655.0 ], [ 582795.0, -2096655.0 ], [ 582795.0, -2096685.0 ], [ 582765.0, -2096685.0 ], [ 582765.0, -2096625.0 ], [ 582705.0, -2096625.0 ], [ 582705.0, -2096595.0 ], [ 582645.0, -2096595.0 ], [ 582645.0, -2096535.0 ], [ 582615.0, -2096535.0 ], [ 582615.0, -2096505.0 ], [ 582585.0, -2096505.0 ], [ 582585.0, -2096475.0 ], [ 582525.0, -2096475.0 ], [ 582525.0, -2096445.0 ], [ 582465.0, -2096445.0 ], [ 582465.0, -2096415.0 ], [ 582435.0, -2096415.0 ], [ 582435.0, -2096385.0 ], [ 582375.0, -2096385.0 ], [ 582375.0, -2096355.0 ], [ 582315.0, -2096355.0 ], [ 582315.0, -2096325.0 ], [ 582285.0, -2096325.0 ], [ 582285.0, -2096295.0 ], [ 582195.0, -2096295.0 ], [ 582195.0, -2096265.0 ], [ 582165.0, -2096265.0 ], [ 582165.0, -2096235.0 ], [ 582105.0, -2096235.0 ], [ 582105.0, -2096205.0 ], [ 582045.0, -2096205.0 ], [ 582045.0, -2096175.0 ], [ 581985.0, -2096175.0 ], [ 581985.0, -2096145.0 ], [ 581955.0, -2096145.0 ], [ 581955.0, -2096115.0 ], [ 581895.0, -2096115.0 ], [ 581895.0, -2096055.0 ], [ 581835.0, -2096055.0 ] ], [ [ 583155.0, -2097195.0 ], [ 583185.0, -2097195.0 ], [ 583185.0, -2097225.0 ], [ 583155.0, -2097225.0 ], [ 583155.0, -2097195.0 ] ] ] } },
{ "type": "Feature", "properties": { "fid": 68, "DN": 1 }, "geometry": { "type": "Polygon", "coordinates": [ [ [ 588585.0, -2099325.0 ], [ 588585.0, -2099355.0 ], [ 588615.0, -2099355.0 ], [ 588615.0, -2099325.0 ], [ 588585.0, -2099325.0 ] ] ] } },
{ "type": "Feature", "properties": { "fid": 69, "DN": 1 }, "geometry": { "type": "Polygon", "coordinates": [ [ [ 589065.0, -2099325.0 ], [ 589065.0, -2099355.0 ], [ 589035.0, -2099355.0 ], [ 589035.0, -2099385.0 ], [ 589095.0, -2099385.0 ], [ 589095.0, -2099325.0 ], [ 589065.0, -2099325.0 ] ] ] } },
{ "type": "Feature", "properties": { "fid": 70, "DN": 1 }, "geometry": { "type": "Polygon", "coordinates": [ [ [ 589005.0, -2099385.0 ], [ 589005.0, -2099415.0 ], [ 589035.0, -2099415.0 ], [ 589035.0, -2099385.0 ], [ 589005.0, -2099385.0 ] ] ] } },
{ "type": "Feature", "properties": { "fid": 71, "DN": 1 }, "geometry": { "type": "Polygon", "coordinates": [ [ [ 589215.0, -2099355.0 ], [ 589215.0, -2099445.0 ], [ 589245.0, -2099445.0 ], [ 589245.0, -2099415.0 ], [ 589275.0, -2099415.0 ], [ 589275.0, -2099355.0 ], [ 589215.0, -2099355.0 ] ] ] } },
{ "type": "Feature", "properties": { "fid": 72, "DN": 1 }, "geometry": { "type": "Polygon", "coordinates": [ [ [ 589305.0, -2099355.0 ], [ 589305.0, -2099415.0 ], [ 589335.0, -2099415.0 ], [ 589335.0, -2099445.0 ], [ 589425.0, -2099445.0 ], [ 589425.0, -2099475.0 ], [ 589485.0, -2099475.0 ], [ 589485.0, -2099415.0 ], [ 589455.0, -2099415.0 ], [ 589455.0, -2099385.0 ], [ 589335.0, -2099385.0 ], [ 589335.0, -2099355.0 ], [ 589305.0, -2099355.0 ] ] ] } },
{ "type": "Feature", "properties": { "fid": 73, "DN": 1 }, "geometry": { "type": "Polygon", "coordinates": [ [ [ 589785.0, -2099475.0 ], [ 589785.0, -2099505.0 ], [ 589845.0, -2099505.0 ], [ 589845.0, -2099475.0 ], [ 589785.0, -2099475.0 ] ] ] } },
{ "type": "Feature", "properties": { "fid": 74, "DN": 1 }, "geometry": { "type": "Polygon", "coordinates": [ [ [ 589545.0, -2099445.0 ], [ 589545.0, -2099475.0 ], [ 589575.0, -2099475.0 ], [ 589575.0, -2099505.0 ], [ 589605.0, -2099505.0 ], [ 589605.0, -2099535.0 ], [ 589635.0, -2099535.0 ], [ 589635.0, -2099475.0 ], [ 589605.0, -2099475.0 ], [ 589605.0, -2099445.0 ], [ 589545.0, -2099445.0 ] ] ] } },
{ "type": "Feature", "properties": { "fid": 75, "DN": 1 }, "geometry": { "type": "Polygon", "coordinates": [ [ [ 589725.0, -2099475.0 ], [ 589725.0, -2099535.0 ], [ 589755.0, -2099535.0 ], [ 589755.0, -2099475.0 ], [ 589725.0, -2099475.0 ] ] ] } },
{ "type": "Feature", "properties": { "fid": 76, "DN": 1 }, "geometry": { "type": "Polygon", "coordinates": [ [ [ 589995.0, -2099565.0 ], [ 589995.0, -2099595.0 ], [ 590025.0, -2099595.0 ], [ 590025.0, -2099565.0 ], [ 589995.0, -2099565.0 ] ] ] } },
{ "type": "Feature", "properties": { "fid": 77, "DN": 1 }, "geometry": { "type": "Polygon", "coordinates": [ [ [ 590145.0, -2099625.0 ], [ 590145.0, -2099655.0 ], [ 590175.0, -2099655.0 ], [ 590175.0, -2099625.0 ], [ 590145.0, -2099625.0 ] ] ] } },
{ "type": "Feature", "properties": { "fid": 78, "DN": 1 }, "geometry": { "type": "Polygon", "coordinates": [ [ [ 590205.0, -2099655.0 ], [ 590205.0, -2099685.0 ], [ 590415.0, -2099685.0 ], [ 590415.0, -2099715.0 ], [ 590475.0, -2099715.0 ], [ 590475.0, -2099685.0 ], [ 590535.0, -2099685.0 ], [ 590535.0, -2099745.0 ], [ 590685.0, -2099745.0 ], [ 590685.0, -2099715.0 ], [ 590745.0, -2099715.0 ], [ 590745.0, -2099685.0 ], [ 590655.0, -2099685.0 ], [ 590655.0, -2099655.0 ], [ 590205.0, -2099655.0 ] ] ] } },
{ "type": "Feature", "properties": { "fid": 79, "DN": 1 }, "geometry": { "type": "Polygon", "coordinates": [ [ [ 590265.0, -2099955.0 ], [ 590265.0, -2100045.0 ], [ 590295.0, -2100045.0 ], [ 590295.0, -2099955.0 ], [ 590265.0, -2099955.0 ] ] ] } },
{ "type": "Feature", "properties": { "fid": 81, "DN": 1 }, "geometry": { "type": "Polygon", "coordinates": [ [ [ 628215.0, -2104575.0 ], [ 628215.0, -2104605.0 ], [ 628185.0, -2104605.0 ], [ 628185.0, -2104665.0 ], [ 628155.0, -2104665.0 ], [ 628155.0, -2104785.0 ], [ 628185.0, -2104785.0 ], [ 628185.0, -2104845.0 ], [ 628215.0, -2104845.0 ], [ 628215.0, -2104905.0 ], [ 628275.0, -2104905.0 ], [ 628275.0, -2104935.0 ], [ 628335.0, -2104935.0 ], [ 628335.0, -2104965.0 ], [ 628545.0, -2104965.0 ], [ 628545.0, -2104995.0 ], [ 628575.0, -2104995.0 ], [ 628575.0, -2105025.0 ], [ 628695.0, -2105025.0 ], [ 628695.0, -2105055.0 ], [ 628845.0, -2105055.0 ], [ 628845.0, -2105085.0 ], [ 628905.0, -2105085.0 ], [ 628905.0, -2105115.0 ], [ 628965.0, -2105115.0 ], [ 628965.0, -2105145.0 ], [ 629025.0, -2105145.0 ], [ 629025.0, -2105175.0 ], [ 629085.0, -2105175.0 ], [ 629085.0, -2105205.0 ], [ 629115.0, -2105205.0 ], [ 629115.0, -2105235.0 ], [ 629175.0, -2105235.0 ], [ 629175.0, -2105265.0 ], [ 629235.0, -2105265.0 ], [ 629235.0, -2105295.0 ], [ 629355.0, -2105295.0 ], [ 629355.0, -2105265.0 ], [ 629415.0, -2105265.0 ], [ 629415.0, -2105295.0 ], [ 629445.0, -2105295.0 ], [ 629445.0, -2105265.0 ], [ 629505.0, -2105265.0 ], [ 629505.0, -2105295.0 ], [ 629565.0, -2105295.0 ], [ 629565.0, -2105355.0 ], [ 629595.0, -2105355.0 ], [ 629595.0, -2105385.0 ], [ 629685.0, -2105385.0 ], [ 629685.0, -2105415.0 ], [ 629805.0, -2105415.0 ], [ 629805.0, -2105385.0 ], [ 629835.0, -2105385.0 ], [ 629835.0, -2105325.0 ], [ 629805.0, -2105325.0 ], [ 629805.0, -2105295.0 ], [ 629775.0, -2105295.0 ], [ 629775.0, -2105265.0 ], [ 629865.0, -2105265.0 ], [ 629865.0, -2105295.0 ], [ 629895.0, -2105295.0 ], [ 629895.0, -2105265.0 ], [ 629925.0, -2105265.0 ], [ 629925.0, -2105175.0 ], [ 629805.0, -2105175.0 ], [ 629805.0, -2105145.0 ], [ 629655.0, -2105145.0 ], [ 629655.0, -2105115.0 ], [ 629565.0, -2105115.0 ], [ 629565.0, -2105085.0 ], [ 629445.0, -2105085.0 ], [ 629445.0, -2105055.0 ], [ 629295.0, -2105055.0 ], [ 629295.0, -2105025.0 ], [ 629265.0, -2105025.0 ], [ 629265.0, -2104995.0 ], [ 629235.0, -2104995.0 ], [ 629235.0, -2104965.0 ], [ 629205.0, -2104965.0 ], [ 629205.0, -2104935.0 ], [ 629175.0, -2104935.0 ], [ 629175.0, -2104905.0 ], [ 629115.0, -2104905.0 ], [ 629115.0, -2104875.0 ], [ 629055.0, -2104875.0 ], [ 629055.0, -2104905.0 ], [ 629025.0, -2104905.0 ], [ 629025.0, -2104875.0 ], [ 628845.0, -2104875.0 ], [ 628845.0, -2104845.0 ], [ 628815.0, -2104845.0 ], [ 628815.0, -2104815.0 ], [ 628785.0, -2104815.0 ], [ 628785.0, -2104785.0 ], [ 628665.0, -2104785.0 ], [ 628665.0, -2104755.0 ], [ 628575.0, -2104755.0 ], [ 628575.0, -2104725.0 ], [ 628515.0, -2104725.0 ], [ 628515.0, -2104695.0 ], [ 628485.0, -2104695.0 ], [ 628485.0, -2104665.0 ], [ 628425.0, -2104665.0 ], [ 628425.0, -2104635.0 ], [ 628395.0, -2104635.0 ], [ 628395.0, -2104605.0 ], [ 628275.0, -2104605.0 ], [ 628275.0, -2104575.0 ], [ 628215.0, -2104575.0 ] ], [ [ 628335.0, -2104785.0 ], [ 628365.0, -2104785.0 ], [ 628365.0, -2104815.0 ], [ 628395.0, -2104815.0 ], [ 628395.0, -2104875.0 ], [ 628335.0, -2104875.0 ], [ 628335.0, -2104785.0 ] ] ] } }
]
}
