{
"type": "FeatureCollection",
"name": "ROADS",
"crs": { "type": "name", "properties": { "name": "urn:ogc:def:crs:OGC:1.3:CRS84" } },
"features": [
{ "type": "Feature", "properties": { "OBJECTID": 1, "MED_DESCRI": "Without Median", "RTT_DESCRI": "Secondary Route", "F_CODE_DES": "Road", "ISO": "ZWE", "ISOCOUNTRY": "ZIMBABWE", "Shape_Leng": 0.03595650189 }, "geometry": { "type": "MultiLineString", "coordinates": [ [ [ 27.96686746396233, -18.362571772269405 ], [ 27.969678839107189, -18.361059205218112 ], [ 27.99154670541617, -18.359741119257194 ], [ 28.000764802253855, -18.354421525033331 ], [ 28.000978315696784, -18.354427671000167 ] ] ] } },
{ "type": "Feature", "properties": { "OBJECTID": 2, "MED_DESCRI": "Without Median", "RTT_DESCRI": "Secondary Route", "F_CODE_DES": "Road", "ISO": "ZWE", "ISOCOUNTRY": "ZIMBABWE", "Shape_Leng": 0.11257910104 }, "geometry": { "type": "MultiLineString", "coordinates": [ [ [ 27.96686746396233, -18.362571772269405 ], [ 27.973422929024991, -18.327403975213258 ], [ 27.970434271424551, -18.316690509959017 ], [ 27.964502318027598, -18.304222180509157 ], [ 27.959745376547914, -18.298385671261656 ], [ 27.956815687494043, -18.289506829276718 ], [ 27.935821567411438, -18.272415181415454 ], [ 27.932535570560162, -18.2652039765822 ] ] ] } },
{ "type": "Feature", "properties": { "OBJECTID": 3, "MED_DESCRI": "Without Median", "RTT_DESCRI": "Secondary Route", "F_CODE_DES": "Road", "ISO": "ZWE", "ISOCOUNTRY": "ZIMBABWE", "Shape_Leng": 0.24926352943 }, "geometry": { "type": "MultiLineString", "coordinates": [ [ [ 27.723583262457623, -18.409971270957328 ], [ 27.854364457753547, -18.390419032112618 ], [ 27.932678309156699, -18.378660208401868 ], [ 27.950742740185376, -18.371251974698851 ], [ 27.96686746396233, -18.362571772269405 ] ] ] } },
{ "type": "Feature", "properties": { "OBJECTID": 4, "MED_DESCRI": "Without Median", "RTT_DESCRI": "Secondary Route", "F_CODE_DES": "Road", "ISO": "ZWE", "ISOCOUNTRY": "ZIMBABWE", "Shape_Leng": 0.00485041165 }, "geometry": { "type": "MultiLineString", "coordinates": [ [ [ 27.723583262457623, -18.409971270957328 ], [ 27.720977595539637, -18.40588018392333 ] ] ] } },
{ "type": "Feature", "properties": { "OBJECTID": 5, "MED_DESCRI": "Without Median", "RTT_DESCRI": "Secondary Route", "F_CODE_DES": "Road", "ISO": "ZWE", "ISOCOUNTRY": "ZIMBABWE", "Shape_Leng": 0.04817128282 }, "geometry": { "type": "MultiLineString", "coordinates": [ [ [ 27.521079968465813, -18.435798687659258 ], [ 27.528900221168328, -18.419784529232572 ], [ 27.545262928941042, -18.394223529492251 ] ] ] } },
{ "type": "Feature", "properties": { "OBJECTID": 6, "MED_DESCRI": "Without Median", "RTT_DESCRI": "Secondary Route", "F_CODE_DES": "Road", "ISO": "ZWE", "ISOCOUNTRY": "ZIMBABWE", "Shape_Leng": 0.20499075763 }, "geometry": { "type": "MultiLineString", "coordinates": [ [ [ 27.723583262457623, -18.409971270957328 ], [ 27.592834385198785, -18.429805687382498 ], [ 27.579826271864988, -18.431774121678302 ], [ 27.52242281366199, -18.437187270576032 ], [ 27.521079968465813, -18.435798687659258 ] ] ] } },
{ "type": "Feature", "properties": { "OBJECTID": 7, "MED_DESCRI": "Without Median", "RTT_DESCRI": "Secondary Route", "F_CODE_DES": "Road", "ISO": "ZWE", "ISOCOUNTRY": "ZIMBABWE", "Shape_Leng": 0.03899996793 }, "geometry": { "type": "MultiLineString", "coordinates": [ [ [ 27.341499620910838, -18.433452152294933 ], [ 27.362552627701632, -18.413257603255715 ], [ 27.365436579034963, -18.404453226934834 ], [ 27.36528300900369, -18.403912044605136 ] ] ] } },
{ "type": "Feature", "properties": { "OBJECTID": 8, "MED_DESCRI": "Without Median", "RTT_DESCRI": "Secondary Route", "F_CODE_DES": "Road", "ISO": "ZWE", "ISOCOUNTRY": "ZIMBABWE", "Shape_Leng": 0.03252872078 }, "geometry": { "type": "MultiLineString", "coordinates": [ [ [ 27.494195348336689, -18.446174850488887 ], [ 27.498599930942135, -18.446310112121921 ], [ 27.515674568126883, -18.445405936434781 ], [ 27.521079968465813, -18.435798687659258 ] ] ] } },
{ "type": "Feature", "properties": { "OBJECTID": 9, "MED_DESCRI": "Without Median", "RTT_DESCRI": "Secondary Route", "F_CODE_DES": "Road", "ISO": "ZWE", "ISOCOUNTRY": "ZIMBABWE", "Shape_Leng": 0.08665172901 }, "geometry": { "type": "MultiLineString", "coordinates": [ [ [ 27.744577382540228, -18.493244103732366 ], [ 27.733125682704156, -18.427883178765626 ], [ 27.723583262457623, -18.409971270957328 ] ] ] } },
{ "type": "Feature", "properties": { "OBJECTID": 10, "MED_DESCRI": "Without Median", "RTT_DESCRI": "Secondary Route", "F_CODE_DES": "Road", "ISO": "ZWE", "ISOCOUNTRY": "ZIMBABWE", "Shape_Leng": 0.25797078314 }, "geometry": { "type": "MultiLineString", "coordinates": [ [ [ 27.744577382540228, -18.493244103732366 ], [ 27.857545894927171, -18.509920140701865 ], [ 27.875629414965601, -18.508529668309507 ], [ 27.923412394466482, -18.504846625271512 ], [ 28.001128765979843, -18.504965839401905 ] ] ] } },
{ "type": "Feature", "properties": { "OBJECTID": 11, "MED_DESCRI": "Without Median", "RTT_DESCRI": "Secondary Route", "F_CODE_DES": "Road", "ISO": "ZWE", "ISOCOUNTRY": "ZIMBABWE", "Shape_Leng": 0.06170172616 }, "geometry": { "type": "MultiLineString", "coordinates": [ [ [ 27.740753155833545, -18.549550983491031 ], [ 27.740173304454515, -18.540971706578944 ], [ 27.732439045825345, -18.516366930789161 ], [ 27.733764692386671, -18.512424391072727 ], [ 27.742662434523766, -18.503910129748647 ], [ 27.744577382540228, -18.493244103732366 ] ] ] } },
{ "type": "Feature", "properties": { "OBJECTID": 12, "MED_DESCRI": "Without Median", "RTT_DESCRI": "Secondary Route", "F_CODE_DES": "Road", "ISO": "ZWE", "ISOCOUNTRY": "ZIMBABWE", "Shape_Leng": 0.1361456004 }, "geometry": { "type": "MultiLineString", "coordinates": [ [ [ 27.607189124478566, -18.571184112356832 ], [ 27.621919595113297, -18.568061832587432 ], [ 27.661645882951177, -18.566539815460089 ], [ 27.685497305656156, -18.55808452268252 ], [ 27.70466606278859, -18.554347992465807 ], [ 27.727510493014904, -18.552578007968634 ], [ 27.736970887896234, -18.550415091683078 ], [ 27.740753155833545, -18.549550983491031 ] ] ] } },
{ "type": "Feature", "properties": { "OBJECTID": 13, "MED_DESCRI": "Without Median", "RTT_DESCRI": "Secondary Route", "F_CODE_DES": "Road", "ISO": "ZWE", "ISOCOUNTRY": "ZIMBABWE", "Shape_Leng": 0.21323458106000001 }, "geometry": { "type": "MultiLineString", "coordinates": [ [ [ 27.607189124478566, -18.571184112356832 ], [ 27.596313497070298, -18.517272996851261 ], [ 27.610460336475398, -18.498514179485767 ], [ 27.616643849134391, -18.495822819767284 ], [ 27.660451969982489, -18.493864023505807 ], [ 27.680648887835957, -18.492956067968123 ], [ 27.744577382540228, -18.493244103732366 ] ] ] } },
{ "type": "Feature", "properties": { "OBJECTID": 14, "MED_DESCRI": "Without Median", "RTT_DESCRI": "Secondary Route", "F_CODE_DES": "Road", "ISO": "ZWE", "ISOCOUNTRY": "ZIMBABWE", "Shape_Leng": 0.00644022872 }, "geometry": { "type": "MultiLineString", "coordinates": [ [ [ 28.284419971504519, -18.576957684349622 ], [ 28.289680408324216, -18.575649237322409 ], [ 28.290695227602725, -18.575746886609465 ] ] ] } },
{ "type": "Feature", "properties": { "OBJECTID": 15, "MED_DESCRI": "Without Median", "RTT_DESCRI": "Secondary Route", "F_CODE_DES": "Road", "ISO": "ZWE", "ISOCOUNTRY": "ZIMBABWE", "Shape_Leng": 0.02399888766 }, "geometry": { "type": "MultiLineString", "coordinates": [ [ [ 28.266782679776895, -18.592121155167149 ], [ 28.279159533785503, -18.578266131376836 ], [ 28.284419971504519, -18.576957684349622 ] ] ] } },
{ "type": "Feature", "properties": { "OBJECTID": 16, "MED_DESCRI": "Without Median", "RTT_DESCRI": "Secondary Route", "F_CODE_DES": "Road", "ISO": "ZWE", "ISOCOUNTRY": "ZIMBABWE", "Shape_Leng": 0.02890794588 }, "geometry": { "type": "MultiLineString", "coordinates": [ [ [ 28.263664370514334, -18.564120819020559 ], [ 28.262067885924239, -18.579015705510358 ], [ 28.266782679776895, -18.592121155167149 ] ] ] } },
{ "type": "Feature", "properties": { "OBJECTID": 17, "MED_DESCRI": "Without Median", "RTT_DESCRI": "Secondary Route", "F_CODE_DES": "Road", "ISO": "ZWE", "ISOCOUNTRY": "ZIMBABWE", "Shape_Leng": 0.17670945404 }, "geometry": { "type": "MultiLineString", "coordinates": [ [ [ 28.105407676223308, -18.641832312611086 ], [ 28.115806645860062, -18.64037890296396 ], [ 28.138937032618003, -18.632341299411394 ], [ 28.210727736995523, -18.629972373626117 ], [ 28.233686512422651, -18.624227529576785 ], [ 28.235084545415475, -18.623048736909652 ], [ 28.251510534883323, -18.609210912653452 ], [ 28.266782679776895, -18.592121155167149 ] ] ] } },
{ "type": "Feature", "properties": { "OBJECTID": 18, "MED_DESCRI": "Without Median", "RTT_DESCRI": "Secondary Route", "F_CODE_DES": "Road", "ISO": "ZWE", "ISOCOUNTRY": "ZIMBABWE", "Shape_Leng": 0.41969193765000001 }, "geometry": { "type": "MultiLineString", "coordinates": [ [ [ 27.740753155833545, -18.549550983491031 ], [ 27.753402737346505, -18.54796413963328 ], [ 27.771291776294504, -18.549770412674377 ], [ 27.788795444054529, -18.554573091874659 ], [ 27.828456905162113, -18.574384638540209 ], [ 27.844707502549227, -18.577608033583829 ], [ 27.866865107039132, -18.576988302667985 ], [ 27.891916300896639, -18.57628446715438 ], [ 27.905767355079433, -18.579799677812844 ], [ 27.92288962035974, -18.587587422721356 ], [ 27.930116602898977, -18.587381412322259 ], [ 27.943897160125914, -18.581014570166246 ], [ 27.978590000028532, -18.580253655581714 ], [ 27.994785220761401, -18.575622588611509 ], [ 28.002716038814185, -18.573354778100509 ], [ 28.037887615720933, -18.572567025947421 ], [ 28.049123854182596, -18.577066359324988 ], [ 28.055322676900062, -18.582401262708061 ], [ 28.061834293717709, -18.58244133110253 ], [ 28.069646797861481, -18.578077320511909 ], [ 28.07423968681212, -18.578401644820019 ], [ 28.076503717472633, -18.581323584415827 ], [ 28.078834465238458, -18.593664150779887 ], [ 28.093923658350207, -18.612756741630278 ], [ 28.09614365280737, -18.618377601545035 ], [ 28.105407676223308, -18.641832312611086 ] ] ] } },
{ "type": "Feature", "properties": { "OBJECTID": 19, "MED_DESCRI": "Without Median", "RTT_DESCRI": "Secondary Route", "F_CODE_DES": "Road", "ISO": "ZWE", "ISOCOUNTRY": "ZIMBABWE", "Shape_Leng": 0.11205745835 }, "geometry": { "type": "MultiLineString", "coordinates": [ [ [ 27.579921716014439, -18.675498882167631 ], [ 27.588174779142776, -18.66638757082967 ], [ 27.593654645145818, -18.655902795977227 ], [ 27.594167780318855, -18.648765588261256 ], [ 27.590950055500684, -18.63782116541438 ], [ 27.590433140477103, -18.62841406885417 ], [ 27.595394201081547, -18.616792648062187 ], [ 27.59914207174927, -18.596702514809181 ], [ 27.603441254710162, -18.587165763888834 ], [ 27.607189124478566, -18.571184112356832 ] ] ] } },
{ "type": "Feature", "properties": { "OBJECTID": 20, "MED_DESCRI": "Without Median", "RTT_DESCRI": "Secondary Route", "F_CODE_DES": "Road", "ISO": "ZWE", "ISOCOUNTRY": "ZIMBABWE", "Shape_Leng": 0.02183355262 }, "geometry": { "type": "MultiLineString", "coordinates": [ [ [ 28.217107809977506, -18.698266956354928 ], [ 28.233013105470491, -18.683309496835761 ] ] ] } },
{ "type": "Feature", "properties": { "OBJECTID": 21, "MED_DESCRI": "Without Median", "RTT_DESCRI": "Secondary Route", "F_CODE_DES": "Road", "ISO": "ZWE", "ISOCOUNTRY": "ZIMBABWE", "Shape_Leng": 0.14975348757000001 }, "geometry": { "type": "MultiLineString", "coordinates": [ [ [ 28.284419971504519, -18.576957684349622 ], [ 28.287668313741733, -18.608802861462834 ], [ 28.301309577674942, -18.683998023190156 ], [ 28.308586077785321, -18.700613013279906 ], [ 28.312034572237792, -18.708490344154029 ], [ 28.322810650990789, -18.718315791840269 ] ] ] } },
{ "type": "Feature", "properties": { "OBJECTID": 22, "MED_DESCRI": "Without Median", "RTT_DESCRI": "Secondary Route", "F_CODE_DES": "Road", "ISO": "ZWE", "ISOCOUNTRY": "ZIMBABWE", "Shape_Leng": 0.1933615607 }, "geometry": { "type": "MultiLineString", "coordinates": [ [ [ 27.755682077166171, -18.739555329714676 ], [ 27.757602695408139, -18.709392630365528 ], [ 27.747114139805774, -18.65016362125408 ], [ 27.752822885068156, -18.639665616474986 ], [ 27.750442429974214, -18.616981458927114 ], [ 27.750185012528334, -18.615596844718539 ], [ 27.742368728534018, -18.573541698590475 ], [ 27.740753155833545, -18.549550983491031 ] ] ] } },
{ "type": "Feature", "properties": { "OBJECTID": 23, "MED_DESCRI": "Without Median", "RTT_DESCRI": "Secondary Route", "F_CODE_DES": "Road", "ISO": "ZWE", "ISOCOUNTRY": "ZIMBABWE", "Shape_Leng": 0.19079062045 }, "geometry": { "type": "MultiLineString", "coordinates": [ [ [ 27.755682077166171, -18.739555329714676 ], [ 27.728471746873652, -18.735237057743973 ], [ 27.710704802584644, -18.730205499284295 ], [ 27.684314732239159, -18.727241601818434 ], [ 27.655315328439713, -18.70963851940212 ], [ 27.631637597197425, -18.700490919520291 ], [ 27.617485088466083, -18.695024472301498 ], [ 27.59705362112777, -18.689361654516688 ], [ 27.583793570816681, -18.681440286539953 ], [ 27.579921716014439, -18.675498882167631 ] ] ] } },
{ "type": "Feature", "properties": { "OBJECTID": 24, "MED_DESCRI": "Without Median", "RTT_DESCRI": "Secondary Route", "F_CODE_DES": "Road", "ISO": "ZWE", "ISOCOUNTRY": "ZIMBABWE", "Shape_Leng": 0.14546646378 }, "geometry": { "type": "MultiLineString", "coordinates": [ [ [ 28.217107809977506, -18.698266956354928 ], [ 28.216608094488038, -18.704946594409762 ], [ 28.210220272047991, -18.715938645352139 ], [ 28.211616604422829, -18.721643421906379 ], [ 28.218175849336035, -18.730178850573452 ], [ 28.228816927259459, -18.738132537486592 ], [ 28.243484461538742, -18.743665701810642 ], [ 28.273387852167673, -18.742990404483521 ], [ 28.296999055162303, -18.734689713259627 ], [ 28.307725939200793, -18.733646433136357 ], [ 28.317686050470911, -18.73267932019445 ], [ 28.320525740770393, -18.728893901032677 ] ] ] } },
{ "type": "Feature", "properties": { "OBJECTID": 25, "MED_DESCRI": "Without Median", "RTT_DESCRI": "Secondary Route", "F_CODE_DES": "Road", "ISO": "ZWE", "ISOCOUNTRY": "ZIMBABWE", "Shape_Leng": 0.10518440009 }, "geometry": { "type": "MultiLineString", "coordinates": [ [ [ 27.547300316056806, -18.773393700358952 ], [ 27.553930247682842, -18.73255155620933 ], [ 27.56316951276284, -18.701976837860741 ], [ 27.568550153866568, -18.688045458930731 ], [ 27.579921716014439, -18.675498882167631 ] ] ] } },
{ "type": "Feature", "properties": { "OBJECTID": 26, "MED_DESCRI": "Without Median", "RTT_DESCRI": "Primary Route", "F_CODE_DES": "Road", "ISO": "ZWE", "ISOCOUNTRY": "ZIMBABWE", "Shape_Leng": 0.13077424711 }, "geometry": { "type": "MultiLineString", "coordinates": [ [ [ 27.422473527531338, -18.735206065307636 ], [ 27.464847554371204, -18.747734115137234 ], [ 27.489774764993456, -18.758581203459698 ], [ 27.512916491303088, -18.764541696841775 ], [ 27.547300316056806, -18.773393700358952 ] ] ] } },
{ "type": "Feature", "properties": { "OBJECTID": 27, "MED_DESCRI": "Without Median", "RTT_DESCRI": "Secondary Route", "F_CODE_DES": "Road", "ISO": "ZWE", "ISOCOUNTRY": "ZIMBABWE", "Shape_Leng": 0.13681886599000001 }, "geometry": { "type": "MultiLineString", "coordinates": [ [ [ 28.119127186570438, -18.778398420350754 ], [ 28.14364237639461, -18.767793630071935 ], [ 28.14397804025441, -18.756061644829003 ], [ 28.146644641636954, -18.749088300784422 ], [ 28.157924728343573, -18.747144624824557 ], [ 28.181396449186821, -18.734497122544099 ], [ 28.189146016075824, -18.72805978253291 ], [ 28.197244666508197, -18.710351994748692 ], [ 28.211250322244609, -18.701831874341508 ], [ 28.217107809977506, -18.698266956354928 ] ] ] } },
{ "type": "Feature", "properties": { "OBJECTID": 28, "MED_DESCRI": "Without Median", "RTT_DESCRI": "Secondary Route", "F_CODE_DES": "Road", "ISO": "ZWE", "ISOCOUNTRY": "ZIMBABWE", "Shape_Leng": 0.02844036385 }, "geometry": { "type": "MultiLineString", "coordinates": [ [ [ 28.092102076149956, -18.786087129217606 ], [ 28.105661314717963, -18.779943495196108 ], [ 28.119127186570438, -18.778398420350754 ] ] ] } },
{ "type": "Feature", "properties": { "OBJECTID": 29, "MED_DESCRI": "Without Median", "RTT_DESCRI": "Secondary Route", "F_CODE_DES": "Road", "ISO": "ZWE", "ISOCOUNTRY": "ZIMBABWE", "Shape_Leng": 0.15096809239 }, "geometry": { "type": "MultiLineString", "coordinates": [ [ [ 28.092102076149956, -18.786087129217606 ], [ 28.090265185689816, -18.774190902588032 ], [ 28.096797970749776, -18.730333263269415 ], [ 28.102773583534088, -18.721195302321291 ], [ 28.10445587244061, -18.698854368334366 ], [ 28.100479123412867, -18.68794056380591 ], [ 28.103485168505756, -18.676591869619017 ], [ 28.099889821058468, -18.663457881775798 ], [ 28.098554536462757, -18.65858073691146 ], [ 28.103324896726633, -18.642124128225873 ], [ 28.105407676223308, -18.641832312611086 ] ] ] } },
{ "type": "Feature", "properties": { "OBJECTID": 30, "MED_DESCRI": "Without Median", "RTT_DESCRI": "Secondary Route", "F_CODE_DES": "Road", "ISO": "ZWE", "ISOCOUNTRY": "ZIMBABWE", "Shape_Leng": 0.16697633537000001 }, "geometry": { "type": "MultiLineString", "coordinates": [ [ [ 27.898536592689652, -18.789060666516491 ], [ 27.898059934918138, -18.787298241720407 ], [ 27.874435501996857, -18.780609153589523 ], [ 27.837768556673609, -18.773591961299928 ], [ 27.830080036664413, -18.774725016246464 ], [ 27.82437129230135, -18.777410517781107 ], [ 27.811304020664068, -18.776393886368737 ], [ 27.795253763450489, -18.772472325137642 ], [ 27.773849512944707, -18.760372167341586 ], [ 27.770446757112211, -18.758447580391476 ], [ 27.754375520513918, -18.753833712056121 ], [ 27.755682077166171, -18.739555329714676 ] ] ] } },
{ "type": "Feature", "properties": { "OBJECTID": 31, "MED_DESCRI": "Without Median", "RTT_DESCRI": "Secondary Route", "F_CODE_DES": "Road", "ISO": "ZWE", "ISOCOUNTRY": "ZIMBABWE", "Shape_Leng": 0.02032755443 }, "geometry": { "type": "MultiLineString", "coordinates": [ [ [ 27.543365525798436, -18.793336791759486 ], [ 27.547300316056806, -18.773393700358952 ] ] ] } },
{ "type": "Feature", "properties": { "OBJECTID": 32, "MED_DESCRI": "Without Median", "RTT_DESCRI": "Secondary Route", "F_CODE_DES": "Road", "ISO": "ZWE", "ISOCOUNTRY": "ZIMBABWE", "Shape_Leng": 0.12549365923 }, "geometry": { "type": "MultiLineString", "coordinates": [ [ [ 27.425220555284454, -18.751949399445209 ], [ 27.439098384083195, -18.758735616155718 ], [ 27.497968670717626, -18.774913827111391 ], [ 27.513141590711882, -18.781072581434444 ], [ 27.543365525798436, -18.793336791759486 ] ] ] } },
{ "type": "Feature", "properties": { "OBJECTID": 33, "MED_DESCRI": "Without Median", "RTT_DESCRI": "Secondary Route", "F_CODE_DES": "Road", "ISO": "ZWE", "ISOCOUNTRY": "ZIMBABWE", "Shape_Leng": 0.2102468277 }, "geometry": { "type": "MultiLineString", "coordinates": [ [ [ 27.898536592689652, -18.789060666516491 ], [ 27.900981874513946, -18.788135511444636 ], [ 27.935360029941478, -18.798883373968465 ], [ 27.952089364332721, -18.801164604163091 ], [ 27.968410459575125, -18.805755603638147 ], [ 27.976604555056213, -18.805290285418266 ], [ 27.983005606523591, -18.801658650326431 ], [ 28.000898425322134, -18.802524647994062 ], [ 28.020273193752928, -18.796909269447156 ], [ 28.025634745846901, -18.79406349613339 ], [ 28.026681805820715, -18.793508591947898 ], [ 28.033704667436496, -18.794223767912513 ], [ 28.056364066648428, -18.808044393533862 ], [ 28.0623931666114, -18.807869001453184 ], [ 28.072427743545575, -18.797233593755323 ], [ 28.092102076149956, -18.786087129217606 ] ] ] } },
{ "type": "Feature", "properties": { "OBJECTID": 34, "MED_DESCRI": "Without Median", "RTT_DESCRI": "Secondary Route", "F_CODE_DES": "Road", "ISO": "ZWE", "ISOCOUNTRY": "ZIMBABWE", "Shape_Leng": 0.17068991405 }, "geometry": { "type": "MultiLineString", "coordinates": [ [ [ 28.13887031551269, -18.835865004666175 ], [ 28.271556819891373, -18.832460358458718 ], [ 28.30950355804282, -18.831467055460223 ] ] ] } },
{ "type": "Feature", "properties": { "OBJECTID": 35, "MED_DESCRI": "Without Median", "RTT_DESCRI": "Secondary Route", "F_CODE_DES": "Road", "ISO": "ZWE", "ISOCOUNTRY": "ZIMBABWE", "Shape_Leng": 0.0224177821 }, "geometry": { "type": "MultiLineString", "coordinates": [ [ [ 28.11678509835366, -18.839712099333894 ], [ 28.13887031551269, -18.835865004666175 ] ] ] } },
{ "type": "Feature", "properties": { "OBJECTID": 36, "MED_DESCRI": "Without Median", "RTT_DESCRI": "Secondary Route", "F_CODE_DES": "Road", "ISO": "ZWE", "ISOCOUNTRY": "ZIMBABWE", "Shape_Leng": 0.06338626269 }, "geometry": { "type": "MultiLineString", "coordinates": [ [ [ 28.11678509835366, -18.839712099333894 ], [ 28.114709878558074, -18.820356419912798 ], [ 28.110611035770717, -18.805767132047436 ], [ 28.111387258615139, -18.799999230280207 ], [ 28.119127186570438, -18.778398420350754 ] ] ] } },
{ "type": "Feature", "properties": { "OBJECTID": 37, "MED_DESCRI": "Without Median", "RTT_DESCRI": "Secondary Route", "F_CODE_DES": "Road", "ISO": "ZWE", "ISOCOUNTRY": "ZIMBABWE", "Shape_Leng": 0.0545674889 }, "geometry": { "type": "MultiLineString", "coordinates": [ [ [ 27.889081868033827, -18.839752166828987 ], [ 27.889698007956781, -18.836254155704694 ], [ 27.900180892434264, -18.821056287617523 ], [ 27.902067112507268, -18.808052142092663 ], [ 27.901592345110714, -18.800334894140008 ], [ 27.898536592689652, -18.789060666516491 ] ] ] } },
{ "type": "Feature", "properties": { "OBJECTID": 38, "MED_DESCRI": "Without Median", "RTT_DESCRI": "Secondary Route", "F_CODE_DES": "Road", "ISO": "ZWE", "ISOCOUNTRY": "ZIMBABWE", "Shape_Leng": 0.08053295816 }, "geometry": { "type": "MultiLineString", "coordinates": [ [ [ 27.967557880691686, -18.854728716257227 ], [ 27.920263277128583, -18.840677321900841 ], [ 27.889081868033827, -18.839752166828987 ] ] ] } },
{ "type": "Feature", "properties": { "OBJECTID": 39, "MED_DESCRI": "Without Median", "RTT_DESCRI": "Secondary Route", "F_CODE_DES": "Road", "ISO": "ZWE", "ISOCOUNTRY": "ZIMBABWE", "Shape_Leng": 0.1612137258 }, "geometry": { "type": "MultiLineString", "coordinates": [ [ [ 27.967557880691686, -18.854728716257227 ], [ 27.983503432537418, -18.854963264842752 ], [ 27.991603783587777, -18.851512880914697 ], [ 28.015775749851002, -18.829673742549119 ], [ 28.022764213297876, -18.829242633640604 ], [ 28.088163316284067, -18.845460912091369 ], [ 28.08995050031541, -18.845903361450951 ], [ 28.101018907296805, -18.844659741154089 ], [ 28.11678509835366, -18.839712099333894 ] ] ] } },
{ "type": "Feature", "properties": { "OBJECTID": 40, "MED_DESCRI": "Without Median", "RTT_DESCRI": "Secondary Route", "F_CODE_DES": "Road", "ISO": "ZWE", "ISOCOUNTRY": "ZIMBABWE", "Shape_Leng": 0.09589032548 }, "geometry": { "type": "MultiLineString", "coordinates": [ [ [ 27.903812338668558, -18.926362928706169 ], [ 27.967557880691686, -18.854728716257227 ] ] ] } },
{ "type": "Feature", "properties": { "OBJECTID": 41, "MED_DESCRI": "Without Median", "RTT_DESCRI": "Primary Route", "F_CODE_DES": "Road", "ISO": "ZWE", "ISOCOUNTRY": "ZIMBABWE", "Shape_Leng": 0.26990030646000002 }, "geometry": { "type": "MultiLineString", "coordinates": [ [ [ 27.547300316056806, -18.773393700358952 ], [ 27.588232046172038, -18.782892273259733 ], [ 27.614959670752228, -18.805162521433147 ], [ 27.643234259653411, -18.822334305183972 ], [ 27.659927306400107, -18.835239414667228 ], [ 27.676851311638757, -18.848318024956825 ], [ 27.702322085096228, -18.876127296537447 ], [ 27.752063672000929, -18.923263517797068 ], [ 27.753280642687571, -18.924755106363023 ], [ 27.756834032264806, -18.929107586745658 ], [ 27.757734239243803, -18.932737332361967 ] ] ] } },
{ "type": "Feature", "properties": { "OBJECTID": 42, "MED_DESCRI": "Without Median", "RTT_DESCRI": "Secondary Route", "F_CODE_DES": "Road", "ISO": "ZWE", "ISOCOUNTRY": "ZIMBABWE", "Shape_Leng": 0.16227058771 }, "geometry": { "type": "MultiLineString", "coordinates": [ [ [ 27.889081868033827, -18.839752166828987 ], [ 27.847429291728474, -18.835828716122307 ], [ 27.833671604261156, -18.835983318575245 ], [ 27.823425346702436, -18.840404595295809 ], [ 27.822084391881219, -18.859516086298299 ], [ 27.812240516186932, -18.884838117285256 ], [ 27.810363746189978, -18.901275636061712 ], [ 27.807868945895166, -18.923107214726144 ], [ 27.808431598639402, -18.933763412951123 ] ] ] } },
{ "type": "Feature", "properties": { "OBJECTID": 43, "MED_DESCRI": "Without Median", "RTT_DESCRI": "Secondary Route", "F_CODE_DES": "Road", "ISO": "ZWE", "ISOCOUNTRY": "ZIMBABWE", "Shape_Leng": 0.0964859779 }, "geometry": { "type": "MultiLineString", "coordinates": [ [ [ 27.903812338668558, -18.926362928706169 ], [ 27.893695925226837, -18.925079429771813 ], [ 27.884778905222333, -18.925788936410243 ], [ 27.871398838585606, -18.930532458206358 ], [ 27.818611139092866, -18.934530185719439 ], [ 27.808431598639402, -18.933763412951123 ] ] ] } },
{ "type": "Feature", "properties": { "OBJECTID": 44, "MED_DESCRI": "Without Median", "RTT_DESCRI": "Primary Route", "F_CODE_DES": "Road", "ISO": "ZWE", "ISOCOUNTRY": "ZIMBABWE", "Shape_Leng": 0.00683766882 }, "geometry": { "type": "MultiLineString", "coordinates": [ [ [ 27.758436185281766, -18.939538875318817 ], [ 27.757734239243803, -18.932737332361967 ] ] ] } },
{ "type": "Feature", "properties": { "OBJECTID": 45, "MED_DESCRI": "Without Median", "RTT_DESCRI": "Secondary Route", "F_CODE_DES": "Road", "ISO": "ZWE", "ISOCOUNTRY": "ZIMBABWE", "Shape_Leng": 0.22131030821 }, "geometry": { "type": "MultiLineString", "coordinates": [ [ [ 27.543365525798436, -18.793336791759486 ], [ 27.563895792656751, -18.800746348365237 ] ], [ [ 27.578146494764951, -18.806278024311325 ], [ 27.582453589961233, -18.808308392218464 ] ], [ [ 27.605279406919124, -18.819068495414683 ], [ 27.618944168338771, -18.82551007213209 ], [ 27.625127545200087, -18.830343048592795 ] ], [ [ 27.630670586778194, -18.834870533448338 ], [ 27.650735858273265, -18.861579966542195 ], [ 27.665523595937259, -18.88125618952148 ], [ 27.682865102442577, -18.887683890599021 ], [ 27.705234575515306, -18.892593354399764 ], [ 27.747135119190432, -18.927993809666532 ], [ 27.751745206775922, -18.936162957054762 ], [ 27.753011695933083, -18.93840600922988 ], [ 27.758436185281766, -18.939538875318817 ] ] ] } },
{ "type": "Feature", "properties": { "OBJECTID": 46, "MED_DESCRI": "Without Median", "RTT_DESCRI": "Secondary Route", "F_CODE_DES": "Road", "ISO": "ZWE", "ISOCOUNTRY": "ZIMBABWE", "Shape_Leng": 0.051818886 }, "geometry": { "type": "MultiLineString", "coordinates": [ [ [ 27.808431598639402, -18.933763412951123 ], [ 27.803480176968662, -18.937477074307481 ], [ 27.79718968995229, -18.937190928018879 ], [ 27.785232605300564, -18.933383900846309 ], [ 27.776067805884566, -18.933866417700983 ], [ 27.759475684655172, -18.939756414127146 ] ] ] } },
{ "type": "Feature", "properties": { "OBJECTID": 47, "MED_DESCRI": "Without Median", "RTT_DESCRI": "Secondary Route", "F_CODE_DES": "Road", "ISO": "ZWE", "ISOCOUNTRY": "ZIMBABWE", "Shape_Leng": 0.00106201793 }, "geometry": { "type": "MultiLineString", "coordinates": [ [ [ 27.758436185281766, -18.939538875318817 ], [ 27.759475684655172, -18.939756414127146 ] ] ] } },
{ "type": "Feature", "properties": { "OBJECTID": 48, "MED_DESCRI": "Without Median", "RTT_DESCRI": "Secondary Route", "F_CODE_DES": "Road", "ISO": "ZWE", "ISOCOUNTRY": "ZIMBABWE", "Shape_Leng": 0.12177259378 }, "geometry": { "type": "MultiLineString", "coordinates": [ [ [ 28.013849272525931, -18.946187895055289 ], [ 28.005718304056529, -18.945102657061909 ], [ 28.001874988340091, -18.930734687855534 ], [ 27.996988204542049, -18.929037089789801 ], [ 27.937877699096589, -18.924060908883803 ], [ 27.918075601607768, -18.924392792893059 ], [ 27.903812338668558, -18.926362928706169 ] ] ] } },
{ "type": "Feature", "properties": { "OBJECTID": 49, "MED_DESCRI": "Without Median", "RTT_DESCRI": "Secondary Route", "F_CODE_DES": "Road", "ISO": "ZWE", "ISOCOUNTRY": "ZIMBABWE", "Shape_Leng": 0.11661038363 }, "geometry": { "type": "MultiLineString", "coordinates": [ [ [ 28.13887031551269, -18.835865004666175 ], [ 28.139631229197903, -18.873168879540117 ], [ 28.137302371807039, -18.890474286359165 ], [ 28.118026639417906, -18.943443237015742 ], [ 28.117252306049124, -18.948858276288377 ] ] ] } },
{ "type": "Feature", "properties": { "OBJECTID": 50, "MED_DESCRI": "Without Median", "RTT_DESCRI": "Secondary Route", "F_CODE_DES": "Road", "ISO": "ZWE", "ISOCOUNTRY": "ZIMBABWE", "Shape_Leng": 0.10626361301 }, "geometry": { "type": "MultiLineString", "coordinates": [ [ [ 28.013849272525931, -18.946187895055289 ], [ 28.024423633344043, -18.940656621106143 ], [ 28.03047371269173, -18.940940877019841 ], [ 28.045408303350598, -18.946943328271914 ], [ 28.079536411276422, -18.948709532918542 ], [ 28.094110579739493, -18.951040280684367 ], [ 28.117252306049124, -18.948858276288377 ] ] ] } },
{ "type": "Feature", "properties": { "OBJECTID": 51, "MED_DESCRI": "Without Median", "RTT_DESCRI": "Secondary Route", "F_CODE_DES": "Road", "ISO": "ZWE", "ISOCOUNTRY": "ZIMBABWE", "Shape_Leng": 0.01881424891 }, "geometry": { "type": "MultiLineString", "coordinates": [ [ [ 27.760366442457382, -18.958253844439298 ], [ 27.758436185281766, -18.939538875318817 ] ] ] } },
{ "type": "Feature", "properties": { "OBJECTID": 52, "MED_DESCRI": "Without Median", "RTT_DESCRI": "Secondary Route", "F_CODE_DES": "Road", "ISO": "ZWE", "ISOCOUNTRY": "ZIMBABWE", "Shape_Leng": 0.16597406497 }, "geometry": { "type": "MultiLineString", "coordinates": [ [ [ 28.117252306049124, -18.948858276288377 ], [ 28.139324104423906, -18.951778326408601 ], [ 28.157422933621547, -18.951013631973467 ], [ 28.183023361439041, -18.957838043790616 ], [ 28.204305706143487, -18.95835117896371 ], [ 28.228429855453498, -18.964294472811616 ], [ 28.248064120562788, -18.964620497737712 ], [ 28.281389167176371, -18.965169921454674 ] ] ] } },
{ "type": "Feature", "properties": { "OBJECTID": 53, "MED_DESCRI": "Without Median", "RTT_DESCRI": "Primary Route", "F_CODE_DES": "Road", "ISO": "ZWE", "ISOCOUNTRY": "ZIMBABWE", "Shape_Leng": 0.01469526332 }, "geometry": { "type": "MultiLineString", "coordinates": [ [ [ 27.760366442457382, -18.958253844439298 ], [ 27.760417850403542, -18.959344940616461 ], [ 27.768074051476333, -18.970588739678533 ] ] ] } },
{ "type": "Feature", "properties": { "OBJECTID": 54, "MED_DESCRI": "Without Median", "RTT_DESCRI": "Secondary Route", "F_CODE_DES": "Road", "ISO": "ZWE", "ISOCOUNTRY": "ZIMBABWE", "Shape_Leng": 0.03180275399 }, "geometry": { "type": "MultiLineString", "coordinates": [ [ [ 28.281389167176371, -18.965169921454674 ], [ 28.313191732612438, -18.96506040831116 ] ] ] } },
{ "type": "Feature", "properties": { "OBJECTID": 55, "MED_DESCRI": "Without Median", "RTT_DESCRI": "Secondary Route", "F_CODE_DES": "Road", "ISO": "ZWE", "ISOCOUNTRY": "ZIMBABWE", "Shape_Leng": 0.07689299339 }, "geometry": { "type": "MultiLineString", "coordinates": [ [ [ 28.281389167176371, -18.965169921454674 ], [ 28.2818641243299, -18.986352852402149 ], [ 28.277757720942134, -18.993602702902365 ], [ 28.274967136324335, -19.011154187615602 ], [ 28.276859215480442, -19.024198589493267 ], [ 28.272886246303301, -19.040130533697152 ] ] ] } },
{ "type": "Feature", "properties": { "OBJECTID": 56, "MED_DESCRI": "Without Median", "RTT_DESCRI": "Secondary Route", "F_CODE_DES": "Road", "ISO": "ZWE", "ISOCOUNTRY": "ZIMBABWE", "Shape_Leng": 0.18910806717 }, "geometry": { "type": "MultiLineString", "coordinates": [ [ [ 27.941093533539799, -19.102428525156256 ], [ 27.940906613049776, -19.095649662202106 ], [ 27.943763725915289, -19.086606956545779 ], [ 27.96088977194546, -19.062448409966123 ], [ 27.97102168340399, -19.054115210948169 ], [ 27.987937940083896, -19.046276058093554 ], [ 27.995145832714059, -19.037338247562047 ], [ 27.999181738246648, -19.0199833231718 ], [ 28.014020884756064, -19.007835347523212 ], [ 28.014823946068304, -19.005243212704045 ], [ 28.018400203606575, -18.993690399392392 ], [ 28.018453690785236, -18.98035814970882 ], [ 28.012744945522854, -18.953174657884119 ], [ 28.013849272525931, -18.946187895055289 ] ] ] } },
{ "type": "Feature", "properties": { "OBJECTID": 57, "MED_DESCRI": "Without Median", "RTT_DESCRI": "Secondary Route", "F_CODE_DES": "Road", "ISO": "ZWE", "ISOCOUNTRY": "ZIMBABWE", "Shape_Leng": 0.26320197731 }, "geometry": { "type": "MultiLineString", "coordinates": [ [ [ 27.759475684655172, -18.939756414127146 ], [ 27.766628201530352, -18.941249892168742 ], [ 27.771087656270367, -18.944805171221617 ], [ 27.774000145790126, -18.961038569973994 ], [ 27.778261150731566, -18.965980542468003 ], [ 27.805004083571646, -18.979030613671853 ], [ 27.823087603610077, -18.985427886187949 ], [ 27.840034477709025, -18.994148345869405 ], [ 27.845897635667427, -19.003866159095935 ], [ 27.84763152227697, -19.013011868602803 ], [ 27.847331957204119, -19.018217117625852 ], [ 27.846847549974484, -19.026592274513803 ], [ 27.852718267633975, -19.03654104623223 ], [ 27.863801983774579, -19.04312523923835 ], [ 27.895198852445162, -19.057413071655901 ], [ 27.910797212021748, -19.068925817472461 ], [ 27.928304659632374, -19.094860019674115 ], [ 27.93625456669497, -19.101530018795302 ], [ 27.9376582699133, -19.101791405848644 ], [ 27.941093533539799, -19.102428525156256 ] ] ] } },
{ "type": "Feature", "properties": { "OBJECTID": 58, "MED_DESCRI": "Without Median", "RTT_DESCRI": "Secondary Route", "F_CODE_DES": "Road", "ISO": "ZWE", "ISOCOUNTRY": "ZIMBABWE", "Shape_Leng": 0.17177812482 }, "geometry": { "type": "MultiLineString", "coordinates": [ [ [ 28.272886246303301, -19.040130533697152 ], [ 28.305519174670223, -19.056425169086253 ], [ 28.346128470852307, -19.062997832783708 ], [ 28.361802996710992, -19.068721697448325 ], [ 28.38197326585356, -19.071546492276752 ], [ 28.400344821656233, -19.077026357380419 ], [ 28.416185289519547, -19.081748900691196 ], [ 28.435346506735925, -19.091301780952392 ] ] ] } },
{ "type": "Feature", "properties": { "OBJECTID": 59, "MED_DESCRI": "Without Median", "RTT_DESCRI": "Secondary Route", "F_CODE_DES": "Road", "ISO": "ZWE", "ISOCOUNTRY": "ZIMBABWE", "Shape_Leng": 0.16264624057 }, "geometry": { "type": "MultiLineString", "coordinates": [ [ [ 27.768074051476333, -18.970588739678533 ], [ 27.742851245388692, -19.017278732627346 ], [ 27.727916653830562, -19.034921693681156 ], [ 27.726656023756561, -19.04116058389377 ], [ 27.729705728236809, -19.053947378568637 ], [ 27.740293507839169, -19.068138066218751 ], [ 27.744911156025069, -19.081783298860103 ], [ 27.747999227382479, -19.090909919357273 ], [ 27.765111853729138, -19.109418878978033 ] ] ] } },
{ "type": "Feature", "properties": { "OBJECTID": 60, "MED_DESCRI": "Without Median", "RTT_DESCRI": "Secondary Route", "F_CODE_DES": "Road", "ISO": "ZWE", "ISOCOUNTRY": "ZIMBABWE", "Shape_Leng": 0.29694107229 }, "geometry": { "type": "MultiLineString", "coordinates": [ [ [ 28.023265819162248, -19.114892885897916 ], [ 28.026393958914127, -19.106534927644759 ], [ 28.050935797449142, -19.087667436203162 ], [ 28.074085273216838, -19.041030929533747 ], [ 28.083078460402703, -19.035020918580472 ], [ 28.096437547654773, -19.029573371513834 ], [ 28.108579663320882, -19.028135271025917 ], [ 28.12220769732744, -19.026519699224707 ], [ 28.187601130088126, -19.022743290370499 ], [ 28.194385474410183, -19.023231476551359 ], [ 28.212707512641657, -19.028888625009984 ], [ 28.225715625975397, -19.034704154872827 ], [ 28.238918221298945, -19.034612678532255 ], [ 28.255689703317216, -19.034492475147545 ], [ 28.272886246303301, -19.040130533697152 ] ] ] } },
{ "type": "Feature", "properties": { "OBJECTID": 61, "MED_DESCRI": "Without Median", "RTT_DESCRI": "Primary Route", "F_CODE_DES": "Road", "ISO": "ZWE", "ISOCOUNTRY": "ZIMBABWE", "Shape_Leng": 0.24774976886 }, "geometry": { "type": "MultiLineString", "coordinates": [ [ [ 27.768074051476333, -18.970588739678533 ], [ 27.792289676227654, -18.997768451652689 ], [ 27.818180030184294, -19.022104280687984 ], [ 27.844419466785041, -19.041828131762827 ], [ 27.862106276083807, -19.059354858140125 ], [ 27.889089616592571, -19.086084372195955 ], [ 27.911107927788692, -19.101783846147555 ], [ 27.961477372782554, -19.118484452595339 ] ] ] } },
{ "type": "Feature", "properties": { "OBJECTID": 62, "MED_DESCRI": "Without Median", "RTT_DESCRI": "Secondary Route", "F_CODE_DES": "Road", "ISO": "ZWE", "ISOCOUNTRY": "ZIMBABWE", "Shape_Leng": 0.06036083569 }, "geometry": { "type": "MultiLineString", "coordinates": [ [ [ 28.023265819162248, -19.114892885897916 ], [ 28.018119727543422, -19.112518289887134 ], [ 27.999137890901011, -19.108928612665295 ], [ 27.978603418812781, -19.109746983136745 ], [ 27.971755948378359, -19.114997781022737 ], [ 27.968957992917069, -19.120525275121281 ] ] ] } },
{ "type": "Feature", "properties": { "OBJECTID": 63, "MED_DESCRI": "Without Median", "RTT_DESCRI": "Secondary Route", "F_CODE_DES": "Road", "ISO": "ZWE", "ISOCOUNTRY": "ZIMBABWE", "Shape_Leng": 0.03387710331 }, "geometry": { "type": "MultiLineString", "coordinates": [ [ [ 27.941093533539799, -19.102428525156256 ], [ 27.953346214556234, -19.106559686880018 ], [ 27.968957992917069, -19.120525275121281 ] ] ] } },
{ "type": "Feature", "properties": { "OBJECTID": 64, "MED_DESCRI": "Without Median", "RTT_DESCRI": "Primary Route", "F_CODE_DES": "Road", "ISO": "ZWE", "ISOCOUNTRY": "ZIMBABWE", "Shape_Leng": 0.00775400762 }, "geometry": { "type": "MultiLineString", "coordinates": [ [ [ 27.961477372782554, -19.118484452595339 ], [ 27.968957992917069, -19.120525275121281 ] ] ] } },
{ "type": "Feature", "properties": { "OBJECTID": 65, "MED_DESCRI": "Without Median", "RTT_DESCRI": "Primary Route", "F_CODE_DES": "Road", "ISO": "ZWE", "ISOCOUNTRY": "ZIMBABWE", "Shape_Leng": 0.02013458393 }, "geometry": { "type": "MultiLineString", "coordinates": [ [ [ 27.968957992917069, -19.120525275121281 ], [ 27.984254897045901, -19.133617493952158 ] ] ] } },
{ "type": "Feature", "properties": { "OBJECTID": 66, "MED_DESCRI": "Without Median", "RTT_DESCRI": "Secondary Route", "F_CODE_DES": "Road", "ISO": "ZWE", "ISOCOUNTRY": "ZIMBABWE", "Shape_Leng": 0.11716338309 }, "geometry": { "type": "MultiLineString", "coordinates": [ [ [ 28.272886246303301, -19.040130533697152 ], [ 28.269393904505137, -19.046487737818779 ], [ 28.26077455919858, -19.049047553701598 ], [ 28.263711996811253, -19.057233899724622 ], [ 28.259797996180623, -19.070222924947984 ], [ 28.262710486599701, -19.077720554859695 ], [ 28.258979815466148, -19.110471798035007 ], [ 28.258935967221134, -19.13782312133992 ], [ 28.264102849367077, -19.146730502410719 ] ] ] } },
{ "type": "Feature", "properties": { "OBJECTID": 67, "MED_DESCRI": "Without Median", "RTT_DESCRI": "Secondary Route", "F_CODE_DES": "Road", "ISO": "ZWE", "ISOCOUNTRY": "ZIMBABWE", "Shape_Leng": 0.03964359986 }, "geometry": { "type": "MultiLineString", "coordinates": [ [ [ 28.009365058550657, -19.15201947831622 ], [ 28.023265819162248, -19.114892885897916 ] ] ] } },
{ "type": "Feature", "properties": { "OBJECTID": 68, "MED_DESCRI": "Without Median", "RTT_DESCRI": "Primary Route", "F_CODE_DES": "Road", "ISO": "ZWE", "ISOCOUNTRY": "ZIMBABWE", "Shape_Leng": 0.03113122611 }, "geometry": { "type": "MultiLineString", "coordinates": [ [ [ 27.984254897045901, -19.133617493952158 ], [ 28.009365058550657, -19.15201947831622 ] ] ] } },
{ "type": "Feature", "properties": { "OBJECTID": 69, "MED_DESCRI": "Without Median", "RTT_DESCRI": "Secondary Route", "F_CODE_DES": "Road", "ISO": "ZWE", "ISOCOUNTRY": "ZIMBABWE", "Shape_Leng": 0.06526765119 }, "geometry": { "type": "MultiLineString", "coordinates": [ [ [ 28.435393025068095, -19.118758127985188 ], [ 28.432706913793083, -19.117011953938459 ], [ 28.424730358019644, -19.111824092407915 ], [ 28.41934196745791, -19.109922374318103 ], [ 28.421630660226867, -19.156700926206724 ] ] ] } },
{ "type": "Feature", "properties": { "OBJECTID": 70, "MED_DESCRI": "Without Median", "RTT_DESCRI": "Secondary Route", "F_CODE_DES": "Road", "ISO": "ZWE", "ISOCOUNTRY": "ZIMBABWE", "Shape_Leng": 0.03007912751 }, "geometry": { "type": "MultiLineString", "coordinates": [ [ [ 28.292451706081408, -19.139009759692613 ], [ 28.290428092082834, -19.138700459458619 ], [ 28.289201671320143, -19.138513538968596 ], [ 28.277397108989419, -19.140022325270024 ], [ 28.264102849367077, -19.146730502410719 ] ] ] } },
{ "type": "Feature", "properties": { "OBJECTID": 71, "MED_DESCRI": "Without Median", "RTT_DESCRI": "Secondary Route", "F_CODE_DES": "Road", "ISO": "ZWE", "ISOCOUNTRY": "ZIMBABWE", "Shape_Leng": 0.08686889427 }, "geometry": { "type": "MultiLineString", "coordinates": [ [ [ 27.888164461520716, -19.165082970102958 ], [ 27.961477372782554, -19.118484452595339 ] ] ] } },
{ "type": "Feature", "properties": { "OBJECTID": 72, "MED_DESCRI": "Without Median", "RTT_DESCRI": "Secondary Route", "F_CODE_DES": "Road", "ISO": "ZWE", "ISOCOUNTRY": "ZIMBABWE", "Shape_Leng": 0.13939205969 }, "geometry": { "type": "MultiLineString", "coordinates": [ [ [ 27.765111853729138, -19.109418878978033 ], [ 27.796380959313865, -19.138303748719011 ], [ 27.833252023761929, -19.149236642257165 ], [ 27.853366916250252, -19.158098285607366 ], [ 27.872230438983649, -19.157800610909419 ], [ 27.880975657900365, -19.161800417655115 ], [ 27.888164461520716, -19.165082970102958 ] ] ] } },
{ "type": "Feature", "properties": { "OBJECTID": 73, "MED_DESCRI": "Without Median", "RTT_DESCRI": "Secondary Route", "F_CODE_DES": "Road", "ISO": "ZWE", "ISOCOUNTRY": "ZIMBABWE", "Shape_Leng": 0.01801622519 }, "geometry": { "type": "MultiLineString", "coordinates": [ [ [ 28.003047922823441, -19.168891886751112 ], [ 28.009365058550657, -19.15201947831622 ] ] ] } },
{ "type": "Feature", "properties": { "OBJECTID": 74, "MED_DESCRI": "Without Median", "RTT_DESCRI": "Secondary Route", "F_CODE_DES": "Road", "ISO": "ZWE", "ISOCOUNTRY": "ZIMBABWE", "Shape_Leng": 0.04014244606 }, "geometry": { "type": "MultiLineString", "coordinates": [ [ [ 27.984254897045901, -19.133617493952158 ], [ 27.986627602681779, -19.141233437772883 ], [ 28.003047922823441, -19.168891886751112 ] ] ] } },
{ "type": "Feature", "properties": { "OBJECTID": 75, "MED_DESCRI": "Without Median", "RTT_DESCRI": "Secondary Route", "F_CODE_DES": "Road", "ISO": "ZWE", "ISOCOUNTRY": "ZIMBABWE", "Shape_Leng": 0.01711601348 }, "geometry": { "type": "MultiLineString", "coordinates": [ [ [ 28.010789930011299, -19.183593818300039 ], [ 28.002559735743262, -19.170192774077236 ], [ 28.003047922823441, -19.168891886751112 ] ] ] } },
{ "type": "Feature", "properties": { "OBJECTID": 76, "MED_DESCRI": "Without Median", "RTT_DESCRI": "Secondary Route", "F_CODE_DES": "Road", "ISO": "ZWE", "ISOCOUNTRY": "ZIMBABWE", "Shape_Leng": 0.05972655793 }, "geometry": { "type": "MultiLineString", "coordinates": [ [ [ 28.264102849367077, -19.146730502410719 ], [ 28.26561541641837, -19.149343427756946 ], [ 28.257972634129828, -19.166580227995098 ], [ 28.252714086785716, -19.175703068641667 ], [ 28.245124792575155, -19.180297847967267 ], [ 28.246019329328647, -19.185327516051984 ], [ 28.255169008443033, -19.195037768678048 ] ] ] } },
{ "type": "Feature", "properties": { "OBJECTID": 77, "MED_DESCRI": "Without Median", "RTT_DESCRI": "Secondary Route", "F_CODE_DES": "Road", "ISO": "ZWE", "ISOCOUNTRY": "ZIMBABWE", "Shape_Leng": 0.13459476729 }, "geometry": { "type": "MultiLineString", "coordinates": [ [ [ 27.888164461520716, -19.165082970102958 ], [ 27.898282955094373, -19.170631442686897 ], [ 27.90606313940242, -19.171791146344276 ], [ 27.919633906379715, -19.180141356038689 ], [ 27.929143819731564, -19.182399716473697 ], [ 27.941985991959996, -19.182954809516787 ], [ 27.957408958556641, -19.196077268950773 ], [ 27.9640101613399, -19.198186886915266 ], [ 27.974884088130239, -19.19764899250697 ], [ 28.008237862687281, -19.184593250178295 ], [ 28.010789930011299, -19.183593818300039 ] ] ] } },
{ "type": "Feature", "properties": { "OBJECTID": 78, "MED_DESCRI": "Without Median", "RTT_DESCRI": "Primary Route", "F_CODE_DES": "Road", "ISO": "ZWE", "ISOCOUNTRY": "ZIMBABWE", "Shape_Leng": 0.09396179523000001 }, "geometry": { "type": "MultiLineString", "coordinates": [ [ [ 28.009365058550657, -19.15201947831622 ], [ 28.033462558250505, -19.175510477926196 ], [ 28.047868705476446, -19.19439705837749 ], [ 28.056701620883132, -19.212989744880758 ], [ 28.060892128868716, -19.228401182168795 ] ] ] } },
{ "type": "Feature", "properties": { "OBJECTID": 79, "MED_DESCRI": "Without Median", "RTT_DESCRI": "Secondary Route", "F_CODE_DES": "Road", "ISO": "ZWE", "ISOCOUNTRY": "ZIMBABWE", "Shape_Leng": 0.06764074987 }, "geometry": { "type": "MultiLineString", "coordinates": [ [ [ 28.060892128868716, -19.228401182168795 ], [ 28.05503653061146, -19.221311603447703 ], [ 28.021801069963487, -19.196531246719587 ], [ 28.010789930011299, -19.183593818300039 ] ] ] } },
{ "type": "Feature", "properties": { "OBJECTID": 80, "MED_DESCRI": "Without Median", "RTT_DESCRI": "Primary Route", "F_CODE_DES": "Road", "ISO": "ZWE", "ISOCOUNTRY": "ZIMBABWE", "Shape_Leng": 0.01970837839 }, "geometry": { "type": "MultiLineString", "coordinates": [ [ [ 28.060892128868716, -19.228401182168795 ], [ 28.063026505169148, -19.236249974856435 ], [ 28.061725618742344, -19.24775119136433 ] ] ] } },
{ "type": "Feature", "properties": { "OBJECTID": 81, "MED_DESCRI": "Without Median", "RTT_DESCRI": "Secondary Route", "F_CODE_DES": "Road", "ISO": "ZWE", "ISOCOUNTRY": "ZIMBABWE", "Shape_Leng": 0.17110512173 }, "geometry": { "type": "MultiLineString", "coordinates": [ [ [ 27.743211668483752, -19.255998584267218 ], [ 27.854246143844534, -19.186376654359094 ], [ 27.888164461520716, -19.165082970102958 ] ] ] } },
{ "type": "Feature", "properties": { "OBJECTID": 82, "MED_DESCRI": "Without Median", "RTT_DESCRI": "Secondary Route", "F_CODE_DES": "Road", "ISO": "ZWE", "ISOCOUNTRY": "ZIMBABWE", "Shape_Leng": 0.14841254827 }, "geometry": { "type": "MultiLineString", "coordinates": [ [ [ 27.765111853729138, -19.109418878978033 ], [ 27.760887137331565, -19.156286153483165 ], [ 27.751491569180644, -19.220892023847796 ], [ 27.748254755352718, -19.234620983371656 ], [ 27.743211668483752, -19.255998584267218 ] ] ] } },
{ "type": "Feature", "properties": { "OBJECTID": 83, "MED_DESCRI": "Without Median", "RTT_DESCRI": "Secondary Route", "F_CODE_DES": "Road", "ISO": "ZWE", "ISOCOUNTRY": "ZIMBABWE", "Shape_Leng": 0.05251651527 }, "geometry": { "type": "MultiLineString", "coordinates": [ [ [ 27.743211668483752, -19.255998584267218 ], [ 27.734638249755449, -19.271451980324571 ], [ 27.72658722831801, -19.277416253557192 ], [ 27.703701029079298, -19.2870331403671 ] ] ] } },
{ "type": "Feature", "properties": { "OBJECTID": 84, "MED_DESCRI": "Without Median", "RTT_DESCRI": "Secondary Route", "F_CODE_DES": "Road", "ISO": "ZWE", "ISOCOUNTRY": "ZIMBABWE", "Shape_Leng": 0.00844089891 }, "geometry": { "type": "MultiLineString", "coordinates": [ [ [ 27.697373675254937, -19.28144624784602 ], [ 27.703701029079298, -19.2870331403671 ] ] ] } },
{ "type": "Feature", "properties": { "OBJECTID": 85, "MED_DESCRI": "Without Median", "RTT_DESCRI": "Secondary Route", "F_CODE_DES": "Road", "ISO": "ZWE", "ISOCOUNTRY": "ZIMBABWE", "Shape_Leng": 0.03001842479 }, "geometry": { "type": "MultiLineString", "coordinates": [ [ [ 28.255169008443033, -19.195037768678048 ], [ 28.270872073387523, -19.211700386863299 ], [ 28.271760939915509, -19.216497395838076 ], [ 28.271049828886532, -19.218625435515378 ] ] ] } },
{ "type": "Feature", "properties": { "OBJECTID": 86, "MED_DESCRI": "Without Median", "RTT_DESCRI": "Secondary Route", "F_CODE_DES": "Road", "ISO": "ZWE", "ISOCOUNTRY": "ZIMBABWE", "Shape_Leng": 0.07911462873 }, "geometry": { "type": "MultiLineString", "coordinates": [ [ [ 28.131391611833465, -19.256028186351671 ], [ 28.116382528530892, -19.246643084510708 ], [ 28.101924973358905, -19.241319710436244 ], [ 28.089817066104786, -19.241214815311423 ], [ 28.085290894259401, -19.236059273616547 ], [ 28.070983972832153, -19.235326709260164 ], [ 28.064863207670953, -19.233207641219622 ], [ 28.060892128868716, -19.228401182168795 ] ] ] } },
{ "type": "Feature", "properties": { "OBJECTID": 87, "MED_DESCRI": "Without Median", "RTT_DESCRI": "Secondary Route", "F_CODE_DES": "Road", "ISO": "ZWE", "ISOCOUNTRY": "ZIMBABWE", "Shape_Leng": 0.04673900954 }, "geometry": { "type": "MultiLineString", "coordinates": [ [ [ 27.703701029079298, -19.2870331403671 ], [ 27.715301471385828, -19.304384285806123 ], [ 27.728971463262496, -19.315963748727995 ], [ 27.735874121493566, -19.319911958669934 ] ] ] } },
{ "type": "Feature", "properties": { "OBJECTID": 88, "MED_DESCRI": "Without Median", "RTT_DESCRI": "Secondary Route", "F_CODE_DES": "Road", "ISO": "ZWE", "ISOCOUNTRY": "ZIMBABWE", "Shape_Leng": 0.04381790389 }, "geometry": { "type": "MultiLineString", "coordinates": [ [ [ 28.285506149289404, -19.174995982078883 ], [ 28.276117389905664, -19.173618398770031 ], [ 28.269485379946389, -19.192205415047795 ], [ 28.255169008443033, -19.195037768678048 ] ] ] } },
{ "type": "Feature", "properties": { "OBJECTID": 89, "MED_DESCRI": "Without Median", "RTT_DESCRI": "Secondary Route", "F_CODE_DES": "Road", "ISO": "ZWE", "ISOCOUNTRY": "ZIMBABWE", "Shape_Leng": 0.05037425001 }, "geometry": { "type": "MultiLineString", "coordinates": [ [ [ 28.061725618742344, -19.24775119136433 ], [ 28.065423970939548, -19.250429132298564 ], [ 28.075918195868098, -19.267820345232678 ], [ 28.085939353118704, -19.278099110585458 ], [ 28.095245419840296, -19.284223751824641 ] ] ] } },
{ "type": "Feature", "properties": { "OBJECTID": 90, "MED_DESCRI": "Without Median", "RTT_DESCRI": "Primary Route", "F_CODE_DES": "Road", "ISO": "ZWE", "ISOCOUNTRY": "ZIMBABWE", "Shape_Leng": 0.0535913042 }, "geometry": { "type": "MultiLineString", "coordinates": [ [ [ 28.061725618742344, -19.24775119136433 ], [ 28.060598422878968, -19.258382819211704 ], [ 28.063627336832155, -19.269558011692823 ], [ 28.067472541124914, -19.27611158638058 ], [ 28.084226928829764, -19.292907046123219 ] ] ] } }
]
}
